{
"type": "FeatureCollection",
"name": "Transport_2025-05-26",
"crs": { "type": "name", "properties": { "name": "urn:ogc:def:crs:OGC:1.3:CRS84" } },
"features": [
{ "type": "Feature", "properties": { "ID": "TR-001", "Name": "Iloilo Central Line Bus & Jeepney Terminal", "Type": "Transport", "Address": "PGWQ+GJ Iloilo City, Iloilo", "Barangay": "Jaro", "City/Municipality": "Iloilo City", "Facebook": null, "URL": null, "Mobile_Contact": null, "Landline_Contact": null, "Email": null, "Logo": null, "Latitude": 10.746294, "Longitude": 122.53911 }, "geometry": { "type": "Point", "coordinates": [ 122.53911, 10.746294 ] } },
{ "type": "Feature", "properties": { "ID": "TR-002", "Name": "Ceres Northbound Terminal", "Type": "Transport", "Address": "QH3C+PV7 Ceres Northbound Terminal Iloilo City, Jaro, Iloilo City, Iloilo", "Barangay": "Jaro", "City/Municipality": "Iloilo City", "Facebook": null, "URL": null, "Mobile_Contact": null, "Landline_Contact": null, "Email": null, "Logo": null, "Latitude": 10.754276, "Longitude": 122.572175 }, "geometry": { "type": "Point", "coordinates": [ 122.572175, 10.754276 ] } },
{ "type": "Feature", "properties": { "ID": "TR-003", "Name": "Iloilo Terminal and General Services Inc.", "Type": "Transport", "Address": "QG2Q+W9R Iloilo Terminal and General Services Inc., Jaro, Iloilo City, Iloilo", "Barangay": "Jaro", "City/Municipality": "Iloilo City", "Facebook": null, "URL": null, "Mobile_Contact": null, "Landline_Contact": null, "Email": null, "Logo": null, "Latitude": 10.75237, "Longitude": 122.538386 }, "geometry": { "type": "Point", "coordinates": [ 122.538386, 10.75237 ] } },
{ "type": "Feature", "properties": { "ID": "TR-004", "Name": "Tagbak Bus Terminal", "Type": "Transport", "Address": "QH6H+Q2 Tagbak Bus Terminal, Jaro, Iloilo City, Iloilo", "Barangay": "Jaro", "City/Municipality": "Iloilo City", "Facebook": null, "URL": null, "Mobile_Contact": null, "Landline_Contact": null, "Email": null, "Logo": null, "Latitude": 10.761957, "Longitude": 122.57759 }, "geometry": { "type": "Point", "coordinates": [ 122.57759, 10.761957 ] } },
{ "type": "Feature", "properties": { "ID": "TR-005", "Name": "Ceres Terminal Jaro to Caticlan", "Type": "Transport", "Address": "QH3C+JVX Ceres Terminal jaro to caticlan, 3rd St, Jaro, Iloilo City, Iloilo", "Barangay": "Jaro", "City/Municipality": "Iloilo City", "Facebook": null, "URL": null, "Mobile_Contact": null, "Landline_Contact": null, "Email": null, "Logo": null, "Latitude": 10.754124, "Longitude": 122.57222 }, "geometry": { "type": "Point", "coordinates": [ 122.57222, 10.754124 ] } },
{ "type": "Feature", "properties": { "ID": "TR-006", "Name": "ALPS Bus Terminal - Iloilo", "Type": "Transport", "Address": "QH6G+8Q ALPS Bus Terminal - Iloilo, MacArthur Dr., Tagbak, Jaro, Iloilo City, 5000, Iloilo", "Barangay": "Jaro", "City/Municipality": "Iloilo City", "Facebook": null, "URL": null, "Mobile_Contact": "0915 954 4647", "Landline_Contact": null, "Email": null, "Logo": null, "Latitude": 10.760821, "Longitude": 122.576905 }, "geometry": { "type": "Point", "coordinates": [ 122.576905, 10.760821 ] } },
{ "type": "Feature", "properties": { "ID": "TR-007", "Name": "Don Benito Acap Southern Iloilo Line Jeepney Terminal", "Type": "Transport", "Address": "MFVX+5R Don Benito Acap Southern Iloilo Line Jeepney Terminal, Osmeña St, Villa Arevalo District, Iloilo City, 5000 Iloilo", "Barangay": "Arevalo", "City/Municipality": "Iloilo City", "Facebook": null, "URL": null, "Mobile_Contact": null, "Landline_Contact": null, "Email": null, "Logo": null, "Latitude": 10.692966, "Longitude": 122.499613 }, "geometry": { "type": "Point", "coordinates": [ 122.499613, 10.692966 ] } },
{ "type": "Feature", "properties": { "ID": "TR-008", "Name": "Brgy. San Pedro, Molo Terminal", "Type": "Transport", "Address": "MGXW+JX Brgy. San Pedro, Molo Terminal, San Pedro St, Molo, Iloilo City, Iloilo", "Barangay": "Molo", "City/Municipality": "Iloilo City", "Facebook": null, "URL": null, "Mobile_Contact": null, "Landline_Contact": null, "Email": null, "Logo": null, "Latitude": 10.699089, "Longitude": 122.547388 }, "geometry": { "type": "Point", "coordinates": [ 122.547388, 10.699089 ] } },
{ "type": "Feature", "properties": { "ID": "TR-009", "Name": "Super/ Iloilo Terminal Market", "Type": "Transport", "Address": "MHV7+5Q Super/ Iloilo Terminal Market, Iloilo City Proper, Iloilo City, Iloilo", "Barangay": "Iloilo City Proper", "City/Municipality": "Iloilo City", "Facebook": null, "URL": "iloilocity.gov.ph", "Mobile_Contact": null, "Landline_Contact": null, "Email": null, "Logo": null, "Latitude": 10.692999, "Longitude": 122.5645 }, "geometry": { "type": "Point", "coordinates": [ 122.5645, 10.692999 ] } },
{ "type": "Feature", "properties": { "ID": "TR-010", "Name": "New Ceres Terminal", "Type": "Transport", "Address": "QH3C+HWC New Ceres Terminal, Jaro, Iloilo City, Iloilo", "Barangay": "Jaro", "City/Municipality": "Iloilo City", "Facebook": null, "URL": null, "Mobile_Contact": null, "Landline_Contact": null, "Email": null, "Logo": null, "Latitude": 10.753948, "Longitude": 122.572254 }, "geometry": { "type": "Point", "coordinates": [ 122.572254, 10.753948 ] } },
{ "type": "Feature", "properties": { "ID": "TR-011", "Name": "Ceres Terminal Antique Bound", "Type": "Transport", "Address": "MGR2+XX Ceres Terminal Antique Bound, 127 Osmeña St, Villa Arevalo District, Iloilo City, Iloilo", "Barangay": "Arevalo", "City/Municipality": "Iloilo City", "Facebook": null, "URL": null, "Mobile_Contact": null, "Landline_Contact": null, "Email": null, "Logo": null, "Latitude": 10.692476, "Longitude": 122.502443 }, "geometry": { "type": "Point", "coordinates": [ 122.502443, 10.692476 ] } },
{ "type": "Feature", "properties": { "ID": "TR-012", "Name": "Iloilo City-Santa Barbara Multicab Terminal", "Type": "Transport", "Address": "RFJX+M4G Iloilo City-Santa Barbara Multicab Terminal, Cabatuan, Iloilo", "Barangay": null, "City/Municipality": "Cabatuan", "Facebook": null, "URL": null, "Mobile_Contact": null, "Landline_Contact": null, "Email": null, "Logo": null, "Latitude": 10.831691, "Longitude": 122.497821 }, "geometry": { "type": "Point", "coordinates": [ 122.497821, 10.831691 ] } },
{ "type": "Feature", "properties": { "ID": "TR-013", "Name": "Iloilo International Airport", "Type": "Transport", "Address": "RFJW+JF4 Iloilo International Airport (ILO), Iloilo Airport Access Road, Cabatuan, 5031 Iloilo", "Barangay": null, "City/Municipality": "Cabatuan", "Facebook": null, "URL": "https://en.wikipedia.org/wiki/Iloilo_International_Airport", "Mobile_Contact": null, "Landline_Contact": "(033) 320 8058", "Email": null, "Logo": null, "Latitude": 10.831501, "Longitude": 122.496207 }, "geometry": { "type": "Point", "coordinates": [ 122.496207, 10.831501 ] } },
{ "type": "Feature", "properties": { "ID": "TR-014", "Name": "Puyas Tricycle Terminal", "Type": "Transport", "Address": "VGMF+WJ7 Puyas Tricycle Terminal, Unnamed Road, Cabatuan, Iloilo", "Barangay": "Puyas", "City/Municipality": "Cabatuan", "Facebook": null, "URL": null, "Mobile_Contact": null, "Landline_Contact": null, "Email": null, "Logo": null, "Latitude": 10.884794, "Longitude": 122.524056 }, "geometry": { "type": "Point", "coordinates": [ 122.524056, 10.884794 ] } },
{ "type": "Feature", "properties": { "ID": "TR-015", "Name": "Tricycle Terminal", "Type": "Transport", "Address": "QG2C+XQ9 Tricycle Terminal, Pavia, Iloilo", "Barangay": null, "City/Municipality": "Pavia", "Facebook": null, "URL": null, "Mobile_Contact": null, "Landline_Contact": null, "Email": null, "Logo": null, "Latitude": 10.752411, "Longitude": 122.521991 }, "geometry": { "type": "Point", "coordinates": [ 122.521991, 10.752411 ] } },
{ "type": "Feature", "properties": { "ID": "TR-016", "Name": "Tricycle Terminal to FastCraft Iloilo", "Type": "Transport", "Address": "MHW9+HP9 Tricycle Terminal to FastCraft Ilo-Ilo, JM Basa St, Iloilo City Proper, Iloilo City, 5000 Iloilo", "Barangay": "Iloilo City Proper", "City/Municipality": "Iloilo City", "Facebook": null, "URL": null, "Mobile_Contact": null, "Landline_Contact": null, "Email": null, "Logo": null, "Latitude": 10.696553, "Longitude": 122.569404 }, "geometry": { "type": "Point", "coordinates": [ 122.569404, 10.696553 ] } },
{ "type": "Feature", "properties": { "ID": "TR-017", "Name": "Mohon Terminal", "Type": "Transport", "Address": "MFVX+8X9, Villa Arevalo District, Iloilo City, Iloilo", "Barangay": "Arevalo", "City/Municipality": "Iloilo City", "Facebook": null, "URL": null, "Mobile_Contact": null, "Landline_Contact": null, "Email": null, "Logo": null, "Latitude": 10.69383, "Longitude": 122.4997 }, "geometry": { "type": "Point", "coordinates": [ 122.4997, 10.69383 ] } },
{ "type": "Feature", "properties": { "ID": "TR-018", "Name": "Iloilo Terminal and General Services Inc.", "Type": "Transport", "Address": "QG2Q+W9R, Jaro, Iloilo City, Iloilo", "Barangay": "Jaro", "City/Municipality": "Iloilo City", "Facebook": null, "URL": null, "Mobile_Contact": null, "Landline_Contact": null, "Email": null, "Logo": null, "Latitude": 10.752919, "Longitude": 122.53851 }, "geometry": { "type": "Point", "coordinates": [ 122.53851, 10.752919 ] } },
{ "type": "Feature", "properties": { "ID": "TR-019", "Name": "Ticud Terminal", "Type": "Transport", "Address": "PH8H+XXC, La Paz, Iloilo City, Iloilo", "Barangay": "La Paz", "City/Municipality": "Iloilo City", "Facebook": null, "URL": null, "Mobile_Contact": null, "Landline_Contact": null, "Email": null, "Logo": null, "Latitude": 10.718056, "Longitude": 122.580144 }, "geometry": { "type": "Point", "coordinates": [ 122.580144, 10.718056 ] } },
{ "type": "Feature", "properties": { "ID": "TR-020", "Name": "Iloilo Fastcraft & Roro - Terminal", "Type": "Transport", "Address": "MHWF+GC New Iloilo Ferry Terminal Access Rd, Lapuz, Iloilo City, 5000 Iloilo", "Barangay": "Lapuz", "City/Municipality": "Iloilo City", "Facebook": null, "URL": null, "Mobile_Contact": null, "Landline_Contact": null, "Email": null, "Logo": null, "Latitude": 10.696436, "Longitude": 122.573475 }, "geometry": { "type": "Point", "coordinates": [ 122.573475, 10.696436 ] } },
{ "type": "Feature", "properties": { "ID": "TR-021", "Name": "MEXJeep Mohon Terminal", "Type": "Transport", "Address": "MFVX+5WJ, Osmeña St, Villa Arevalo District, Iloilo City, Iloilo", "Barangay": "Arevalo", "City/Municipality": "Iloilo City", "Facebook": null, "URL": null, "Mobile_Contact": null, "Landline_Contact": null, "Email": null, "Logo": null, "Latitude": 10.693518, "Longitude": 122.499285 }, "geometry": { "type": "Point", "coordinates": [ 122.499285, 10.693518 ] } },
{ "type": "Feature", "properties": { "ID": "TR-022", "Name": "Weesam Express Iloilo", "Type": "Transport", "Address": "MHWF+HF Mulle Muelle Loney St, Lapuz, Iloilo City, Iloilo", "Barangay": "Lapuz", "City/Municipality": "Iloilo City", "Facebook": null, "URL": null, "Mobile_Contact": null, "Landline_Contact": "(033) 337 3282", "Email": null, "Logo": null, "Latitude": 10.696579, "Longitude": 122.573427 }, "geometry": { "type": "Point", "coordinates": [ 122.573427, 10.696579 ] } },
{ "type": "Feature", "properties": { "ID": "TR-023", "Name": "Guimaras Iloilo Ferry Terminal", "Type": "Transport", "Address": "MHVM+29 Iloilo City Proper, Iloilo City, Iloilo", "Barangay": "Iloilo City Proper", "City/Municipality": "Iloilo City", "Facebook": null, "URL": null, "Mobile_Contact": null, "Landline_Contact": null, "Email": null, "Logo": null, "Latitude": 10.693481, "Longitude": 122.583472 }, "geometry": { "type": "Point", "coordinates": [ 122.583472, 10.693481 ] } },
{ "type": "Feature", "properties": { "ID": "TR-024", "Name": "Robinsons Pavia Transport Terminal", "Type": "Transport", "Address": "QG3Q+4RF, Unnamed Road, Pavia, Iloilo", "Barangay": null, "City/Municipality": "Pavia", "Facebook": null, "URL": null, "Mobile_Contact": null, "Landline_Contact": null, "Email": null, "Logo": null, "Latitude": 10.752867, "Longitude": 122.539421 }, "geometry": { "type": "Point", "coordinates": [ 122.539421, 10.752867 ] } },
{ "type": "Feature", "properties": { "ID": "TR-025", "Name": "Iloilo Ferry Terminal-Parola", "Type": "Transport", "Address": "MHRM+X9 Fort San Pedro, Parola, Iloilo Proper, Iloilo City, Iloilo", "Barangay": "Iloilo City Proper", "City/Municipality": "Iloilo City", "Facebook": null, "URL": null, "Mobile_Contact": null, "Landline_Contact": null, "Email": null, "Logo": null, "Latitude": 10.692988, "Longitude": 122.585263 }, "geometry": { "type": "Point", "coordinates": [ 122.585263, 10.692988 ] } },
{ "type": "Feature", "properties": { "ID": "TR-026", "Name": "Aleosan Transport Terminal", "Type": "Transport", "Address": "PGR8+4W Mandurriao, Iloilo City, Iloilo", "Barangay": "Mandurriao", "City/Municipality": "Iloilo City", "Facebook": null, "URL": null, "Mobile_Contact": null, "Landline_Contact": null, "Email": null, "Logo": null, "Latitude": 10.740887, "Longitude": 122.518435 }, "geometry": { "type": "Point", "coordinates": [ 122.518435, 10.740887 ] } },
{ "type": "Feature", "properties": { "ID": "TR-027", "Name": "Baldoza Land Transport Terminal", "Type": "Transport", "Address": "PH7J+CR Lapuz, Iloilo City, Iloilo", "Barangay": "Lapuz", "City/Municipality": "Iloilo City", "Facebook": null, "URL": null, "Mobile_Contact": null, "Landline_Contact": null, "Email": null, "Logo": null, "Latitude": 10.714727, "Longitude": 122.582593 }, "geometry": { "type": "Point", "coordinates": [ 122.582593, 10.714727 ] } },
{ "type": "Feature", "properties": { "ID": "TR-028", "Name": "Iloilo-Jordan Port Iloilo", "Type": "Transport", "Address": "PH2H+H6 Lapuz, Iloilo City, Iloilo", "Barangay": "Lapuz", "City/Municipality": "Iloilo City", "Facebook": null, "URL": null, "Mobile_Contact": null, "Landline_Contact": null, "Email": null, "Logo": null, "Latitude": 10.702427, "Longitude": 122.578053 }, "geometry": { "type": "Point", "coordinates": [ 122.578053, 10.702427 ] } },
{ "type": "Feature", "properties": { "ID": "TR-029", "Name": "RJB Star Transport Service Terminal", "Type": "Transport", "Address": "385 5th St, Jaro, Iloilo City, Iloilo", "Barangay": "Jaro", "City/Municipality": "Iloilo City", "Facebook": "Rjb Star Transport and Services", "URL": "https://m.facebook.com/Rjb-Star-Transport-Services-1091520754383768/?ref=bookmarks", "Mobile_Contact": "9989840673", "Landline_Contact": null, "Email": null, "Logo": null, "Latitude": 10.753226, "Longitude": 122.572254 }, "geometry": { "type": "Point", "coordinates": [ 122.572254, 10.753226 ] } },
{ "type": "Feature", "properties": { "ID": "TR-030", "Name": "Pavia People's Terminal", "Type": "Transport", "Address": "QG3Q+CJ Benigno Aquino Jr. Avenue, Pavia, Iloilo", "Barangay": null, "City/Municipality": "Pavia", "Facebook": null, "URL": null, "Mobile_Contact": null, "Landline_Contact": null, "Email": null, "Logo": null, "Latitude": 10.75398, "Longitude": 122.538978 }, "geometry": { "type": "Point", "coordinates": [ 122.538978, 10.75398 ] } },
{ "type": "Feature", "properties": { "ID": "TR-031", "Name": "Iloilo Domestic Port", "Type": "Transport", "Address": "MHQJ+QQ5, Fort San Pedro Dr, Iloilo City Proper, Iloilo City, 5000 Iloilo", "Barangay": "Iloilo City Proper", "City/Municipality": "Iloilo City", "Facebook": null, "URL": null, "Mobile_Contact": null, "Landline_Contact": "(033) 337 6945", "Email": null, "Logo": null, "Latitude": 10.690102, "Longitude": 122.581937 }, "geometry": { "type": "Point", "coordinates": [ 122.581937, 10.690102 ] } },
{ "type": "Feature", "properties": { "ID": "TR-032", "Name": "Visayas Container Terminal", "Type": "Transport", "Address": "PH4V+MC9, Lapuz, Iloilo City, Iloilo", "Barangay": "Lapuz", "City/Municipality": "Iloilo City", "Facebook": null, "URL": null, "Mobile_Contact": null, "Landline_Contact": null, "Email": null, "Logo": null, "Latitude": 10.707336, "Longitude": 122.593824 }, "geometry": { "type": "Point", "coordinates": [ 122.593824, 10.707336 ] } },
{ "type": "Feature", "properties": { "ID": "TR-033", "Name": "AGTRIDA Trisikad Terminal", "Type": "Transport", "Address": "QG9P+JCW, Road 1, Pavia, Iloilo", "Barangay": null, "City/Municipality": "Pavia", "Facebook": null, "URL": null, "Mobile_Contact": null, "Landline_Contact": null, "Email": null, "Logo": null, "Latitude": 10.769746, "Longitude": 122.53617 }, "geometry": { "type": "Point", "coordinates": [ 122.53617, 10.769746 ] } },
{ "type": "Feature", "properties": { "ID": "TR-034", "Name": "Ticud Terminal", "Type": "Transport", "Address": "PH8J+QF La Paz, Iloilo City, Iloilo", "Barangay": "La Paz", "City/Municipality": "Iloilo City", "Facebook": null, "URL": null, "Mobile_Contact": null, "Landline_Contact": null, "Email": null, "Logo": null, "Latitude": 10.717264, "Longitude": 122.579906 }, "geometry": { "type": "Point", "coordinates": [ 122.579906, 10.717264 ] } },
{ "type": "Feature", "properties": { "ID": "TR-035", "Name": "Iloilo Commercial Port Complex", "Type": "Transport", "Address": "PH4V+P39, Lapuz, Iloilo City, Iloilo", "Barangay": "Lapuz", "City/Municipality": "Iloilo City", "Facebook": null, "URL": null, "Mobile_Contact": null, "Landline_Contact": null, "Email": null, "Logo": null, "Latitude": 10.707592, "Longitude": 122.59283 }, "geometry": { "type": "Point", "coordinates": [ 122.59283, 10.707592 ] } },
{ "type": "Feature", "properties": { "ID": "TR-036", "Name": "Ortiz Wharf", "Type": "Transport", "Address": "MHQC+QR Iloilo City Proper, Iloilo City, Iloilo", "Barangay": "Iloilo City Proper", "City/Municipality": "Iloilo City", "Facebook": null, "URL": null, "Mobile_Contact": null, "Landline_Contact": null, "Email": null, "Logo": null, "Latitude": 10.689631, "Longitude": 122.572054 }, "geometry": { "type": "Point", "coordinates": [ 122.572054, 10.689631 ] } },
{ "type": "Feature", "properties": { "ID": "TR-037", "Name": "Jibao-an Modernized Jeepney Terminal", "Type": "Transport", "Address": "PGVC+32F Jibao - An, Iloilo Circumferential Rd 1, Iloilo City, Iloilo", "Barangay": "Jibao-an", "City/Municipality": "Iloilo City", "Facebook": null, "URL": null, "Mobile_Contact": null, "Landline_Contact": null, "Email": null, "Logo": null, "Latitude": 10.742891, "Longitude": 122.520087 }, "geometry": { "type": "Point", "coordinates": [ 122.520087, 10.742891 ] } },
{ "type": "Feature", "properties": { "ID": "TR-038", "Name": "MEXJeep Pavia Terminal", "Type": "Transport", "Address": "QG3Q+GJG, Barangay Road, Pavia, Iloilo", "Barangay": null, "City/Municipality": "Pavia", "Facebook": null, "URL": null, "Mobile_Contact": null, "Landline_Contact": null, "Email": null, "Logo": null, "Latitude": 10.753989, "Longitude": 122.539109 }, "geometry": { "type": "Point", "coordinates": [ 122.539109, 10.753989 ] } },
{ "type": "Feature", "properties": { "ID": "TR-039", "Name": "Plazleta Gay Jeepney Stop", "Type": "Transport", "Address": "MHW9+PH Iznart St, Iloilo City Proper, Iloilo City, Iloilo", "Barangay": "Iloilo City Proper", "City/Municipality": "Iloilo City", "Facebook": null, "URL": null, "Mobile_Contact": null, "Landline_Contact": null, "Email": null, "Logo": null, "Latitude": 10.697619, "Longitude": 122.568852 }, "geometry": { "type": "Point", "coordinates": [ 122.568852, 10.697619 ] } },
{ "type": "Feature", "properties": { "ID": "TR-040", "Name": "Don Benito Acap Southbound Terminal", "Type": "Transport", "Address": "MGPH+QFF, Osmeña Street, Villa Arevalo District, Iloilo City, Iloilo", "Barangay": "Arevalo", "City/Municipality": "Iloilo City", "Facebook": null, "URL": null, "Mobile_Contact": null, "Landline_Contact": null, "Email": null, "Logo": null, "Latitude": 10.687026, "Longitude": 122.528712 }, "geometry": { "type": "Point", "coordinates": [ 122.528712, 10.687026 ] } },
{ "type": "Feature", "properties": { "ID": "TR-041", "Name": "Aerostar 1 Transport Terminal - Gaisano Oton - Dumangas Port", "Type": "Transport", "Address": "MFRC+V75, Oton, Iloilo", "Barangay": "Poblacion West", "City/Municipality": "Oton", "Facebook": null, "URL": null, "Mobile_Contact": null, "Landline_Contact": null, "Email": null, "Logo": null, "Latitude": 10.6923, "Longitude": 122.470687 }, "geometry": { "type": "Point", "coordinates": [ 122.470687, 10.6923 ] } },
{ "type": "Feature", "properties": { "ID": "TR-042", "Name": "Ceres Liner", "Type": "Transport", "Address": "QH3F+Q2 Jaro, Iloilo City, Iloilo", "Barangay": "Jaro", "City/Municipality": "Iloilo City", "Facebook": null, "URL": null, "Mobile_Contact": null, "Landline_Contact": null, "Email": null, "Logo": null, "Latitude": 10.755443, "Longitude": 122.572614 }, "geometry": { "type": "Point", "coordinates": [ 122.572614, 10.755443 ] } },
{ "type": "Feature", "properties": { "ID": "TR-043", "Name": "Savannah Shuttle Terminal", "Type": "Transport", "Address": "PGV7+W67, Pavia, Iloilo", "Barangay": "Jibao-an", "City/Municipality": "Pavia", "Facebook": null, "URL": null, "Mobile_Contact": null, "Landline_Contact": null, "Email": null, "Logo": null, "Latitude": 10.745367, "Longitude": 122.512895 }, "geometry": { "type": "Point", "coordinates": [ 122.512895, 10.745367 ] } },
{ "type": "Feature", "properties": { "ID": "TR-044", "Name": "Milagrosa Shipping Lines", "Type": "Transport", "Address": "PH2H+8J Lapuz, Iloilo City, Iloilo", "Barangay": "Lapuz", "City/Municipality": "Iloilo City", "Facebook": null, "URL": null, "Mobile_Contact": null, "Landline_Contact": null, "Email": null, "Logo": null, "Latitude": 10.701405, "Longitude": 122.579059 }, "geometry": { "type": "Point", "coordinates": [ 122.579059, 10.701405 ] } },
{ "type": "Feature", "properties": { "ID": "TR-045", "Name": "Sooc Tricycle Terminal Area", "Type": "Transport", "Address": "MGQ9+W7 Gloryville Subdivision, Villa Arevalo District, Iloilo City, Iloilo", "Barangay": "Arevalo", "City/Municipality": "Iloilo City", "Facebook": null, "URL": null, "Mobile_Contact": null, "Landline_Contact": null, "Email": null, "Logo": null, "Latitude": 10.690364, "Longitude": 122.518261 }, "geometry": { "type": "Point", "coordinates": [ 122.518261, 10.690364 ] } },
{ "type": "Feature", "properties": { "ID": "TR-046", "Name": "Iloilo Airport Multicab Transport Terminal", "Type": "Transport", "Address": "RGCH+WH8, Brgy. Damma, Sta. Barbara, Iloilo City, 5002 Iloilo", "Barangay": "Santa Barbara", "City/Municipality": "Iloilo City", "Facebook": null, "URL": null, "Mobile_Contact": null, "Landline_Contact": null, "Email": null, "Logo": null, "Latitude": 10.822349, "Longitude": 122.528942 }, "geometry": { "type": "Point", "coordinates": [ 122.528942, 10.822349 ] } },
{ "type": "Feature", "properties": { "ID": "TR-047", "Name": "Pagsangaan-Quintin Salas Tricycle Terminal", "Type": "Transport", "Address": "QH83+3F Pavia-Anilao-Pagsanga-an Rd, Pavia, Iloilo", "Barangay": "Pagsanga-an", "City/Municipality": "Pavia", "Facebook": null, "URL": null, "Mobile_Contact": null, "Landline_Contact": null, "Email": null, "Logo": null, "Latitude": 10.765211, "Longitude": 122.553684 }, "geometry": { "type": "Point", "coordinates": [ 122.553684, 10.765211 ] } },
{ "type": "Feature", "properties": { "ID": "TR-048", "Name": "Oton Jeepney Terminal", "Type": "Transport", "Address": "MFR8+6CV, J.C. Zulueta St, Oton, Iloilo", "Barangay": null, "City/Municipality": "Oton", "Facebook": null, "URL": null, "Mobile_Contact": null, "Landline_Contact": null, "Email": null, "Logo": null, "Latitude": 10.690617, "Longitude": 122.466052 }, "geometry": { "type": "Point", "coordinates": [ 122.466052, 10.690617 ] } },
{ "type": "Feature", "properties": { "ID": "TR-049", "Name": "Ocean Jet - Iloilo", "Type": "Transport", "Address": "MHWF+HG Muelle Loney St, Iloilo City Proper, Iloilo City, Iloilo", "Barangay": "Iloilo City Proper", "City/Municipality": "Iloilo City", "Facebook": null, "URL": "http://www.oceanjet.net/", "Mobile_Contact": null, "Landline_Contact": "(033) 335 8887", "Email": null, "Logo": null, "Latitude": 10.696419, "Longitude": 122.573782 }, "geometry": { "type": "Point", "coordinates": [ 122.573782, 10.696419 ] } },
{ "type": "Feature", "properties": { "ID": "TR-050", "Name": "Festive Walk Transport Hub", "Type": "Transport", "Address": "PG8W+WR9 Festive Walk Mall, Megaworld Blvd, Mandurriao, Iloilo City, Iloilo", "Barangay": "Mandurriao", "City/Municipality": "Iloilo City", "Facebook": "https://www.facebook.com/FestiveWalkIloilo/", "URL": null, "Mobile_Contact": null, "Landline_Contact": null, "Email": null, "Logo": null, "Latitude": 10.717338, "Longitude": 122.547117 }, "geometry": { "type": "Point", "coordinates": [ 122.547117, 10.717338 ] } },
{ "type": "Feature", "properties": { "ID": "TR-051", "Name": "SM Jeepney Terminal and Traveler's Lounge", "Type": "Transport", "Address": "PH72+9P Mandurriao, Iloilo City, 5000 Iloilo", "Barangay": "Mandurriao", "City/Municipality": "Iloilo City", "Facebook": null, "URL": null, "Mobile_Contact": null, "Landline_Contact": null, "Email": null, "Logo": null, "Latitude": 10.713459, "Longitude": 122.551762 }, "geometry": { "type": "Point", "coordinates": [ 122.551762, 10.713459 ] } },
{ "type": "Feature", "properties": { "ID": "TR-052", "Name": "Calinog", "Type": "Transport", "Address": "QG3Q+HM Pavia People's Terminal, Ungka Uno, Pavia, 5001 Iloilo", "Barangay": null, "City/Municipality": "Pavia", "Facebook": null, "URL": null, "Mobile_Contact": null, "Landline_Contact": null, "Email": null, "Logo": null, "Latitude": 10.753932, "Longitude": 122.539121 }, "geometry": { "type": "Point", "coordinates": [ 122.539121, 10.753932 ] } },
{ "type": "Feature", "properties": { "ID": "TR-053", "Name": "Mitscoop San Miguel Terminal", "Type": "Transport", "Address": "QC4X+QR Sitio Cayap, Oton, Iloilo", "Barangay": "Sitio Cayap", "City/Municipality": "Oton", "Facebook": null, "URL": null, "Mobile_Contact": null, "Landline_Contact": null, "Email": null, "Logo": null, "Latitude": 10.768771, "Longitude": 122.453879 }, "geometry": { "type": "Point", "coordinates": [ 122.453879, 10.768771 ] } },
{ "type": "Feature", "properties": { "ID": "TR-054", "Name": "Batuan Tricycle Terminal", "Type": "Transport", "Address": "MCMM+Q7C, brgy, Oton", "Barangay": null, "City/Municipality": "Oton", "Facebook": null, "URL": null, "Mobile_Contact": null, "Landline_Contact": null, "Email": null, "Logo": null, "Latitude": 10.684474, "Longitude": 122.433106 }, "geometry": { "type": "Point", "coordinates": [ 122.433106, 10.684474 ] } },
{ "type": "Feature", "properties": { "ID": "TR-055", "Name": "Buenavista - Alibhon Jeepney Terminal", "Type": "Transport", "Address": "MJWX+RRR, Guimaras Circumferential Rd, Buenavista, Guimaras", "Barangay": "Buenavista", "City/Municipality": "Guimaras", "Facebook": null, "URL": null, "Mobile_Contact": null, "Landline_Contact": null, "Email": null, "Logo": null, "Latitude": 10.697144, "Longitude": 122.649534 }, "geometry": { "type": "Point", "coordinates": [ 122.649534, 10.697144 ] } },
{ "type": "Feature", "properties": { "ID": "TR-056", "Name": "MacArthurs Wharf Ferry Terminal", "Type": "Transport", "Address": "MJQ7+C6 Buenavista, Guimaras", "Barangay": "Buenavista", "City/Municipality": "Guimaras", "Facebook": null, "URL": null, "Mobile_Contact": null, "Landline_Contact": null, "Email": null, "Logo": null, "Latitude": 10.688645, "Longitude": 122.613042 }, "geometry": { "type": "Point", "coordinates": [ 122.613042, 10.688645 ] } },
{ "type": "Feature", "properties": { "ID": "TR-057", "Name": "Jordan Wharf", "Type": "Transport", "Address": "MH8Q+PPG, Jordan, Guimaras", "Barangay": "Jordan", "City/Municipality": "Guimaras", "Facebook": null, "URL": null, "Mobile_Contact": null, "Landline_Contact": null, "Email": null, "Logo": null, "Latitude": 10.666854, "Longitude": 122.589329 }, "geometry": { "type": "Point", "coordinates": [ 122.589329, 10.666854 ] } },
{ "type": "Feature", "properties": { "ID": "TR-058", "Name": "Jordan Guimaras Jetty Port", "Type": "Transport", "Address": "MH8Q+RM Jordan-Hoskyn Rd, Jordan, Guimaras", "Barangay": "Jordan", "City/Municipality": "Guimaras", "Facebook": null, "URL": null, "Mobile_Contact": null, "Landline_Contact": null, "Email": null, "Logo": null, "Latitude": 10.667042, "Longitude": 122.589191 }, "geometry": { "type": "Point", "coordinates": [ 122.589191, 10.667042 ] } },
{ "type": "Feature", "properties": { "ID": "TR-059", "Name": "Guimaras-Iloilo Ferry Wharf (Ro-Ro)", "Type": "Transport", "Address": "MH8M+5VG, Road, Jordan, Guimaras", "Barangay": "Jordan", "City/Municipality": "Guimaras", "Facebook": null, "URL": null, "Mobile_Contact": null, "Landline_Contact": null, "Email": null, "Logo": null, "Latitude": 10.665463, "Longitude": 122.584717 }, "geometry": { "type": "Point", "coordinates": [ 122.584717, 10.665463 ] } },
{ "type": "Feature", "properties": { "ID": "TR-060", "Name": "Buenavista New Terminal Market", "Type": "Transport", "Address": "MMX6+P6M, Guimaras Circumferential Rd, Buenavista, Guimaras", "Barangay": "Buenavista", "City/Municipality": "Guimaras", "Facebook": null, "URL": null, "Mobile_Contact": null, "Landline_Contact": null, "Email": null, "Logo": null, "Latitude": 10.699387, "Longitude": 122.660526 }, "geometry": { "type": "Point", "coordinates": [ 122.660526, 10.699387 ] } },
{ "type": "Feature", "properties": { "ID": "TR-061", "Name": "Nueva Valencia Jetty Port Dungcaan", "Type": "Transport", "Address": "FGC3+92R, Nueva Valencia, Guimaras", "Barangay": "Nueva Valencia", "City/Municipality": "Guimaras", "Facebook": null, "URL": null, "Mobile_Contact": null, "Landline_Contact": null, "Email": null, "Logo": null, "Latitude": 10.471015, "Longitude": 122.50251 }, "geometry": { "type": "Point", "coordinates": [ 122.50251, 10.471015 ] } },
{ "type": "Feature", "properties": { "ID": "TR-062", "Name": "Lucmayan Nueva Valencia Terminal", "Type": "Transport", "Address": "CGXF+W4 Guimaras Circumferential Rd, Nueva Valencia, Guimaras", "Barangay": "Nueva Valencia", "City/Municipality": "Guimaras", "Facebook": null, "URL": null, "Mobile_Contact": null, "Landline_Contact": null, "Email": null, "Logo": null, "Latitude": 10.449784, "Longitude": 122.522875 }, "geometry": { "type": "Point", "coordinates": [ 122.522875, 10.449784 ] } },
{ "type": "Feature", "properties": { "ID": "TR-063", "Name": "Tumanda Wharf", "Type": "Transport", "Address": "HPC5+22 Sitio Tumanda Cabano, San Lorenzo, Lalawigan ng Guimaras", "Barangay": "San Lorenzo", "City/Municipality": "Guimaras", "Facebook": null, "URL": null, "Mobile_Contact": null, "Landline_Contact": null, "Email": null, "Logo": null, "Latitude": 10.570114, "Longitude": 122.707611 }, "geometry": { "type": "Point", "coordinates": [ 122.707611, 10.570114 ] } },
{ "type": "Feature", "properties": { "ID": "TR-064", "Name": "Sitio Bliss Tricycle Terminal", "Type": "Transport", "Address": "HHPM+CW2, Jordan, Guimaras", "Barangay": "Jordan", "City/Municipality": "Guimaras", "Facebook": null, "URL": null, "Mobile_Contact": null, "Landline_Contact": null, "Email": null, "Logo": null, "Latitude": 10.586022, "Longitude": 122.584761 }, "geometry": { "type": "Point", "coordinates": [ 122.584761, 10.586022 ] } },
{ "type": "Feature", "properties": { "ID": "TR-065", "Name": "Old Pavia Train Station", "Type": "Transport", "Address": "QGFQ+8M Pavia, Iloilo", "Barangay": null, "City/Municipality": "Pavia", "Facebook": null, "URL": null, "Mobile_Contact": null, "Landline_Contact": null, "Email": null, "Logo": null, "Latitude": 10.773295, "Longitude": 122.539196 }, "geometry": { "type": "Point", "coordinates": [ 122.539196, 10.773295 ] } },
{ "type": "Feature", "properties": { "ID": "TR-066", "Name": "Ortiz Jeepney Stop", "Type": "Transport", "Address": "MHRC+QH Ortiz Street, Iloilo City Proper, Iloilo City, Iloilo", "Barangay": "Iloilo City Proper", "City/Municipality": "Iloilo City", "Facebook": null, "URL": null, "Mobile_Contact": null, "Landline_Contact": null, "Email": null, "Logo": null, "Latitude": 10.691976, "Longitude": 122.571498 }, "geometry": { "type": "Point", "coordinates": [ 122.571498, 10.691976 ] } },
{ "type": "Feature", "properties": { "ID": "TR-067", "Name": "Plaza Libertad Jeepney Stop", "Type": "Transport", "Address": "MHRF+W8 Iloilo City Proper, Iloilo City, Iloilo", "Barangay": "Iloilo City Proper", "City/Municipality": "Iloilo City", "Facebook": null, "URL": null, "Mobile_Contact": null, "Landline_Contact": null, "Email": null, "Logo": null, "Latitude": 10.692339, "Longitude": 122.573272 }, "geometry": { "type": "Point", "coordinates": [ 122.573272, 10.692339 ] } },
{ "type": "Feature", "properties": { "ID": "TR-068", "Name": "Amigo Jeepney Stop", "Type": "Transport", "Address": "MHX9+7H Iznart St, Iloilo City Proper, Iloilo City, Iloilo", "Barangay": "Iloilo City Proper", "City/Municipality": "Iloilo City", "Facebook": null, "URL": null, "Mobile_Contact": null, "Landline_Contact": null, "Email": null, "Logo": null, "Latitude": 10.698209, "Longitude": 122.5689 }, "geometry": { "type": "Point", "coordinates": [ 122.5689, 10.698209 ] } },
{ "type": "Feature", "properties": { "ID": "TR-069", "Name": "UP-Stoplight Jeepney Stop", "Type": "Transport", "Address": "MHX4+W3 General Luna St, Iloilo City Proper, Iloilo City, Iloilo", "Barangay": "Iloilo City Proper", "City/Municipality": "Iloilo City", "Facebook": null, "URL": null, "Mobile_Contact": null, "Landline_Contact": null, "Email": null, "Logo": null, "Latitude": 10.699852, "Longitude": 122.555148 }, "geometry": { "type": "Point", "coordinates": [ 122.555148, 10.699852 ] } },
{ "type": "Feature", "properties": { "ID": "TR-070", "Name": "Iloilo Central School-Assumption Jeepney Stop", "Type": "Transport", "Address": "PH28+C5 General Luna St, Iloilo City Proper, Iloilo City, Iloilo", "Barangay": "Iloilo City Proper", "City/Municipality": "Iloilo City", "Facebook": null, "URL": null, "Mobile_Contact": null, "Landline_Contact": null, "Email": null, "Logo": null, "Latitude": 10.701109, "Longitude": 122.565499 }, "geometry": { "type": "Point", "coordinates": [ 122.565499, 10.701109 ] } },
{ "type": "Feature", "properties": { "ID": "TR-071", "Name": "Villa Aurora-OWWA Jeepney Stop", "Type": "Transport", "Address": "PH25+3R General Luna St, Iloilo City Proper, Iloilo City, 5000 Iloilo", "Barangay": "Iloilo City Proper", "City/Municipality": "Iloilo City", "Facebook": null, "URL": null, "Mobile_Contact": null, "Landline_Contact": null, "Email": null, "Logo": null, "Latitude": 10.700258, "Longitude": 122.559592 }, "geometry": { "type": "Point", "coordinates": [ 122.559592, 10.700258 ] } },
{ "type": "Feature", "properties": { "ID": "TR-072", "Name": "Atrium-Provincial Capitol Jeepney Stop", "Type": "Transport", "Address": "PH29+HG Iloilo City Proper, Iloilo City, Iloilo", "Barangay": "Iloilo City Proper", "City/Municipality": "Iloilo City", "Facebook": null, "URL": null, "Mobile_Contact": null, "Landline_Contact": null, "Email": null, "Logo": null, "Latitude": 10.701502, "Longitude": 122.568794 }, "geometry": { "type": "Point", "coordinates": [ 122.568794, 10.701502 ] } },
{ "type": "Feature", "properties": { "ID": "TR-073", "Name": "Robinsons Iloilo Jeepney Stop", "Type": "Transport", "Address": "MHV8+97 De Leon St, Iloilo City Proper, Iloilo City, Iloilo", "Barangay": "Iloilo City Proper", "City/Municipality": "Iloilo City", "Facebook": null, "URL": null, "Mobile_Contact": null, "Landline_Contact": null, "Email": null, "Logo": null, "Latitude": 10.693413, "Longitude": 122.565749 }, "geometry": { "type": "Point", "coordinates": [ 122.565749, 10.693413 ] } },
{ "type": "Feature", "properties": { "ID": "TR-074", "Name": "University of San Agustin Jeepney Stop", "Type": "Transport", "Address": "PH27+87 General Luna St, Iloilo City Proper, Iloilo City, Iloilo", "Barangay": "Iloilo City Proper", "City/Municipality": "Iloilo City", "Facebook": null, "URL": null, "Mobile_Contact": null, "Landline_Contact": null, "Email": null, "Logo": null, "Latitude": 10.700819, "Longitude": 122.563195 }, "geometry": { "type": "Point", "coordinates": [ 122.563195, 10.700819 ] } },
{ "type": "Feature", "properties": { "ID": "TR-075", "Name": "Maria Clara UI Jeepney Stop", "Type": "Transport", "Address": "MHR9+VM Iloilo City Proper, Iloilo City, Iloilo", "Barangay": "Iloilo City Proper", "City/Municipality": "Iloilo City", "Facebook": null, "URL": null, "Mobile_Contact": null, "Landline_Contact": null, "Email": null, "Logo": null, "Latitude": 10.69219, "Longitude": 122.569138 }, "geometry": { "type": "Point", "coordinates": [ 122.569138, 10.69219 ] } },
{ "type": "Feature", "properties": { "ID": "TR-076", "Name": "Guanco Jeepney Stop", "Type": "Transport", "Address": "MHVC+FC JM Basa St, Iloilo City Proper, Iloilo City, Iloilo", "Barangay": "Iloilo City Proper", "City/Municipality": "Iloilo City", "Facebook": null, "URL": null, "Mobile_Contact": null, "Landline_Contact": null, "Email": null, "Logo": null, "Latitude": 10.693704, "Longitude": 122.571116 }, "geometry": { "type": "Point", "coordinates": [ 122.571116, 10.693704 ] } },
{ "type": "Feature", "properties": { "ID": "TR-077", "Name": "Iznart De Leon Jeepney Stop", "Type": "Transport", "Address": "MHV9+GH De Leon St, Iloilo City Proper, Iloilo City, Iloilo", "Barangay": "Iloilo City Proper", "City/Municipality": "Iloilo City", "Facebook": null, "URL": null, "Mobile_Contact": null, "Landline_Contact": null, "Email": null, "Logo": null, "Latitude": 10.693763, "Longitude": 122.568918 }, "geometry": { "type": "Point", "coordinates": [ 122.568918, 10.693763 ] } },
{ "type": "Feature", "properties": { "ID": "TR-078", "Name": "Iloilo City-Airport Shuttle", "Type": "Transport", "Address": "PH72+XQM, SM City Iloilo Driveway, Mandurriao, Iloilo City, 5000 Iloilo", "Barangay": "Mandurriao", "City/Municipality": "Iloilo City", "Facebook": null, "URL": null, "Mobile_Contact": null, "Landline_Contact": null, "Email": null, "Logo": null, "Latitude": 10.714984, "Longitude": 122.551916 }, "geometry": { "type": "Point", "coordinates": [ 122.551916, 10.714984 ] } },
{ "type": "Feature", "properties": { "ID": "TR-079", "Name": "Aldeguer Jeepney Stop", "Type": "Transport", "Address": "MHVC+X4 Calle Real, JM Basa St, Iloilo City Proper, Iloilo City, Iloilo", "Barangay": "Iloilo City Proper", "City/Municipality": "Iloilo City", "Facebook": null, "URL": null, "Mobile_Contact": null, "Landline_Contact": null, "Email": null, "Logo": null, "Latitude": 10.69492, "Longitude": 122.570273 }, "geometry": { "type": "Point", "coordinates": [ 122.570273, 10.69492 ] } },
{ "type": "Feature", "properties": { "ID": "TR-080", "Name": "Metro Iloilo Transport Service Cooperative", "Type": "Transport", "Address": "QH6G+MW Jaro, Iloilo City, Iloilo", "Barangay": "Jaro", "City/Municipality": "Iloilo City", "Facebook": null, "URL": null, "Mobile_Contact": null, "Landline_Contact": null, "Email": null, "Logo": null, "Latitude": 10.761597, "Longitude": 122.577417 }, "geometry": { "type": "Point", "coordinates": [ 122.577417, 10.761597 ] } },
{ "type": "Feature", "properties": { "ID": "TR-081", "Name": "Iloilo City (Bus Stop)", "Type": "Transport", "Address": "PHC6+5R Jaro, Iloilo City, Iloilo", "Barangay": "Jaro", "City/Municipality": "Iloilo City", "Facebook": null, "URL": null, "Mobile_Contact": null, "Landline_Contact": null, "Email": null, "Logo": null, "Latitude": 10.720403, "Longitude": 122.562055 }, "geometry": { "type": "Point", "coordinates": [ 122.562055, 10.720403 ] } },
{ "type": "Feature", "properties": { "ID": "TR-082", "Name": "Iloilo City (Bus Stop)", "Type": "Transport", "Address": "PHC6+4Q Jaro, Iloilo City, Iloilo", "Barangay": "Jaro", "City/Municipality": "Iloilo City", "Facebook": null, "URL": null, "Mobile_Contact": null, "Landline_Contact": null, "Email": null, "Logo": null, "Latitude": 10.720319, "Longitude": 122.561948 }, "geometry": { "type": "Point", "coordinates": [ 122.561948, 10.720319 ] } },
{ "type": "Feature", "properties": { "ID": "TR-083", "Name": "Iloilo Doctors Hospital Jeepney Stop", "Type": "Transport", "Address": "MHW3+JP Timawa St, Molo, Iloilo City, Iloilo", "Barangay": "Molo", "City/Municipality": "Iloilo City", "Facebook": null, "URL": null, "Mobile_Contact": null, "Landline_Contact": null, "Email": null, "Logo": null, "Latitude": 10.696563, "Longitude": 122.554342 }, "geometry": { "type": "Point", "coordinates": [ 122.554342, 10.696563 ] } },
{ "type": "Feature", "properties": { "ID": "TR-084", "Name": "City Hall Jeepney Stop", "Type": "Transport", "Address": "MHVC+5W Oritz Street, Iloilo City Proper, Iloilo City, Iloilo", "Barangay": "Iloilo City Proper", "City/Municipality": "Iloilo City", "Facebook": null, "URL": null, "Mobile_Contact": null, "Landline_Contact": null, "Email": null, "Logo": null, "Latitude": 10.693, "Longitude": 122.572355 }, "geometry": { "type": "Point", "coordinates": [ 122.572355, 10.693 ] } },
{ "type": "Feature", "properties": { "ID": "TR-085", "Name": "Pagsanga-an - Poblacion - Quintin Salas Tricycle Terminal", "Type": "Transport", "Address": "QH83+3G8, Pagsanga-an, Pavia, Iloilo", "Barangay": "Pagsanga-an", "City/Municipality": "Pavia", "Facebook": null, "URL": null, "Mobile_Contact": null, "Landline_Contact": null, "Email": null, "Logo": null, "Latitude": 10.765171, "Longitude": 122.553831 }, "geometry": { "type": "Point", "coordinates": [ 122.553831, 10.765171 ] } },
{ "type": "Feature", "properties": { "ID": "TR-086", "Name": "Tricycle Terminal (Pavia)", "Type": "Transport", "Address": "QG2C+XQ9, Pavia, Iloilo", "Barangay": "Pandac", "City/Municipality": "Pavia", "Facebook": null, "URL": null, "Mobile_Contact": null, "Landline_Contact": null, "Email": null, "Logo": null, "Latitude": 10.752517, "Longitude": 122.522016 }, "geometry": { "type": "Point", "coordinates": [ 122.522016, 10.752517 ] } },
{ "type": "Feature", "properties": { "ID": "TR-087", "Name": "Buray Tricycle Terminal", "Type": "Transport", "Address": "MFRH+W28, Oton, Iloilo", "Barangay": "Buray", "City/Municipality": "Oton", "Facebook": null, "URL": null, "Mobile_Contact": null, "Landline_Contact": null, "Email": null, "Logo": null, "Latitude": 10.692296, "Longitude": 122.477579 }, "geometry": { "type": "Point", "coordinates": [ 122.477579, 10.692296 ] } },
{ "type": "Feature", "properties": { "ID": "TR-088", "Name": "Public Bus Stop (Jaro)", "Type": "Transport", "Address": "PGGX+6Q6, Jaro, Iloilo City, Iloilo", "Barangay": "Jaro", "City/Municipality": "Iloilo City", "Facebook": null, "URL": null, "Mobile_Contact": null, "Landline_Contact": null, "Email": null, "Logo": null, "Latitude": 10.725562, "Longitude": 122.549379 }, "geometry": { "type": "Point", "coordinates": [ 122.549379, 10.725562 ] } },
{ "type": "Feature", "properties": { "ID": "TR-089", "Name": "Southwest Tour Boracay Inc.", "Type": "Transport", "Address": "PGGX+H4 Brgy, Jaro, Iloilo City, 5000 Iloilo", "Barangay": "Jaro", "City/Municipality": "Iloilo City", "Facebook": null, "URL": null, "Mobile_Contact": null, "Landline_Contact": "(033) 321 1113", "Email": null, "Logo": null, "Latitude": 10.726497, "Longitude": 122.547793 }, "geometry": { "type": "Point", "coordinates": [ 122.547793, 10.726497 ] } },
{ "type": "Feature", "properties": { "ID": "TR-090", "Name": "Lapuz Jeepney Station", "Type": "Transport", "Address": "PH3G+G43, Lapuz, Iloilo City, Iloilo", "Barangay": "Lapuz", "City/Municipality": "Iloilo City", "Facebook": null, "URL": null, "Mobile_Contact": null, "Landline_Contact": null, "Email": null, "Logo": null, "Latitude": 10.703777, "Longitude": 122.575287 }, "geometry": { "type": "Point", "coordinates": [ 122.575287, 10.703777 ] } },
{ "type": "Feature", "properties": { "ID": "TR-091", "Name": "Inampulungan Airstrip", "Type": "Transport", "Address": "FM7Q+JMQ Island, Sibunag, Guimaras", "Barangay": "Sibunag", "City/Municipality": "Guimaras", "Facebook": null, "URL": null, "Mobile_Contact": null, "Landline_Contact": null, "Email": null, "Logo": null, "Latitude": 10.464097, "Longitude": 122.689228 }, "geometry": { "type": "Point", "coordinates": [ 122.689228, 10.464097 ] } },
{ "type": "Feature", "properties": { "ID": "TR-092", "Name": "VACT Apron (Aeroway)", "Type": "Transport", "Address": "Iloilo International Airport, Airport Access Road, Cadagmayan Norte, Iloilo, Western Visayas, 5002, Philippines", "Barangay": null, "City/Municipality": "Cabatuan", "Facebook": null, "URL": null, "Mobile_Contact": null, "Landline_Contact": null, "Email": null, "Logo": null, "Latitude": 10.834578, "Longitude": 122.498277 }, "geometry": { "type": "Point", "coordinates": [ 122.498277, 10.834578 ] } },
{ "type": "Feature", "properties": { "ID": "TR-093", "Name": "Anaros Subdivision Waiting Shed", "Type": "Transport", "Address": "Anaros Subdivision Waiting Shed, Guzman Street, Ana Ros Village Subdivision, Mandurriao, Hibao-an Sur, Iloilo City, Western Visayas, 5000, Philippines", "Barangay": "Mandurriao", "City/Municipality": "Iloilo City", "Facebook": null, "URL": null, "Mobile_Contact": null, "Landline_Contact": null, "Email": null, "Logo": null, "Latitude": 10.725758, "Longitude": 122.528404 }, "geometry": { "type": "Point", "coordinates": [ 122.528404, 10.725758 ] } },
{ "type": "Feature", "properties": { "ID": "TR-094", "Name": "Angelicum School (Bus Stop)", "Type": "Transport", "Address": "Angelicum School, MacArthur Drive, Banker's Village, Tabuc Suba, Jaro, Cubay, Iloilo City, Western Visayas, 5000, Philippines", "Barangay": "Jaro", "City/Municipality": "Iloilo City", "Facebook": null, "URL": null, "Mobile_Contact": null, "Landline_Contact": null, "Email": null, "Logo": null, "Latitude": 10.731911, "Longitude": 122.55981 }, "geometry": { "type": "Point", "coordinates": [ 122.55981, 10.731911 ] } },
{ "type": "Feature", "properties": { "ID": "TR-095", "Name": "Banker's Village (Bus Stop)", "Type": "Transport", "Address": "Banker's Village, MacArthur Drive, Quintin Salas, Jaro, Quintin Salas, Iloilo City, Western Visayas, 5000, Philippines", "Barangay": "Jaro", "City/Municipality": "Iloilo City", "Facebook": null, "URL": null, "Mobile_Contact": null, "Landline_Contact": null, "Email": null, "Logo": null, "Latitude": 10.736034, "Longitude": 122.56108 }, "geometry": { "type": "Point", "coordinates": [ 122.56108, 10.736034 ] } },
{ "type": "Feature", "properties": { "ID": "TR-096", "Name": "Benedicto (Bus Stop)", "Type": "Transport", "Address": "Benedicto, Washington Street, Benedicto, Jaro, Arguelles, Iloilo City, Western Visayas, 5000, Philippines", "Barangay": "Jaro", "City/Municipality": "Iloilo City", "Facebook": null, "URL": null, "Mobile_Contact": null, "Landline_Contact": null, "Email": null, "Logo": null, "Latitude": 10.725878, "Longitude": 122.557778 }, "geometry": { "type": "Point", "coordinates": [ 122.557778, 10.725878 ] } },
{ "type": "Feature", "properties": { "ID": "TR-097", "Name": "Cabatuan Terminal (Bus Stop)", "Type": "Transport", "Address": "Cabatuan Terminal, Confessor Drive, Zacarias Subdivision, Cabatuan, Iloilo, Western Visayas, 5031, Philippines", "Barangay": null, "City/Municipality": "Cabatuan", "Facebook": null, "URL": null, "Mobile_Contact": null, "Landline_Contact": null, "Email": null, "Logo": null, "Latitude": 10.879886, "Longitude": 122.48244 }, "geometry": { "type": "Point", "coordinates": [ 122.48244, 10.879886 ] } },
{ "type": "Feature", "properties": { "ID": "TR-098", "Name": "De Leon St. Intersection (Bus Stop)", "Type": "Transport", "Address": "De Leon St. Intersection, Valeria Street, Magsaysay, City Proper, Iloilo City, Western Visayas, 5000, Philippines", "Barangay": "Iloilo City Proper", "City/Municipality": "Iloilo City", "Facebook": null, "URL": null, "Mobile_Contact": null, "Landline_Contact": null, "Email": null, "Logo": null, "Latitude": 10.693671, "Longitude": 122.56793 }, "geometry": { "type": "Point", "coordinates": [ 122.56793, 10.693671 ] } },
{ "type": "Feature", "properties": { "ID": "TR-099", "Name": "Drop-off Point & Jeepney Stop, Lapuz to Pier", "Type": "Transport", "Address": "Drop-off Point & Jeepney Stop, Lapuz to Pier, General Luna Street, City Proper, Iloilo City, Western Visayas, 5000, Philippines", "Barangay": "Iloilo City Proper", "City/Municipality": "Iloilo City", "Facebook": null, "URL": null, "Mobile_Contact": null, "Landline_Contact": null, "Email": null, "Logo": null, "Latitude": 10.70146, "Longitude": 122.567879 }, "geometry": { "type": "Point", "coordinates": [ 122.567879, 10.70146 ] } },
{ "type": "Feature", "properties": { "ID": "TR-100", "Name": "SM Strata Bus/Jeepney Terminal", "Type": "Transport", "Address": "SM Strata Bus/Jeepney Terminal, Tanzon, Bakhaw, Mandurriao, Bolilao, Iloilo City, Western Visayas, 5000, Philippines", "Barangay": "Mandurriao", "City/Municipality": "Iloilo City", "Facebook": null, "URL": null, "Mobile_Contact": null, "Landline_Contact": null, "Email": null, "Logo": null, "Latitude": 10.713099, "Longitude": 122.55315 }, "geometry": { "type": "Point", "coordinates": [ 122.55315, 10.713099 ] } },
{ "type": "Feature", "properties": { "ID": "TR-101", "Name": "Igbaras Jeepney", "Type": "Transport", "Address": "Igbaras Jeepney, Fuentes Street, Flores, City Proper, Iloilo City, Western Visayas, 5000, Philippines", "Barangay": "Iloilo City Proper", "City/Municipality": "Iloilo City", "Facebook": null, "URL": null, "Mobile_Contact": null, "Landline_Contact": null, "Email": null, "Logo": null, "Latitude": 10.692801, "Longitude": 122.563241 }, "geometry": { "type": "Point", "coordinates": [ 122.563241, 10.692801 ] } },
{ "type": "Feature", "properties": { "ID": "TR-102", "Name": "San Lorenzo Ro-Ro Wharf", "Type": "Transport", "Address": "JP5C+MMX San Lorenzo, Guimaras", "Barangay": "San Lorenzo", "City/Municipality": "Guimaras", "Facebook": null, "URL": null, "Mobile_Contact": null, "Landline_Contact": null, "Email": null, "Logo": null, "Latitude": 10.609458, "Longitude": 122.721266 }, "geometry": { "type": "Point", "coordinates": [ 122.721266, 10.609458 ] } },
{ "type": "Feature", "properties": { "ID": "TR-103", "Name": "Ferry Terminal (Nueva Valencia)", "Type": "Transport", "Address": "CG47+F79 Nueva Valencia, Guimaras", "Barangay": "Nueva Valencia", "City/Municipality": "Guimaras", "Facebook": null, "URL": null, "Mobile_Contact": null, "Landline_Contact": null, "Email": null, "Logo": null, "Latitude": 10.406158, "Longitude": 122.51324 }, "geometry": { "type": "Point", "coordinates": [ 122.51324, 10.406158 ] } },
{ "type": "Feature", "properties": { "ID": "TR-104", "Name": "Tacay Banca Port", "Type": "Transport", "Address": "PMP3+5W3 Buenavista, Guimaras", "Barangay": "Buenavista", "City/Municipality": "Iloilo City", "Facebook": null, "URL": null, "Mobile_Contact": null, "Landline_Contact": null, "Email": null, "Logo": null, "Latitude": 10.734696, "Longitude": 122.654046 }, "geometry": { "type": "Point", "coordinates": [ 122.654046, 10.734696 ] } },
{ "type": "Feature", "properties": { "ID": "TR-105", "Name": "Parc Regency-Monticello Jeepney Service (Parc Regency Avenue Stop)", "Type": "Transport", "Address": "Parc Regency - Monticello Jeepney Service, Parc Regency Avenue, Parc Regency Residences, Ungka II, Ungka I, Pavia, Iloilo, Western Visayas, 5001, Philippines", "Barangay": null, "City/Municipality": "Pavia", "Facebook": null, "URL": null, "Mobile_Contact": null, "Landline_Contact": null, "Email": null, "Logo": null, "Latitude": 10.755194, "Longitude": 122.534162 }, "geometry": { "type": "Point", "coordinates": [ 122.534162, 10.755194 ] } },
{ "type": "Feature", "properties": { "ID": "TR-106", "Name": "Parc Regency-Monticello Jeepney Service (Anchovy Street Stop)", "Type": "Transport", "Address": "Parc Regency - Monticello Jeepney Service, Anchovy Street, Pandac, Jibao-an, Pavia, Iloilo, Western Visayas, 5001, Philippines", "Barangay": null, "City/Municipality": "Pavia", "Facebook": null, "URL": null, "Mobile_Contact": null, "Landline_Contact": null, "Email": null, "Logo": null, "Latitude": 10.762762, "Longitude": 122.516961 }, "geometry": { "type": "Point", "coordinates": [ 122.516961, 10.762762 ] } },
{ "type": "Feature", "properties": { "ID": "TR-107", "Name": "Parc Regency-Monticello Jeepney Service (Benigno S. Aquino Jr. Avenue Stop)", "Type": "Transport", "Address": "Parc Regency - Monticello Jeepney Service, Benigno S. Aquino Jr. Avenue, Ungka Ⅱ, Ungka II, Ungka I, Pavia, Iloilo, Western Visayas, 5001, Philippines", "Barangay": null, "City/Municipality": "Pavia", "Facebook": null, "URL": null, "Mobile_Contact": null, "Landline_Contact": null, "Email": null, "Logo": null, "Latitude": 10.754336, "Longitude": 122.537773 }, "geometry": { "type": "Point", "coordinates": [ 122.537773, 10.754336 ] } },
{ "type": "Feature", "properties": { "ID": "TR-108", "Name": "Parc Regency-Monticello Jeepney Service (PRP Main Street Stop) ", "Type": "Transport", "Address": "Parc Regency - Monticello Jeepney Service, PRP Main Street, Parc Regency Residences, Aganan, Ungka I, Pavia, Iloilo, Western Visayas, 5001, Philippines", "Barangay": null, "City/Municipality": "Pavia", "Facebook": null, "URL": null, "Mobile_Contact": null, "Landline_Contact": null, "Email": null, "Logo": null, "Latitude": 10.76049, "Longitude": 122.53274 }, "geometry": { "type": "Point", "coordinates": [ 122.53274, 10.76049 ] } },
{ "type": "Feature", "properties": { "ID": "TR-109", "Name": "Parc Regency-Monticello Jeepney Service (PRP 1st Street Stop)", "Type": "Transport", "Address": "Parc Regency - Monticello Jeepney Service, PRP 1st Street, Parc Regency Residences, Aganan, Ungka I, Pavia, Iloilo, Western Visayas, 5001, Philippines", "Barangay": null, "City/Municipality": "Pavia", "Facebook": null, "URL": null, "Mobile_Contact": null, "Landline_Contact": null, "Email": null, "Logo": null, "Latitude": 10.761667, "Longitude": 122.531226 }, "geometry": { "type": "Point", "coordinates": [ 122.531226, 10.761667 ] } },
{ "type": "Feature", "properties": { "ID": "TR-110", "Name": "Parc Regency-Monticello Jeepney Service (Ungka Old Railway Road Stop)", "Type": "Transport", "Address": "Parc Regency - Monticello Jeepney Service, Ungka Old Railway Road, Ungka II, Aganan, Pavia, Iloilo, Western Visayas, 5001, Philippines", "Barangay": null, "City/Municipality": "Pavia", "Facebook": null, "URL": null, "Mobile_Contact": null, "Landline_Contact": null, "Email": null, "Logo": null, "Latitude": 10.757457, "Longitude": 122.535386 }, "geometry": { "type": "Point", "coordinates": [ 122.535386, 10.757457 ] } },
{ "type": "Feature", "properties": { "ID": "TR-111", "Name": "Parc Regency-Monticello Jeepney Service (F. Gorriceta Avenue Stop)", "Type": "Transport", "Address": "Parc Regency - Monticello Jeepney Service, F. Gorriceta Avenue, CPU Centennial Village, Poblacion, Aganan, Pavia, Iloilo, Western Visayas, 5001, Philippines", "Barangay": null, "City/Municipality": "Pavia", "Facebook": null, "URL": null, "Mobile_Contact": null, "Landline_Contact": null, "Email": null, "Logo": null, "Latitude": 10.758013, "Longitude": 122.526634 }, "geometry": { "type": "Point", "coordinates": [ 122.526634, 10.758013 ] } },
{ "type": "Feature", "properties": { "ID": "TR-112", "Name": "Leon PUV", "Type": "Transport", "Address": "Leon PUV, Iloilo R-2 Road, Jibao-an, Pavia, Iloilo, Western Visayas, 5001, Philippines", "Barangay": "Jibao-an", "City/Municipality": "Pavia", "Facebook": null, "URL": null, "Mobile_Contact": null, "Landline_Contact": null, "Email": null, "Logo": null, "Latitude": 10.744244, "Longitude": 122.5142 }, "geometry": { "type": "Point", "coordinates": [ 122.5142, 10.744244 ] } },
{ "type": "Feature", "properties": { "ID": "TR-113", "Name": "Goducate Iloilo Entrance", "Type": "Transport", "Address": "Goducate Iloilo Entrance, Bancal-Leon Road, Agboy Norte, Iloilo, Western Visayas, 5026, Philippines", "Barangay": "Agboy Norte", "City/Municipality": "Iloilo City", "Facebook": null, "URL": null, "Mobile_Contact": null, "Landline_Contact": null, "Email": null, "Logo": null, "Latitude": 10.766687, "Longitude": 122.42393 }, "geometry": { "type": "Point", "coordinates": [ 122.42393, 10.766687 ] } },
{ "type": "Feature", "properties": { "ID": "TR-114", "Name": "Jeepney Stop (Jaro Liko Nfa)", "Type": "Transport", "Address": "Jeepney (jaro liko nfa), Ortiz Street, City Proper, Iloilo City, Western Visayas, 5000, Philippines", "Barangay": "Iloilo City Proper", "City/Municipality": "Iloilo City", "Facebook": null, "URL": null, "Mobile_Contact": null, "Landline_Contact": null, "Email": null, "Logo": null, "Latitude": 10.692042, "Longitude": 122.571705 }, "geometry": { "type": "Point", "coordinates": [ 122.571705, 10.692042 ] } },
{ "type": "Feature", "properties": { "ID": "TR-115", "Name": "Jeepney to Tagbak (Jeepney Stop)", "Type": "Transport", "Address": "Jeepney to Tagbak, Mabini Street, Aurora Subdivision, City Proper, Bolilao, Iloilo City, Western Visayas, 5000, Philippines", "Barangay": null, "City/Municipality": "Iloilo City", "Facebook": null, "URL": null, "Mobile_Contact": null, "Landline_Contact": null, "Email": null, "Logo": null, "Latitude": 10.697743, "Longitude": 122.564743 }, "geometry": { "type": "Point", "coordinates": [ 122.564743, 10.697743 ] } },
{ "type": "Feature", "properties": { "ID": "TR-116", "Name": "La Paz to Leganes (Jeepney Stop)", "Type": "Transport", "Address": "La Paz to Leganes, Burgos Street, Railway, La Paz, Iloilo City, Western Visayas, 5000, Philippines", "Barangay": null, "City/Municipality": "Iloilo City", "Facebook": null, "URL": null, "Mobile_Contact": null, "Landline_Contact": null, "Email": null, "Logo": null, "Latitude": 10.710906, "Longitude": 122.570153 }, "geometry": { "type": "Point", "coordinates": [ 122.570153, 10.710906 ] } },
{ "type": "Feature", "properties": { "ID": "TR-117", "Name": "Kapitolyo Rotonda (Iznart Street Jeepney Stop)", "Type": "Transport", "Address": "Kapitolyo Rotonda, Iznart Street, President Roxas, City Proper, Iloilo City, Western Visayas, 5000, Philippines", "Barangay": null, "City/Municipality": "Iloilo City", "Facebook": null, "URL": null, "Mobile_Contact": null, "Landline_Contact": null, "Email": null, "Logo": null, "Latitude": 10.701049, "Longitude": 122.568983 }, "geometry": { "type": "Point", "coordinates": [ 122.568983, 10.701049 ] } },
{ "type": "Feature", "properties": { "ID": "TR-118", "Name": "Kapitolyo Rotonda (Bonifacio Drive Jeepney Stop)", "Type": "Transport", "Address": "Kapitolyo Rotonda, Bonifacio Drive, President Roxas, City Proper, Iloilo City, Western Visayas, 5000, Philippines", "Barangay": null, "City/Municipality": "Iloilo City", "Facebook": null, "URL": null, "Mobile_Contact": null, "Landline_Contact": null, "Email": null, "Logo": null, "Latitude": 10.702827, "Longitude": 122.568158 }, "geometry": { "type": "Point", "coordinates": [ 122.568158, 10.702827 ] } },
{ "type": "Feature", "properties": { "ID": "TR-119", "Name": "LTO Region 6 (Jeepney Stop)", "Type": "Transport", "Address": "LTO Region 6, MacArthur Drive, Quintin Salas, Jaro, Quintin Salas, Iloilo City, Western Visayas, 5000, Philippines", "Barangay": null, "City/Municipality": "Iloilo City", "Facebook": null, "URL": null, "Mobile_Contact": null, "Landline_Contact": null, "Email": null, "Logo": null, "Latitude": 10.737629, "Longitude": 122.561848 }, "geometry": { "type": "Point", "coordinates": [ 122.561848, 10.737629 ] } },
{ "type": "Feature", "properties": { "ID": "TR-120", "Name": "Jeepney to Balabago (Jeepney Stop)", "Type": "Transport", "Address": "Jeepney to Balabago, Plaza Rizal Street, Benedicto, Jaro, Arguelles, Iloilo City, Western Visayas, 5000, Philippines", "Barangay": "Jaro", "City/Municipality": "Iloilo City", "Facebook": null, "URL": null, "Mobile_Contact": null, "Landline_Contact": null, "Email": null, "Logo": null, "Latitude": 10.725273, "Longitude": 122.557223 }, "geometry": { "type": "Point", "coordinates": [ 122.557223, 10.725273 ] } },
{ "type": "Feature", "properties": { "ID": "TR-121", "Name": "Jeepney to Lapaz (Jeepney Stop)", "Type": "Transport", "Address": "Jeepney to Lapaz, Rizal Street, City Proper, Iloilo City, Western Visayas, 5000, Philippines", "Barangay": "Iloilo City Proper", "City/Municipality": "Iloilo City", "Facebook": null, "URL": null, "Mobile_Contact": null, "Landline_Contact": null, "Email": null, "Logo": null, "Latitude": 10.691938, "Longitude": 122.571649 }, "geometry": { "type": "Point", "coordinates": [ 122.571649, 10.691938 ] } },
{ "type": "Feature", "properties": { "ID": "TR-122", "Name": "Ungka (II) - Iloilo (Jeepney Stop)", "Type": "Transport", "Address": "Ungka-Iloilo, Benigno S. Aquino Jr. Avenue, Ungka Ⅱ, Ungka II, Ungka I, Pavia, Iloilo, Western Visayas, 5001, Philippines", "Barangay": null, "City/Municipality": "Iloilo City", "Facebook": null, "URL": null, "Mobile_Contact": null, "Landline_Contact": null, "Email": null, "Logo": null, "Latitude": 10.753988, "Longitude": 122.538389 }, "geometry": { "type": "Point", "coordinates": [ 122.538389, 10.753988 ] } },
{ "type": "Feature", "properties": { "ID": "TR-123", "Name": "Ungka (I) - Iloilo (Jeepney Stop)", "Type": "Transport", "Address": "Ungka-Iloilo, Benigno S. Aquino, Jr. Avenue, Ungka, Jaro, Iloilo City, Western Visayas, 5000, Philippines", "Barangay": null, "City/Municipality": "Iloilo City", "Facebook": null, "URL": null, "Mobile_Contact": null, "Landline_Contact": null, "Email": null, "Logo": null, "Latitude": 10.746016, "Longitude": 122.539471 }, "geometry": { "type": "Point", "coordinates": [ 122.539471, 10.746016 ] } },
{ "type": "Feature", "properties": { "ID": "TR-124", "Name": "MV Hechanova (Jeepney Stop)", "Type": "Transport", "Address": "MV Hechanova, MacArthur Drive, M. V. Hechanova, Jaro, Quintin Salas, Iloilo City, Western Visayas, 5000, Philippines", "Barangay": "Jaro", "City/Municipality": "Iloilo City", "Facebook": null, "URL": null, "Mobile_Contact": null, "Landline_Contact": null, "Email": null, "Logo": null, "Latitude": 10.747559, "Longitude": 122.568337 }, "geometry": { "type": "Point", "coordinates": [ 122.568337, 10.747559 ] } },
{ "type": "Feature", "properties": { "ID": "TR-125", "Name": "Iloilo Memorial Park (Jeepney Stop)", "Type": "Transport", "Address": "Iloilo Memorial Park, MacArthur Drive, Tagbac, Jaro, Balantang, Iloilo City, Western Visayas, 5000, Philippines", "Barangay": "Jaro", "City/Municipality": "Iloilo City", "Facebook": null, "URL": null, "Mobile_Contact": null, "Landline_Contact": null, "Email": null, "Logo": null, "Latitude": 10.759154, "Longitude": 122.575898 }, "geometry": { "type": "Point", "coordinates": [ 122.575898, 10.759154 ] } },
{ "type": "Feature", "properties": { "ID": "TR-126", "Name": "Iloilo City Port (Jeepney Stop)", "Type": "Transport", "Address": "Iloilo City Port, Fort San Pedro Drive, City Proper, Iloilo City, Western Visayas, 5000, Philippines", "Barangay": "Iloilo City Proper", "City/Municipality": "Iloilo City", "Facebook": null, "URL": null, "Mobile_Contact": null, "Landline_Contact": null, "Email": null, "Logo": null, "Latitude": 10.690743, "Longitude": 122.582778 }, "geometry": { "type": "Point", "coordinates": [ 122.582778, 10.690743 ] } },
{ "type": "Feature", "properties": { "ID": "TR-127", "Name": "Jaro Cemetery (Jeepney Stop)", "Type": "Transport", "Address": "Jaro Cemetery, MacArthur Drive, Quintin Salas, Jaro, Quintin Salas, Iloilo City, Western Visayas, 5000, Philippines", "Barangay": "Jaro", "City/Municipality": "Iloilo City", "Facebook": null, "URL": null, "Mobile_Contact": null, "Landline_Contact": null, "Email": null, "Logo": null, "Latitude": 10.742121, "Longitude": 122.564569 }, "geometry": { "type": "Point", "coordinates": [ 122.564569, 10.742121 ] } },
{ "type": "Feature", "properties": { "ID": "TR-128", "Name": "NFA Jaro (Jeepney Stop)", "Type": "Transport", "Address": "NFA Jaro, MacArthur Drive, Quintin Salas, Jaro, Quintin Salas, Iloilo City, Western Visayas, 5000, Philippines", "Barangay": "Jaro", "City/Municipality": "Iloilo City", "Facebook": null, "URL": null, "Mobile_Contact": null, "Landline_Contact": null, "Email": null, "Logo": null, "Latitude": 10.740064, "Longitude": 122.563416 }, "geometry": { "type": "Point", "coordinates": [ 122.563416, 10.740064 ] } },
{ "type": "Feature", "properties": { "ID": "TR-129", "Name": "Foton Iloilo (Jeepney Stop)", "Type": "Transport", "Address": "Foton Iloilo, MacArthur Drive, Cubay, Jaro, Quintin Salas, Iloilo City, Western Visayas, 5000, Philippines", "Barangay": "Cubay", "City/Municipality": "Iloilo City", "Facebook": null, "URL": null, "Mobile_Contact": null, "Landline_Contact": null, "Email": null, "Logo": null, "Latitude": 10.736102, "Longitude": 122.561294 }, "geometry": { "type": "Point", "coordinates": [ 122.561294, 10.736102 ] } },
{ "type": "Feature", "properties": { "ID": "TR-130", "Name": "Grand Plains (Jeepney Stop)", "Type": "Transport", "Address": "Grand Plains, MacArthur Drive, M. V. Hechanova, Jaro, Quintin Salas, Iloilo City, Western Visayas, 5000, Philippines", "Barangay": "Quintin Salas", "City/Municipality": "Iloilo City", "Facebook": null, "URL": null, "Mobile_Contact": null, "Landline_Contact": null, "Email": null, "Logo": null, "Latitude": 10.74555, "Longitude": 122.567001 }, "geometry": { "type": "Point", "coordinates": [ 122.567001, 10.74555 ] } },
{ "type": "Feature", "properties": { "ID": "TR-131", "Name": "Jaro Palengke (Jeepney Stop)", "Type": "Transport", "Address": "Jaro Palengke, Simeon Ledesma Street, Simeon Ledesma, Jaro, Arguelles, Iloilo City, Western Visayas, 5000, Philippines", "Barangay": "Jaro", "City/Municipality": "Iloilo City", "Facebook": null, "URL": null, "Mobile_Contact": null, "Landline_Contact": null, "Email": null, "Logo": null, "Latitude": 10.729085, "Longitude": 122.557128 }, "geometry": { "type": "Point", "coordinates": [ 122.557128, 10.729085 ] } },
{ "type": "Feature", "properties": { "ID": "TR-132", "Name": "Lopez Jaena/Ledesma (Jeepney Stop)", "Type": "Transport", "Address": "Lopez Jaena/Ledesma, Simeon Ledesma Street, Maria Cristina, Jaro, Arguelles, Iloilo City, Western Visayas, 5000, Philippines", "Barangay": "Jaro", "City/Municipality": "Iloilo City", "Facebook": null, "URL": null, "Mobile_Contact": null, "Landline_Contact": null, "Email": null, "Logo": null, "Latitude": 10.727769, "Longitude": 122.555773 }, "geometry": { "type": "Point", "coordinates": [ 122.555773, 10.727769 ] } },
{ "type": "Feature", "properties": { "ID": "TR-133", "Name": "Iloilo Supermart (Jeepney Stop)", "Type": "Transport", "Address": "Iloilo Supermart, MacArthur Drive, Phase 2-A, Cubay, Jaro, Cubay, Iloilo City, Western Visayas, 5000, Philippines", "Barangay": "Cubay", "City/Municipality": "Iloilo City", "Facebook": null, "URL": null, "Mobile_Contact": null, "Landline_Contact": null, "Email": null, "Logo": null, "Latitude": 10.73372, "Longitude": 122.56039 }, "geometry": { "type": "Point", "coordinates": [ 122.56039, 10.73372 ] } },
{ "type": "Feature", "properties": { "ID": "TR-134", "Name": "Mandurriao Iloilo (Jeepney Stop)", "Type": "Transport", "Address": "Mandurriao Iloilo, Iloilo R-2 Road, Jibao-an, Pavia, Iloilo, Western Visayas, 5001, Philippines", "Barangay": "Jibao-an", "City/Municipality": "Iloilo City", "Facebook": null, "URL": null, "Mobile_Contact": null, "Landline_Contact": null, "Email": null, "Logo": null, "Latitude": 10.745033, "Longitude": 122.513515 }, "geometry": { "type": "Point", "coordinates": [ 122.513515, 10.745033 ] } },
{ "type": "Feature", "properties": { "ID": "TR-135", "Name": "Sta. Barbara (Jeepney Stop)", "Type": "Transport", "Address": "Sta. Barbara, Benigno S. Aquino, Jr. Avenue, Ungka, Jaro, Iloilo City, Western Visayas, 5000, Philippines", "Barangay": "Ungka", "City/Municipality": "Pavia", "Facebook": null, "URL": null, "Mobile_Contact": null, "Landline_Contact": null, "Email": null, "Logo": null, "Latitude": 10.745803, "Longitude": 122.539221 }, "geometry": { "type": "Point", "coordinates": [ 122.539221, 10.745803 ] } },
{ "type": "Feature", "properties": { "ID": "TR-136", "Name": "Janiuay (Jeepney Stop)", "Type": "Transport", "Address": "Janiuay, Benigno S. Aquino, Jr. Avenue, Ungka, Jaro, Iloilo City, Western Visayas, 5000, Philippines", "Barangay": "Ungka", "City/Municipality": "Pavia", "Facebook": null, "URL": null, "Mobile_Contact": null, "Landline_Contact": null, "Email": null, "Logo": null, "Latitude": 10.745911, "Longitude": 122.539194 }, "geometry": { "type": "Point", "coordinates": [ 122.539194, 10.745911 ] } },
{ "type": "Feature", "properties": { "ID": "TR-137", "Name": "Triumph Home Depot (Jeepney Stop)", "Type": "Transport", "Address": "Triumph Home Depot, MacArthur Drive, Tagbac, Jaro, Balantang, Iloilo City, Western Visayas, 5000, Philippines", "Barangay": "Balantang", "City/Municipality": "Iloilo City", "Facebook": null, "URL": null, "Mobile_Contact": null, "Landline_Contact": null, "Email": null, "Logo": null, "Latitude": 10.757741, "Longitude": 122.575141 }, "geometry": { "type": "Point", "coordinates": [ 122.575141, 10.757741 ] } },
{ "type": "Feature", "properties": { "ID": "TR-138", "Name": "Isatu (Jeepney Stop)", "Type": "Transport", "Address": "Isatu, Burgos Street, Railway, La Paz, Tabuc Suba, Iloilo City, Western Visayas, 5000, Philippines", "Barangay": null, "City/Municipality": "Iloilo City", "Facebook": null, "URL": null, "Mobile_Contact": null, "Landline_Contact": null, "Email": null, "Logo": null, "Latitude": 10.71624, "Longitude": 122.566052 }, "geometry": { "type": "Point", "coordinates": [ 122.566052, 10.71624 ] } },
{ "type": "Feature", "properties": { "ID": "TR-139", "Name": "Unnamed Taxi Stand ", "Type": "Transport", "Address": "Taxi Stand, Benigno S. Aquino Jr. Avenue, Ungka Ⅱ, Ungka II, Ungka I, Pavia, Iloilo, Western Visayas, 5001, Philippines", "Barangay": "Ungka II", "City/Municipality": "Pavia", "Facebook": null, "URL": null, "Mobile_Contact": null, "Landline_Contact": null, "Email": null, "Logo": null, "Latitude": 10.754117, "Longitude": 122.538386 }, "geometry": { "type": "Point", "coordinates": [ 122.538386, 10.754117 ] } },
{ "type": "Feature", "properties": { "ID": "TR-140", "Name": "Ungka-CPU (Jeepney Stop)", "Type": "Transport", "Address": "Ungka-CPU, Benigno S. Aquino Jr. Avenue, Ungka Ⅱ, Ungka II, Ungka I, Pavia, Iloilo, Western Visayas, 5001, Philippines", "Barangay": null, "City/Municipality": "Pavia", "Facebook": null, "URL": null, "Mobile_Contact": null, "Landline_Contact": null, "Email": null, "Logo": null, "Latitude": 10.75381, "Longitude": 122.538399 }, "geometry": { "type": "Point", "coordinates": [ 122.538399, 10.75381 ] } },
{ "type": "Feature", "properties": { "ID": "TR-141", "Name": "SM City Iloilo Helipad", "Type": "Transport", "Address": "SM City Iloilo Helipad, SM City Terminal Service Road, Bakhaw, Mandurriao, Bolilao, Iloilo City, Western Visayas, 5000, Philippines", "Barangay": "Mandurriao", "City/Municipality": "Iloilo City", "Facebook": null, "URL": null, "Mobile_Contact": null, "Landline_Contact": null, "Email": null, "Logo": null, "Latitude": 10.715458, "Longitude": 122.550961 }, "geometry": { "type": "Point", "coordinates": [ 122.550961, 10.715458 ] } },
{ "type": "Feature", "properties": { "ID": "TR-142", "Name": "Injap Tower Helipad", "Type": "Transport", "Address": "Injap Tower Helipad, East Service Road, San Rafael, Mandurriao, Bolilao, Iloilo City, Western Visayas, 5000, Philippines", "Barangay": "Mandurriao", "City/Municipality": "Iloilo City", "Facebook": null, "URL": null, "Mobile_Contact": null, "Landline_Contact": null, "Email": null, "Logo": null, "Latitude": 10.713961, "Longitude": 122.552799 }, "geometry": { "type": "Point", "coordinates": [ 122.552799, 10.713961 ] } },
{ "type": "Feature", "properties": { "ID": "TR-143", "Name": "Power Barge Helipad", "Type": "Transport", "Address": "Power Barge Helipad, Everlasting Street, Lapuz, Iloilo City, Western Visayas, 5000, Philippines", "Barangay": "Lapuz", "City/Municipality": "Iloilo City", "Facebook": null, "URL": null, "Mobile_Contact": null, "Landline_Contact": null, "Email": null, "Logo": null, "Latitude": 10.698802, "Longitude": 122.588553 }, "geometry": { "type": "Point", "coordinates": [ 122.588553, 10.698802 ] } },
{ "type": "Feature", "properties": { "ID": "TR-144", "Name": "Ungka-CPU (Jeepney Stop) ", "Type": "Transport", "Address": "Ungka-CPU, Benigno S. Aquino, Jr. Avenue, Ungka, Jaro, Iloilo City, Western Visayas, 5000, Philippines", "Barangay": "Ungka II", "City/Municipality": "Pavia", "Facebook": null, "URL": null, "Mobile_Contact": null, "Landline_Contact": null, "Email": null, "Logo": null, "Latitude": 10.746455, "Longitude": 122.539176 }, "geometry": { "type": "Point", "coordinates": [ 122.539176, 10.746455 ] } },
{ "type": "Feature", "properties": { "ID": "TR-145", "Name": "SM City Iloilo (Jeepney Stop)", "Type": "Transport", "Address": "SM City Iloilo, Benigno S. Aquino, Jr. Avenue, Bakhaw, Mandurriao, Bolilao, Iloilo City, Western Visayas, 5000, Philippines", "Barangay": "Mandurriao", "City/Municipality": "Iloilo City", "Facebook": null, "URL": null, "Mobile_Contact": null, "Landline_Contact": null, "Email": null, "Logo": null, "Latitude": 10.713642, "Longitude": 122.552208 }, "geometry": { "type": "Point", "coordinates": [ 122.552208, 10.713642 ] } },
{ "type": "Feature", "properties": { "ID": "TR-146", "Name": "Unnamed Helipad ", "Type": "Transport", "Address": "FP25+39Q Sibunag, Guimaras", "Barangay": "Sibunag", "City/Municipality": "Guimaras", "Facebook": null, "URL": null, "Mobile_Contact": null, "Landline_Contact": null, "Email": null, "Logo": null, "Latitude": 10.450216, "Longitude": 122.708477 }, "geometry": { "type": "Point", "coordinates": [ 122.708477, 10.450216 ] } },
{ "type": "Feature", "properties": { "ID": "TR-147", "Name": "Unnamed Helipad ", "Type": "Transport", "Address": "PG5X+CH7 Iloilo City, Iloilo", "Barangay": "Iloilo City Proper", "City/Municipality": "Iloilo City", "Facebook": null, "URL": null, "Mobile_Contact": null, "Landline_Contact": null, "Email": null, "Logo": null, "Latitude": 10.708537, "Longitude": 122.548936 }, "geometry": { "type": "Point", "coordinates": [ 122.548936, 10.708537 ] } },
{ "type": "Feature", "properties": { "ID": "TR-148", "Name": "Unnamed Jeepney Stop", "Type": "Transport", "Address": "MGWV+V53 Iloilo City, Iloilo", "Barangay": "Iloilo City Proper", "City/Municipality": "Iloilo City", "Facebook": null, "URL": null, "Mobile_Contact": null, "Landline_Contact": null, "Email": null, "Logo": null, "Latitude": 10.697129, "Longitude": 122.542935 }, "geometry": { "type": "Point", "coordinates": [ 122.542935, 10.697129 ] } },
{ "type": "Feature", "properties": { "ID": "TR-149", "Name": "Unnamed Jeepney Stop", "Type": "Transport", "Address": "PHF2+293 Iloilo City, Iloilo", "Barangay": "Iloilo City Proper", "City/Municipality": "Iloilo City", "Facebook": null, "URL": null, "Mobile_Contact": null, "Landline_Contact": null, "Email": null, "Logo": null, "Latitude": 10.722517, "Longitude": 122.55091 }, "geometry": { "type": "Point", "coordinates": [ 122.55091, 10.722517 ] } },
{ "type": "Feature", "properties": { "ID": "TR-150", "Name": "Unnamed Jeepney Stop", "Type": "Transport", "Address": "PGGX+7M8 Iloilo City, Iloilo", "Barangay": "Iloilo City Proper", "City/Municipality": "Iloilo City", "Facebook": null, "URL": null, "Mobile_Contact": null, "Landline_Contact": null, "Email": null, "Logo": null, "Latitude": 10.725657, "Longitude": 122.549194 }, "geometry": { "type": "Point", "coordinates": [ 122.549194, 10.725657 ] } }
]
}
