{
"type": "FeatureCollection",
"name": "ECONOMY_SANTA_BARBARA_POIs_Insights",
"crs": { "type": "name", "properties": { "name": "urn:ogc:def:crs:OGC:1.3:CRS84" } },
"features": [
{ "type": "Feature", "properties": { "name": "J-4CE Water Refilling Station", "category": "Economy", "type": "Utilities", "facebook": null, "url": null, "address": "RHX2+MC Baranggay, Dalid Santa Barbara, Iloilo, 5002 Iloilo", "contact_mobile": null, "contact_landline": null, "email": null, "barangay": "Dalid", "district": null, "province": "Iloilo", "municity": "Santa Barbara", "entry fee": null, "open time": "06:00", "closing time": "18:00" }, "geometry": { "type": "Point", "coordinates": [ 122.55105, 10.84921 ] } },
{ "type": "Feature", "properties": { "name": "Brgy. Daga rice mill,sta Barbara,iloilo", "category": "Economy", "type": "Agriculture", "facebook": null, "url": null, "address": "VH27+P3Q, Santa Barbara, Iloilo", "contact_mobile": null, "contact_landline": null, "email": null, "barangay": "Daga", "district": null, "province": "Iloilo", "municity": "Santa Barbara", "entry fee": null, "open time": null, "closing time": null }, "geometry": { "type": "Point", "coordinates": [ 122.56272, 10.85186 ] } },
{ "type": "Feature", "properties": { "name": "FC - Livestock and Farm", "category": "Economy", "type": "Agriculture", "facebook": null, "url": null, "address": "RHM6+2W Souribio Compound, Santa Barbara, 5002 Iloilo", "contact_mobile": null, "contact_landline": null, "email": null, "barangay": "Cafe", "district": null, "province": "Iloilo", "municity": "Santa Barbara", "entry fee": null, "open time": "Open 24 hours", "closing time": "Open 24 hours" }, "geometry": { "type": "Point", "coordinates": [ 122.56237, 10.83257 ] } },
{ "type": "Feature", "properties": { "name": "Jojil Gamefarm", "category": "Economy", "type": "Agriculture", "facebook": "https://www.facebook.com/jojilgamefarm", "url": null, "address": "RHJ7+4WH, Brgy, Santa Barbara, 5002 Iloilo", "contact_mobile": 9451897990, "contact_landline": null, "email": null, "barangay": "Barasan Este", "district": null, "province": "Iloilo", "municity": "Santa Barbara", "entry fee": null, "open time": "07:00", "closing time": "17:00" }, "geometry": { "type": "Point", "coordinates": [ 122.56487, 10.83032 ] } },
{ "type": "Feature", "properties": { "name": "DANAO DRAGON J. POULTRY FARM, INC", "category": "Economy", "type": "Agriculture", "facebook": "https://www.facebook.com/dragonjfarm", "url": null, "address": "RHVC+58M, Santa Barbara, Iloilo", "contact_mobile": null, "contact_landline": null, "email": null, "barangay": "Binangkilan", "district": null, "province": "Iloilo", "municity": "Santa Barbara", "entry fee": null, "open time": null, "closing time": null }, "geometry": { "type": "Point", "coordinates": [ 122.57079, 10.84326 ] } },
{ "type": "Feature", "properties": { "name": "VEONG CONSTRUCTION & SUPPLY", "category": "Economy", "type": "Construction", "facebook": "https://web.facebook.com/veongconstructionandsupply/about/?_rdc=1&_rdr", "url": null, "address": null, "contact_mobile": 9177995032, "contact_landline": null, "email": null, "barangay": "Lanag", "district": null, "province": "Iloilo", "municity": "Santa Barbara", "entry fee": null, "open time": null, "closing time": null }, "geometry": { "type": "Point", "coordinates": [ 122.5488, 10.83604 ] } },
{ "type": "Feature", "properties": { "name": "Suganob rice mill", "category": "Economy", "type": "Agriculture", "facebook": null, "url": null, "address": "RGHQ+867, Santa Barbara, Iloilo", "contact_mobile": null, "contact_landline": null, "email": null, "barangay": "Poblacion", "district": null, "province": "Iloilo", "municity": "Santa Barbara", "entry fee": null, "open time": null, "closing time": null }, "geometry": { "type": "Point", "coordinates": [ 122.53796, 10.82828 ] } },
{ "type": "Feature", "properties": { "name": "EDGAR WOOD CRAFT & FURNITURE MAKING", "category": "Economy", "type": "Manufacturing", "facebook": null, "url": null, "address": "Santa Barbara, Iloilo", "contact_mobile": null, "contact_landline": null, "email": null, "barangay": "Miraga-Guibuangan", "district": null, "province": "Iloilo", "municity": "Santa Barbara", "entry fee": null, "open time": null, "closing time": null }, "geometry": { "type": "Point", "coordinates": [ 122.54859, 10.81666 ] } },
{ "type": "Feature", "properties": { "name": "JM Poultry Sta. Barbara Branch", "category": "Economy", "type": "Agriculture", "facebook": null, "url": null, "address": "RG8X+MC Santa Barbara, Iloilo", "contact_mobile": null, "contact_landline": null, "email": null, "barangay": "Miraga-Guibuangan", "district": null, "province": "Iloilo", "municity": "Santa Barbara", "entry fee": null, "open time": null, "closing time": null }, "geometry": { "type": "Point", "coordinates": [ 122.54858, 10.81665 ] } },
{ "type": "Feature", "properties": { "name": "Don Advertising & Services", "category": "Economy", "type": "Media", "facebook": "https://web.facebook.com/Dondoyano2021/?_rdc=1&_rdr", "url": null, "address": "RG8X+MC Santa Barbara, 5002 Iloilo", "contact_mobile": 9569846415, "contact_landline": null, "email": null, "barangay": "Miraga-Guibuangan", "district": null, "province": "Iloilo", "municity": "Santa Barbara", "entry fee": null, "open time": null, "closing time": null }, "geometry": { "type": "Point", "coordinates": [ 122.54859, 10.81665 ] } },
{ "type": "Feature", "properties": { "name": "Loki and Knight Rice and Poultry Supply", "category": "Economy", "type": "Agriculture", "facebook": null, "url": null, "address": "RG3V+X5 Purok1, Santa Barbara, 5002 Iloilo", "contact_mobile": null, "contact_landline": null, "email": null, "barangay": "Cabugao Norte", "district": null, "province": "Iloilo", "municity": "Santa Barbara", "entry fee": null, "open time": null, "closing time": null }, "geometry": { "type": "Point", "coordinates": [ 122.5429, 10.80504 ] } },
{ "type": "Feature", "properties": { "name": "Uni-Ultra Builders And Supply", "category": "Economy", "type": "Construction", "facebook": "https://web.facebook.com/uni.ultrabuilders", "url": null, "address": "RG2M+G66, Iloilo R-3 Rd, Pavia, Iloilo", "contact_mobile": 9209567144, "contact_landline": null, "email": "uni_ultrabuilders@yahoo.com", "barangay": "Cabugao Sur", "district": null, "province": "Iloilo", "municity": "Santa Barbara", "entry fee": null, "open time": null, "closing time": null }, "geometry": { "type": "Point", "coordinates": [ 122.533, 10.8013 ] } },
{ "type": "Feature", "properties": { "name": "Mega East Properties, Inc", "category": "Economy", "type": "Construction", "facebook": "https://web.facebook.com/megaeast/?_rdc=1&_rdr", "url": null, "address": "RG3J+HV9, Santa Barbara, Iloilo", "contact_mobile": 9203871470, "contact_landline": null, "email": "megaeast@yahoo.com", "barangay": "Cabugao Sur", "district": null, "province": "Iloilo", "municity": "Santa Barbara", "entry fee": null, "open time": null, "closing time": null }, "geometry": { "type": "Point", "coordinates": [ 122.53224, 10.80326 ] } },
{ "type": "Feature", "properties": { "name": "Solatorio Furniture and Fixture Shop", "category": "Economy", "type": "Manufacturing", "facebook": "https://www.facebook.com/profile.php?id=61573796428414", "url": null, "address": "QGX8+JF4 Rd, Bangga EE, Santa Barbara, Iloilo", "contact_mobile": 9103969194, "contact_landline": null, "email": null, "barangay": "Balibagan Este", "district": null, "province": "Iloilo", "municity": "Santa Barbara", "entry fee": null, "open time": null, "closing time": null }, "geometry": { "type": "Point", "coordinates": [ 122.51619, 10.79901 ] } },
{ "type": "Feature", "properties": { "name": "Sontillano Rice Mill", "category": "Economy", "type": "Agriculture", "facebook": null, "url": null, "address": "RG6F+W72, Santa Barbara, Iloilo", "contact_mobile": null, "contact_landline": null, "email": null, "barangay": "Inangayan", "district": null, "province": "Iloilo", "municity": "Santa Barbara", "entry fee": null, "open time": null, "closing time": null }, "geometry": { "type": "Point", "coordinates": [ 122.52312, 10.81232 ] } },
{ "type": "Feature", "properties": { "name": "RQ DESIGNZ", "category": "Economy", "type": "Construction", "facebook": null, "url": null, "address": "RGFF+GP2, Santa Barbara, Iloilo", "contact_mobile": null, "contact_landline": null, "email": null, "barangay": "San Sebastian", "district": null, "province": "Iloilo", "municity": "Santa Barbara", "entry fee": null, "open time": null, "closing time": null }, "geometry": { "type": "Point", "coordinates": [ 122.52347, 10.82481 ] } },
{ "type": "Feature", "properties": { "name": "Mai Water Refilling Station", "category": "Economy", "type": "Utilities", "facebook": null, "url": null, "address": "RG54+6W3, n/a, Santa Barbara, 5002 Iloilo", "contact_mobile": 9561762461, "contact_landline": null, "email": null, "barangay": "Nasugban", "district": null, "province": "Iloilo", "municity": "Santa Barbara", "entry fee": null, "open time": "07:00", "closing time": "18:00" }, "geometry": { "type": "Point", "coordinates": [ 122.50731, 10.80802 ] } },
{ "type": "Feature", "properties": { "name": "Nard's Agriculture & Poultry Supply", "category": "Economy", "type": "Agriculture", "facebook": null, "url": null, "address": "RG62+RWX, Santa Barbara, Iloilo", "contact_mobile": null, "contact_landline": null, "email": null, "barangay": "Nasugban", "district": null, "province": "Iloilo", "municity": "Santa Barbara", "entry fee": null, "open time": null, "closing time": null }, "geometry": { "type": "Point", "coordinates": [ 122.50235, 10.81212 ] } },
{ "type": "Feature", "properties": { "name": "Mirandel Poultry Dressing Plant", "category": "Economy", "type": "Agriculture", "facebook": null, "url": null, "address": "QGG3+R9Q, Angela Avenue, Santa Barbara, Iloilo", "contact_mobile": null, "contact_landline": null, "email": null, "barangay": "Jibao-an", "district": null, "province": "Iloilo", "municity": "Santa Barbara", "entry fee": null, "open time": null, "closing time": null }, "geometry": { "type": "Point", "coordinates": [ 122.50352, 10.77809 ] } },
{ "type": "Feature", "properties": { "name": "Buyo, Santa. Barbabara, Iloilo", "category": "Economy", "type": "Agriculture", "facebook": null, "url": null, "address": "QGH3+62H, Oton - San Jose-Santa Barbara Rd, Santa Barbara, Iloilo", "contact_mobile": 9812955912, "contact_landline": null, "email": null, "barangay": "Buyo", "district": null, "province": "Iloilo", "municity": "Santa Barbara", "entry fee": null, "open time": "08:00", "closing time": "17:30" }, "geometry": { "type": "Point", "coordinates": [ 122.50292, 10.77857 ] } },
{ "type": "Feature", "properties": { "name": "Deegeluvpumdab printing", "category": "Economy", "type": "Media", "facebook": null, "url": null, "address": "QGC3+FC Block 1 Lot 10 DHSBRR Phase 3, Santa Barbara, Iloilo", "contact_mobile": null, "contact_landline": null, "email": null, "barangay": "Balabag", "district": null, "province": "Iloilo", "municity": "Santa Barbara", "entry fee": null, "open time": null, "closing time": null }, "geometry": { "type": "Point", "coordinates": [ 122.50351, 10.77125 ] } },
{ "type": "Feature", "properties": { "name": "S2y Printshop", "category": "Economy", "type": "Media", "facebook": null, "url": null, "address": "QGM3+FV zone 1, Santa Barbara, 5002 Iloilo", "contact_mobile": 9308949064, "contact_landline": null, "email": null, "barangay": "Buyo", "district": null, "province": "Iloilo", "municity": "Santa Barbara", "entry fee": null, "open time": "08:30", "closing time": "19:00" }, "geometry": { "type": "Point", "coordinates": [ 122.50471, 10.78366 ] } },
{ "type": "Feature", "properties": { "name": "Pristine' Print Shop", "category": "Economy", "type": "Media", "facebook": "https://web.facebook.com/PristineVerone/?_rdc=1&_rdr", "url": null, "address": "QGG4+23 Balabag DECA HOMES SOCIALIZED PHASE 3 BLOCK 20 LOT 22, Santa Barbara, Iloilo", "contact_mobile": 9464487635, "contact_landline": null, "email": null, "barangay": "Balabag", "district": null, "province": "Iloilo", "municity": "Santa Barbara", "entry fee": null, "open time": "09:00", "closing time": "20:00" }, "geometry": { "type": "Point", "coordinates": [ 122.50516, 10.77509 ] } },
{ "type": "Feature", "properties": { "name": "MACY CONSTRUCTION & AGRICULTURAL SUPPLY", "category": "Economy", "type": "Construction", "facebook": "https://web.facebook.com/profile.php?id=61570553917333", "url": null, "address": "QGJ3+4HW, Oton - San Jose-Santa Barbara Rd, Santa Barbara, Iloilo", "contact_mobile": null, "contact_landline": null, "email": null, "barangay": "Buyo", "district": null, "province": "Iloilo", "municity": "Santa Barbara", "entry fee": null, "open time": null, "closing time": null }, "geometry": { "type": "Point", "coordinates": [ 122.50399, 10.78036 ] } },
{ "type": "Feature", "properties": { "name": "Victoria Agri - Poultry Supply", "category": "Economy", "type": "Agriculture", "facebook": null, "url": null, "address": "QGG3+CJR, Angela Avenue, San Miguel, Iloilo", "contact_mobile": null, "contact_landline": null, "email": null, "barangay": "Jibao-an", "district": null, "province": "Iloilo", "municity": "Santa Barbara", "entry fee": null, "open time": null, "closing time": null }, "geometry": { "type": "Point", "coordinates": [ 122.50401, 10.77612 ] } },
{ "type": "Feature", "properties": { "name": "SHANE SOLAR", "category": "Economy", "type": "Utilities", "facebook": "https://web.facebook.com/ShanesSolar/?_rdc=1&_rdr", "url": "https://powur.com/shane.delcastillo/", "address": "QGG4+23M, Deca homes,Brgy, Santa Barbara", "contact_mobile": null, "contact_landline": null, "email": "Shane.Powur@gmail.com", "barangay": "Balabag", "district": null, "province": "Iloilo", "municity": "Santa Barbara", "entry fee": null, "open time": null, "closing time": null }, "geometry": { "type": "Point", "coordinates": [ 122.50516, 10.77509 ] } },
{ "type": "Feature", "properties": { "name": "KLabs Printing Services", "category": "Economy", "type": "Media", "facebook": null, "url": "https://print.labiyo.com/", "address": "QG93+QP Block 42 Lot 46, DECA 3, Santa Barbara, 5002 Iloilo", "contact_mobile": 9778899025, "contact_landline": null, "email": null, "barangay": "Balabag", "district": null, "province": "Iloilo", "municity": "Santa Barbara", "entry fee": null, "open time": "00:00", "closing time": "00:00" }, "geometry": { "type": "Point", "coordinates": [ 122.50426, 10.76945 ] } },
{ "type": "Feature", "properties": { "name": "CopyExpert.Iloilo", "category": "Economy", "type": "Media", "facebook": "https://web.facebook.com/copyexpert.iloilo", "url": null, "address": "QG85+C5 Block 24 Lot 34, Sweet Pea St, Deca Homes, Socialized, Phase 2, Santa Barbara, Iloilo City, 5001 Iloilo", "contact_mobile": 9605974508, "contact_landline": null, "email": "copyexpertiloilo@gmail.com", "barangay": "Balabag", "district": null, "province": "Iloilo", "municity": "Santa Barbara", "entry fee": null, "open time": "00:00", "closing time": "00:00" }, "geometry": { "type": "Point", "coordinates": [ 122.50791, 10.76605 ] } },
{ "type": "Feature", "properties": { "name": "Syxto Printing Services", "category": "Economy", "type": "Media", "facebook": null, "url": null, "address": "QG93+GH Block 38, Lot 19, Santa Barbara, 5002 Iloilo", "contact_mobile": 9300829455, "contact_landline": null, "email": null, "barangay": "Balabag", "district": null, "province": "Iloilo", "municity": "Santa Barbara", "entry fee": null, "open time": null, "closing time": null }, "geometry": { "type": "Point", "coordinates": [ 122.50396, 10.76877 ] } },
{ "type": "Feature", "properties": { "name": "Lora Creative PH", "category": "Economy", "type": "Media", "facebook": "https://web.facebook.com/loracreativeph/?_rdc=1&_rdr", "url": "https://www.loracreativeph.com/", "address": "QG84+XP Phase 2, Block 13 Lot 10, Deca Homes, Santa Barbara, 5000 Iloilo", "contact_mobile": 9452094973, "contact_landline": null, "email": "contact@loracreativeph.com", "barangay": "Balabag", "district": null, "province": "Iloilo", "municity": "Santa Barbara", "entry fee": null, "open time": "08:00", "closing time": "16:00" }, "geometry": { "type": "Point", "coordinates": [ 122.50685, 10.76741 ] } },
{ "type": "Feature", "properties": { "name": "RJ&G LPG Outlet", "category": "Economy", "type": "Utilities", "facebook": "https://web.facebook.com/rjglpgstore/?_rdc=1&_rdr", "url": null, "address": "QGC6+HX3, Santa Barbara, Iloilo", "contact_mobile": 9977850411, "contact_landline": null, "email": null, "barangay": "Balabag", "district": null, "province": "Iloilo", "municity": "Santa Barbara", "entry fee": null, "open time": "08:00", "closing time": "18:00" }, "geometry": { "type": "Point", "coordinates": [ 122.51243, 10.77138 ] } },
{ "type": "Feature", "properties": { "name": "Ricky Rice Mill", "category": "Economy", "type": "Agriculture", "facebook": null, "url": null, "address": "RG93+V6Q Cadagmayan Norte, Santa Barbara, Iloilo", "contact_mobile": null, "contact_landline": null, "email": null, "barangay": "Cadagmayan Norte", "district": null, "province": "Iloilo", "municity": "Santa Barbara", "entry fee": null, "open time": null, "closing time": null }, "geometry": { "type": "Point", "coordinates": [ 122.50313, 10.81973 ] } },
{ "type": "Feature", "properties": { "name": "Onyok Construction And Supply", "category": "Economy", "type": "Construction", "facebook": null, "url": null, "address": "RGX8+CXX, Old Iloilo - Capiz Rd, Cabatuan, Iloilo", "contact_mobile": null, "contact_landline": null, "email": null, "barangay": "Talanghauan", "district": null, "province": "Iloilo", "municity": "Santa Barbara", "entry fee": null, "open time": null, "closing time": null }, "geometry": { "type": "Point", "coordinates": [ 122.51747, 10.84862 ] } },
{ "type": "Feature", "properties": { "name": "JMJ Multi Mktg Furniture", "category": "Economy", "type": "Manufacturing", "facebook": null, "url": null, "address": "RGMJ+MRH, Maravilla Street, Brgy. Gen. Martin T Delgado, Sta Barbara, Iloilo City, 5002 Iloilo", "contact_mobile": null, "contact_landline": 335238771, "email": null, "barangay": "Tungay", "district": null, "province": "Iloilo", "municity": "Santa Barbara", "entry fee": null, "open time": "08:00", "closing time": "17:00" }, "geometry": { "type": "Point", "coordinates": [ 122.5328, 10.83664 ] } },
{ "type": "Feature", "properties": { "name": "Virginia Water Refilling Station", "category": "Economy", "type": "Utilities", "facebook": null, "url": null, "address": "RHC6+CX Santa Barbara, Iloilo", "contact_mobile": 9663100291, "contact_landline": null, "email": null, "barangay": "Tigtig", "district": null, "province": "Iloilo", "municity": "Santa Barbara", "entry fee": null, "open time": null, "closing time": null }, "geometry": { "type": "Point", "coordinates": [ 122.56241, 10.82113 ] } },
{ "type": "Feature", "properties": { "name": "CNY Printing Services", "category": "Economy", "type": "Media", "facebook": "https://web.facebook.com/people/CNY-Printing-Services/61566436152892/?_rdc=1&_rdr", "url": null, "address": "RH9P+MJ Santa Barbara, Iloilo", "contact_mobile": null, "contact_landline": null, "email": null, "barangay": "Conaynay", "district": null, "province": "Iloilo", "municity": "Santa Barbara", "entry fee": null, "open time": null, "closing time": null }, "geometry": { "type": "Point", "coordinates": [ 122.58656, 10.81913 ] } },
{ "type": "Feature", "properties": { "name": "ILOILO 1 ELECTRIC COOPERATIVE, INC.", "category": "Economy", "type": "Utilities", "facebook": "https://web.facebook.com/IlecoOne/?_rdc=1&_rdr", "url": "ileco1.com", "address": "RG5J+7JF, Santa Barbara, Iloilo", "contact_mobile": null, "contact_landline": 335238630, "email": "ogm@ileco1.org", "barangay": "Bolong Este", "district": null, "province": "Iloilo", "municity": "Santa Barbara", "entry fee": null, "open time": "08:00", "closing time": "17:00" }, "geometry": { "type": "Point", "coordinates": [ 122.53154, 10.80819 ] } },
{ "type": "Feature", "properties": { "name": "R Espino Poultry Supply", "category": "Economy", "type": "Agriculture", "facebook": null, "url": null, "address": "RGCM+JR Santa Barbara Public Market, Sulod st, Santa Barbara, 5003 Iloilo", "contact_mobile": 9078063179, "contact_landline": null, "email": null, "barangay": "Poblacion", "district": null, "province": "Iloilo", "municity": "Santa Barbara", "entry fee": null, "open time": "06:00", "closing time": "18:30" }, "geometry": { "type": "Point", "coordinates": [ 122.53462, 10.82153 ] } },
{ "type": "Feature", "properties": { "name": "Dekulor Prints", "category": "Economy", "type": "Media", "facebook": "https://www.facebook.com/dekulorprints", "url": null, "address": "RGCM+PM Brgy, Santa Barbara, 5002 Iloilo", "contact_mobile": 9955018875, "contact_landline": null, "email": "dekulor@gmail.com", "barangay": "Poblacion", "district": null, "province": "Iloilo", "municity": "Santa Barbara", "entry fee": null, "open time": "09:00", "closing time": "18:00" }, "geometry": { "type": "Point", "coordinates": [ 122.53417, 10.82185 ] } },
{ "type": "Feature", "properties": { "name": "Iloilo Online Directories", "category": "Economy", "type": "Media", "facebook": null, "url": null, "address": "RG9Q+93 Unit 6, Sumagpao Apartments, Zone VI, Arroyo Street, Santa Barbara, 5002 Iloilo", "contact_mobile": null, "contact_landline": 335237009, "email": null, "barangay": "Poblacion", "district": null, "province": "Iloilo", "municity": "Santa Barbara", "entry fee": null, "open time": "09:00", "closing time": "17:00" }, "geometry": { "type": "Point", "coordinates": [ 122.5376, 10.81851 ] } },
{ "type": "Feature", "properties": { "name": "PHOENIX SUPER LPG", "category": "Economy", "type": "Utilities", "facebook": null, "url": null, "address": "RGFP+36X, Montinola Street, Santa Barbara, Iloilo", "contact_mobile": null, "contact_landline": null, "email": null, "barangay": "Poblacion", "district": null, "province": "Iloilo", "municity": "Santa Barbara", "entry fee": null, "open time": null, "closing time": null }, "geometry": { "type": "Point", "coordinates": [ 122.53559, 10.82275 ] } },
{ "type": "Feature", "properties": { "name": "Mariano suganob Ricemill", "category": "Economy", "type": "Agriculture", "facebook": null, "url": null, "address": "RGHP+7F 21 Merlo Street, Santa Barbara, Iloilo", "contact_mobile": null, "contact_landline": null, "email": null, "barangay": "Poblacion", "district": null, "province": "Iloilo", "municity": "Santa Barbara", "entry fee": null, "open time": null, "closing time": null }, "geometry": { "type": "Point", "coordinates": [ 122.53623, 10.82817 ] } },
{ "type": "Feature", "properties": { "name": "106.7 DYIS-FM Radyo Kahilwayan", "category": "Economy", "type": "Media", "facebook": "https://web.facebook.com/p/1067FM-DYIS-Radyo-Kahilwayan-100069504079777/?_rdc=1&_rdr", "url": null, "address": "RGGJ+XFH, Magalona St, Santa Barbara, Iloilo", "contact_mobile": 9283401380, "contact_landline": 333210400, "email": null, "barangay": "Poblacion", "district": null, "province": "Iloilo", "municity": "Santa Barbara", "entry fee": null, "open time": "05:00", "closing time": "23:00" }, "geometry": { "type": "Point", "coordinates": [ 122.5313, 10.8274 ] } },
{ "type": "Feature", "properties": { "name": "GreatAvenue Printing Supplies", "category": "Economy", "type": "Media", "facebook": "https://web.facebook.com/2mlHubillaCreation/?locale=cx_PH&_rdc=1&_rdr", "url": null, "address": "RGGM+22 Zone 3 Bermejo Street, Cabatuan, 5031 Iloilo", "contact_mobile": 9062108998, "contact_landline": null, "email": null, "barangay": "Poblacion", "district": null, "province": "Iloilo", "municity": "Santa Barbara", "entry fee": null, "open time": "08:00", "closing time": "18:00" }, "geometry": { "type": "Point", "coordinates": [ 122.53258, 10.8251 ] } },
{ "type": "Feature", "properties": { "name": "Light and Shade Digital Prints", "category": "Economy", "type": "Media", "facebook": "https://web.facebook.com/lightandshade2016/?_rdc=1&_rdr", "url": null, "address": "RGFJ+R9 Ground Floor, Door #2, VP Building, Roosevelt Street, Santa Barbara, 5002 Iloilo", "contact_mobile": 9338690290, "contact_landline": null, "email": "lightandshade_sb@yahoo.com", "barangay": "Poblacion", "district": null, "province": "Iloilo", "municity": "Santa Barbara", "entry fee": null, "open time": "08:00", "closing time": "18:00" }, "geometry": { "type": "Point", "coordinates": [ 122.53099, 10.82463 ] } },
{ "type": "Feature", "properties": { "name": "Suboc Tarpaulin Printing", "category": "Economy", "type": "Media", "facebook": null, "url": null, "address": "RGFJ+VP Corner Roosevelt St, Arroyo Street, Zone 3, Santa Barbara, 5002 Iloilo", "contact_mobile": null, "contact_landline": 335234714, "email": null, "barangay": "Poblacion", "district": null, "province": "Iloilo", "municity": "Santa Barbara", "entry fee": null, "open time": "07:30", "closing time": "17:30" }, "geometry": { "type": "Point", "coordinates": [ 122.53182, 10.82466 ] } },
{ "type": "Feature", "properties": { "name": "NinjaPrint Digital Printing Services", "category": "Economy", "type": "Media", "facebook": "https://web.facebook.com/NinjaPrintServices/?_rdc=1&_rdr", "url": null, "address": "RGGM+R4 Zone 2, corner Rodriguez St, Santa Barbara, 5002 Iloilo", "contact_mobile": 9778038871, "contact_landline": null, "email": "ninjaprintph@gmail.com", "barangay": "Poblacion", "district": null, "province": "Iloilo", "municity": "Santa Barbara", "entry fee": null, "open time": null, "closing time": null }, "geometry": { "type": "Point", "coordinates": [ 122.53284, 10.82711 ] } },
{ "type": "Feature", "properties": { "name": "Mega Graphtech Prints", "category": "Economy", "type": "Media", "facebook": "https://web.facebook.com/p/Mega-Graphtech-Prints-100071819354024/?_rdc=1&_rdr", "url": null, "address": "RGGM+9JQ, Ramona Building, Taft Street, Santa Barbara, Iloilo, Iloilo City, 5002 Iloilo", "contact_mobile": 9255470223, "contact_landline": null, "email": null, "barangay": "Poblacion", "district": null, "province": "Iloilo", "municity": "Santa Barbara", "entry fee": null, "open time": "07:30", "closing time": "18:00" }, "geometry": { "type": "Point", "coordinates": [ 122.5341, 10.82596 ] } },
{ "type": "Feature", "properties": { "name": "Zm Printing Services", "category": "Economy", "type": "Media", "facebook": "https://web.facebook.com/p/ZM-Printing-Services-100064041252118/?_rdc=1&_rdr", "url": null, "address": "RGFJ+RH H. FernandeH. Fernandez Bldg.z Bldg., Roosevelt Street, Santa Barbara, Iloilo City, 5002 Iloilo", "contact_mobile": 9127034490, "contact_landline": 333217607, "email": "zm.printingserv@gmail.com", "barangay": "Poblacion", "district": null, "province": "Iloilo", "municity": "Santa Barbara", "entry fee": null, "open time": null, "closing time": null }, "geometry": { "type": "Point", "coordinates": [ 122.53145, 10.82452 ] } },
{ "type": "Feature", "properties": { "name": "RNB AGRIVET SUPPLY", "category": "Economy", "type": "Agriculture", "facebook": null, "url": null, "address": "RGFM+6FX, Arroyo Street, Santa Barbara, Iloilo", "contact_mobile": null, "contact_landline": null, "email": null, "barangay": "Poblacion", "district": null, "province": "Iloilo", "municity": "Santa Barbara", "entry fee": null, "open time": null, "closing time": null }, "geometry": { "type": "Point", "coordinates": [ 122.53374, 10.82313 ] } },
{ "type": "Feature", "properties": { "name": "GMTD Water Refilling Station", "category": "Economy", "type": "Utilities", "facebook": null, "url": null, "address": "RGGM+77Q, Gmtd. Delgado St., Sta. Barbara, Iloilo City, 5002 Iloilo", "contact_mobile": null, "contact_landline": 333931833, "email": null, "barangay": "Poblacion", "district": null, "province": "Iloilo", "municity": "Santa Barbara", "entry fee": null, "open time": "07:00", "closing time": "19:00" }, "geometry": { "type": "Point", "coordinates": [ 122.53321, 10.82573 ] } },
{ "type": "Feature", "properties": { "name": "RJK Purified Water Refilling Station", "category": "Economy", "type": "Utilities", "facebook": null, "url": null, "address": "RGHM+26 In front of the Barangay Hall, Rodriguez St, Santa Barbara, 5002 Iloilo", "contact_mobile": 9985311650, "contact_landline": null, "email": null, "barangay": "Poblacion", "district": null, "province": "Iloilo", "municity": "Santa Barbara", "entry fee": null, "open time": "07:00", "closing time": "19:00" }, "geometry": { "type": "Point", "coordinates": [ 122.53311, 10.82758 ] } },
{ "type": "Feature", "properties": { "name": "Full Tank Corp. Center, Sta barbara branch", "category": "Economy", "type": "Utilities", "facebook": null, "url": null, "address": "RGFM+M77, Castilla St, Santa Barbara, Iloilo", "contact_mobile": 9479958439, "contact_landline": null, "email": null, "barangay": "Poblacion", "district": null, "province": "Iloilo", "municity": "Santa Barbara", "entry fee": null, "open time": "08:00", "closing time": "00:00" }, "geometry": { "type": "Point", "coordinates": [ 122.53318, 10.82416 ] } },
{ "type": "Feature", "properties": { "name": "Carrera Residence", "category": "Economy", "type": "Utilities", "facebook": null, "url": null, "address": "RGHH+QC Blk 20 Lot 12/13, Paseo de Santa Barbara, Iloilo, 5002 Iloilo", "contact_mobile": 9158635885, "contact_landline": null, "email": null, "barangay": "Gen. Martin T. Delgado", "district": null, "province": "Iloilo", "municity": "Santa Barbara", "entry fee": null, "open time": "00:00", "closing time": "00:00" }, "geometry": { "type": "Point", "coordinates": [ 122.52852, 10.82942 ] } }
]
}
