{
"type": "FeatureCollection",
"name": "ECONOMY_SAN_MIGUEL_POIs_Insights",
"crs": { "type": "name", "properties": { "name": "urn:ogc:def:crs:OGC:1.3:CRS84" } },
"features": [
{ "type": "Feature", "properties": { "name": "B-Boy Poultry Supply", "category": "Economy", "type": "Agriculture", "address": "QFJ8+5M2, San Miguel, Iloilo", "contact_mobile": 9485789750, "contact_landline": null, "email": null, "barangay": "Barangay 1", "district": null, "municity": "San Miguel", "province": "Iloilo", "facebook": "https://www.facebook.com/profile.php?id=100075479757772", "url": null, "entry fee": null, "open time": null, "closing time": null }, "geometry": { "type": "Point", "coordinates": [ 122.46659, 10.78042 ] } },
{ "type": "Feature", "properties": { "name": "OSCARES PALAY BUYING and AGRI-SUPPLY", "category": "Economy", "type": "Agriculture", "address": "QFHC+3G Roxas Street, San Miguel, 5025 Iloilo", "contact_mobile": null, "contact_landline": 333960053, "email": null, "barangay": "Barangay 1", "district": null, "municity": "San Miguel", "province": "Iloilo", "facebook": null, "url": null, "entry fee": null, "open time": "07:00:00", "closing time": "17:00:00" }, "geometry": { "type": "Point", "coordinates": [ 122.47127, 10.77766 ] } },
{ "type": "Feature", "properties": { "name": "Arctic Drop Water Refilling Station", "category": "Economy", "type": "Utilities", "address": "QFJ8+CR51 San Roque St, Iloilo City, 5025 Iloilo", "contact_mobile": null, "contact_landline": null, "email": null, "barangay": "Barangay 8", "district": null, "municity": "San Miguel", "province": "Iloilo", "facebook": null, "url": null, "entry fee": null, "open time": "07:30:00", "closing time": "15:30:00" }, "geometry": { "type": "Point", "coordinates": [ 122.46703, 10.7811 ] } },
{ "type": "Feature", "properties": { "name": "ZAB Water Refilling Station", "category": "Economy", "type": "Utilities", "address": "QFJ8+CV Brgy. 8 San Roque St, North, San Miguel, 5025 Iloilo", "contact_mobile": 9287311170, "contact_landline": null, "email": null, "barangay": "Barangay 8", "district": null, "municity": "San Miguel", "province": "Iloilo", "facebook": "https://web.facebook.com/people/ZAB-Water-Refilling-Station/100087666642126/?_rdc=1&_rdr", "url": null, "entry fee": null, "open time": "07:30:00", "closing time": "17:30:00" }, "geometry": { "type": "Point", "coordinates": [ 122.46719, 10.7811 ] } },
{ "type": "Feature", "properties": { "name": "Escalera Advertising Services", "category": "Economy", "type": "Media", "address": "QFG5+JGW, Igtambo, San Miguel, Iloilo", "contact_mobile": 9307982010, "contact_landline": null, "email": "eb.advertising20@gmail.com", "barangay": "Igtambo", "district": null, "municity": "San Miguel", "province": "Iloilo", "facebook": "https://web.facebook.com/EBDECALS2K20/?_rdc=1&_rdr", "url": null, "entry fee": null, "open time": "07:00:00", "closing time": "20:00:00" }, "geometry": { "type": "Point", "coordinates": [ 122.45883, 10.77663 ] } },
{ "type": "Feature", "properties": { "name": "Print'cess Ink and Digital", "category": "Economy", "type": "Media", "address": "QFM9+W7 Malipayon St, Barangay 8, San Miguel, 5025 Iloilo", "contact_mobile": null, "contact_landline": null, "email": null, "barangay": "Barangay 8", "district": null, "municity": "San Miguel", "province": "Iloilo", "facebook": null, "url": null, "entry fee": null, "open time": null, "closing time": null }, "geometry": { "type": "Point", "coordinates": [ 122.46814, 10.7848 ] } },
{ "type": "Feature", "properties": { "name": "Salibio ricemill", "category": "Economy", "type": "Agriculture", "address": "RF7G+37F, San Miguel - Cabatuan Rd, San Miguel, Iloilo", "contact_mobile": null, "contact_landline": null, "email": null, "barangay": "Consolacion", "district": null, "municity": "San Miguel", "province": "Iloilo", "facebook": null, "url": null, "entry fee": null, "open time": null, "closing time": null }, "geometry": { "type": "Point", "coordinates": [ 122.47566, 10.81269 ] } },
{ "type": "Feature", "properties": { "name": "Salapantan Rice Mill", "category": "Economy", "type": "Agriculture", "address": "RF2F+MM8, Cabatuan Road, San Miguel, Iloilo", "contact_mobile": null, "contact_landline": null, "email": null, "barangay": "Consolacion", "district": null, "municity": "San Miguel", "province": "Iloilo", "facebook": null, "url": null, "entry fee": null, "open time": null, "closing time": null }, "geometry": { "type": "Point", "coordinates": [ 122.47421, 10.80173 ] } },
{ "type": "Feature", "properties": { "name": "DJ2A Hog and Poultry Supply", "category": "Economy", "type": "Agriculture", "address": "RF8G+72 Sitio Hanao Hanao, San Miguel, 5025 Iloilo", "contact_mobile": null, "contact_landline": 333515102, "email": null, "barangay": "Consolacion", "district": null, "municity": "San Miguel", "province": "Iloilo", "facebook": null, "url": null, "entry fee": null, "open time": "08:00:00", "closing time": "17:00:00" }, "geometry": { "type": "Point", "coordinates": [ 122.47509, 10.81564 ] } },
{ "type": "Feature", "properties": { "name": "Print Your Photos", "category": "Economy", "type": "Media", "address": "RF4H+G39, Sitio Banglid San Miguel, 5025 Iloilo", "contact_mobile": 9636642804, "contact_landline": null, "email": null, "barangay": "Consolacion", "district": null, "municity": "San Miguel", "province": "Iloilo", "facebook": null, "url": null, "entry fee": null, "open time": "09:00:00", "closing time": "21:00:00" }, "geometry": { "type": "Point", "coordinates": [ 122.47773, 10.80629 ] } },
{ "type": "Feature", "properties": { "name": "C. Alibay Agricultural Supply", "category": "Economy", "type": "Agriculture", "address": "RF8G+738, San Miguel - Cabatuan Rd, San Miguel, Iloilo", "contact_mobile": null, "contact_landline": null, "email": null, "barangay": "Consolacion", "district": null, "municity": "San Miguel", "province": "Iloilo", "facebook": null, "url": null, "entry fee": null, "open time": null, "closing time": null }, "geometry": { "type": "Point", "coordinates": [ 122.4752, 10.81569 ] } },
{ "type": "Feature", "properties": { "name": "NYX's Furniture", "category": "Economy", "type": "Manufacturing", "address": "QCGV+W9F Iglesia Ni Cristo, San Miguel, 5025 Iloilo", "contact_mobile": 9609273840, "contact_landline": null, "email": null, "barangay": "San Antonio", "district": null, "municity": "San Miguel", "province": "Iloilo", "facebook": "https://www.facebook.com/profile.php?id=61565997343737", "url": null, "entry fee": null, "open time": "06:30:00", "closing time": "18:30:00" }, "geometry": { "type": "Point", "coordinates": [ 122.44342, 10.77733 ] } },
{ "type": "Feature", "properties": { "name": "Egger Farm", "category": "Economy", "type": "Agriculture", "address": "QG42+QW9 Egger Farm, San Miguel, Iloilo", "contact_mobile": null, "contact_landline": 323211978, "email": null, "barangay": "San Jose", "district": null, "municity": "San Miguel", "province": "Iloilo", "facebook": null, "url": null, "entry fee": null, "open time": null, "closing time": null }, "geometry": { "type": "Point", "coordinates": [ 122.50278, 10.75905 ] } },
{ "type": "Feature", "properties": { "name": "Morning Dew Water Refilling Station", "category": "Economy", "type": "Utilities", "address": "QF7V+9VX, Iloilo City - Aleosan Rd, Iloilo City, 5025 Iloilo", "contact_mobile": 9208964839, "contact_landline": null, "email": null, "barangay": "San Jose", "district": null, "municity": "San Miguel", "province": "Iloilo", "facebook": null, "url": null, "entry fee": null, "open time": "08:00:00", "closing time": "18:00:00" }, "geometry": { "type": "Point", "coordinates": [ 122.49476, 10.7635 ] } },
{ "type": "Feature", "properties": { "name": "CLDIN GAME FARM", "category": "Economy", "type": "Agriculture", "address": "QF5X+WGP, Iloilo City - Aleosan Rd, San Miguel, 5025 Iloilo", "contact_mobile": null, "contact_landline": null, "email": null, "barangay": "San Jose", "district": null, "municity": "San Miguel", "province": "Iloilo", "facebook": null, "url": null, "entry fee": null, "open time": null, "closing time": null }, "geometry": { "type": "Point", "coordinates": [ 122.49884, 10.75985 ] } },
{ "type": "Feature", "properties": { "name": "Morning Dew Water Refilling Station", "category": "Economy", "type": "Utilities", "address": "QF7V+9VX, Iloilo City - Aleosan Rd, Iloilo City, 5025 Iloilo", "contact_mobile": 9208964839, "contact_landline": null, "email": null, "barangay": "San Jose", "district": null, "municity": "San Miguel", "province": "Iloilo", "facebook": null, "url": null, "entry fee": null, "open time": "08:00:00", "closing time": "18:00:00" }, "geometry": { "type": "Point", "coordinates": [ 122.49474, 10.7635 ] } },
{ "type": "Feature", "properties": { "name": "PurePhil Gas Trading", "category": "Economy", "type": "Utilities", "address": "QF6W+HR Zone 5 Brgy San Jose, San Miguel, 5025 Iloilo", "contact_mobile": 9078115090, "contact_landline": null, "email": null, "barangay": "San Jose", "district": null, "municity": "San Miguel", "province": "Iloilo", "facebook": null, "url": null, "entry fee": null, "open time": "08:00:00", "closing time": "21:00:00" }, "geometry": { "type": "Point", "coordinates": [ 122.49712, 10.76149 ] } }
]
}
