{
"type": "FeatureCollection",
"name": "ECONOMY_GUIMARAS_POIs_Insights",
"crs": { "type": "name", "properties": { "name": "urn:ogc:def:crs:OGC:1.3:CRS84" } },
"features": [
{ "type": "Feature", "properties": { "name": "Montem Ros Water Refilling Station", "category": "Economy", "type": "Utilities", "address": "MJ4Q+RMW, Buenavista, Guimaras", "contact_mobile": null, "contact_landline": null, "email": null, "barangay": "Piña", "district": null, "municity": "Buenavista", "province": "Guimaras", "facebook": null, "url": null, "entry fee": null, "open time": null, "closing time": null }, "geometry": { "type": "Point", "coordinates": [ 122.63919, 10.65714 ] } },
{ "type": "Feature", "properties": { "name": "Guimaras Construction and General Merchant", "category": "Economy", "type": "Construction", "address": "MJ5R+XGX, Buenavista-Jordan Road, Agsanayan, Carig-On, Buenavista City, 5044 Guimaras", "contact_mobile": null, "contact_landline": 335000149, "email": null, "barangay": "Agsanayan", "district": null, "municity": "Buenavista", "province": "Guimaras", "facebook": null, "url": null, "entry fee": null, "open time": "07:30", "closing time": "17:00" }, "geometry": { "type": "Point", "coordinates": [ 122.64134, 10.66006 ] } },
{ "type": "Feature", "properties": { "name": "RHEJOYZ HARDWARE & CONSTRUCTION SUPPLY", "category": "Economy", "type": "Construction", "address": "MJ7W+M62, Guimaras Circumferential Rd, Buenavista, Guimaras", "contact_mobile": null, "contact_landline": null, "email": null, "barangay": "Agsanayan", "district": null, "municity": "Buenavista", "province": "Guimaras", "facebook": null, "url": null, "entry fee": null, "open time": null, "closing time": null }, "geometry": { "type": "Point", "coordinates": [ 122.64552, 10.66415 ] } },
{ "type": "Feature", "properties": { "name": "Jewel's Water Refilling Station", "category": "Economy", "type": "Utilities", "address": "MJ29+97 Km. 3, Poblacion, Jordan, 5045 Guimaras", "contact_mobile": 9475861007, "contact_landline": null, "email": null, "barangay": "Daragan", "district": null, "municity": "Buenavista", "province": "Guimaras", "facebook": "https://www.facebook.com/JewelsPurifiedWater", "url": "jewels-water-refilling-station.business.site", "entry fee": null, "open time": "07:00", "closing time": "19:30" }, "geometry": { "type": "Point", "coordinates": [ 122.61813, 10.651 ] } },
{ "type": "Feature", "properties": { "name": "Buena Grapika", "category": "Economy", "type": "Media", "address": "MJCP+HF9, Buenavista, 5044 Guimaras", "contact_mobile": 9171673751, "contact_landline": null, "email": "buenagrapika@gmail.com", "barangay": "San Isidro", "district": null, "municity": "Buenavista", "province": "Guimaras", "facebook": "https://web.facebook.com/buenagrapika?_rdc=1&_rdr", "url": null, "entry fee": null, "open time": null, "closing time": null }, "geometry": { "type": "Point", "coordinates": [ 122.63623, 10.67141 ] } },
{ "type": "Feature", "properties": { "name": "Ycka poultry supply", "category": "Economy", "type": "Agriculture", "address": "MMJ3+8H4, Buenavista, Guimaras", "contact_mobile": null, "contact_landline": null, "email": null, "barangay": "San Roque", "district": null, "municity": "Buenavista", "province": "Guimaras", "facebook": null, "url": null, "entry fee": null, "open time": null, "closing time": null }, "geometry": { "type": "Point", "coordinates": [ 122.65397, 10.68077 ] } },
{ "type": "Feature", "properties": { "name": "OMEG'S CONSTRUCTION SUPPLY", "category": "Economy", "type": "Construction", "address": "MJQ9+52 Guimaras Sub-Province, Buenavista, 5045 Guimaras", "contact_mobile": null, "contact_landline": 335805570, "email": null, "barangay": "Santo Rosario", "district": null, "municity": "Buenavista", "province": "Guimaras", "facebook": null, "url": null, "entry fee": null, "open time": null, "closing time": null }, "geometry": { "type": "Point", "coordinates": [ 122.61756, 10.68792 ] } },
{ "type": "Feature", "properties": { "name": "LACKY BELS HARDWARE & LUMBER", "category": "Economy", "type": "Construction", "address": "MJQ8+5C5, Buenavista, Guimaras", "contact_mobile": 9162837944, "contact_landline": null, "email": null, "barangay": "Santo Rosario", "district": null, "municity": "Buenavista", "province": "Guimaras", "facebook": null, "url": null, "entry fee": null, "open time": "07:00", "closing time": "04:00" }, "geometry": { "type": "Point", "coordinates": [ 122.6161, 10.68789 ] } },
{ "type": "Feature", "properties": { "name": "M LHUILLIER", "category": "Economy", "type": "Finance", "address": "MJQ8+4W5, Buenavista, Guimaras", "contact_mobile": null, "contact_landline": null, "email": null, "barangay": "Santo Rosario", "district": null, "municity": "Buenavista", "province": "Guimaras", "facebook": null, "url": null, "entry fee": null, "open time": null, "closing time": null }, "geometry": { "type": "Point", "coordinates": [ 122.61735, 10.68777 ] } },
{ "type": "Feature", "properties": { "name": "PALAWAN PAWNSHOP EXPRESS PERA PADALA", "category": "Economy", "type": "Finance", "address": "MJQ8+2V3, Likod Road, Barangay Sto. Rosario, Buenavista, 5044 Guimaras", "contact_mobile": 9179281381, "contact_landline": null, "email": null, "barangay": "Santo Rosario", "district": null, "municity": "Buenavista", "province": "Guimaras", "facebook": null, "url": null, "entry fee": null, "open time": null, "closing time": null }, "geometry": { "type": "Point", "coordinates": [ 122.61719, 10.68757 ] } },
{ "type": "Feature", "properties": { "name": "Solane LPG", "category": "Economy", "type": "Utilities", "address": "MJQ8+59F, Likod Road, Buenavista, Guimaras", "contact_mobile": null, "contact_landline": null, "email": null, "barangay": "Santo Rosario", "district": null, "municity": "Buenavista", "province": "Guimaras", "facebook": null, "url": null, "entry fee": null, "open time": null, "closing time": null }, "geometry": { "type": "Point", "coordinates": [ 122.61593, 10.68799 ] } },
{ "type": "Feature", "properties": { "name": "Sunrise Remittance", "category": "Economy", "type": "Finance", "address": "MJQX+F3J, Cebuana Lhuillier, Barangay Santo Rosario, Buenavista, Buenavista, Guimaras", "contact_mobile": null, "contact_landline": 335808297, "email": "sunriseremittanceofficial@gmail.com", "barangay": "Tastasan", "district": null, "municity": "Buenavista", "province": "Guimaras", "facebook": "https://www.facebook.com/sunriseremittance", "url": "sunriseremit.com", "entry fee": null, "open time": null, "closing time": null }, "geometry": { "type": "Point", "coordinates": [ 122.64764, 10.68872 ] } },
{ "type": "Feature", "properties": { "name": "Traya Rice Trading", "category": "Economy", "type": "Construction", "address": "PM3C+GW Diaya salvacion, Buenavista, 5044 Guimaras", "contact_mobile": 9222408093, "contact_landline": null, "email": null, "barangay": "Supang", "district": null, "municity": "Buenavista", "province": "Guimaras", "facebook": null, "url": null, "entry fee": null, "open time": "07:15", "closing time": "17:01" }, "geometry": { "type": "Point", "coordinates": [ 122.67236, 10.70381 ] } },
{ "type": "Feature", "properties": { "name": "REC'S CONSTRUCTION SUPPLY", "category": "Economy", "type": "Construction", "address": "PM2F+VH8, Buenavista, Guimaras", "contact_mobile": 9064525228, "contact_landline": null, "email": null, "barangay": "Supang", "district": null, "municity": "Buenavista", "province": "Guimaras", "facebook": null, "url": null, "entry fee": null, "open time": "07:30", "closing time": "05:30" }, "geometry": { "type": "Point", "coordinates": [ 122.67383, 10.7027 ] } },
{ "type": "Feature", "properties": { "name": "John Luke Cocolumber@ Furniture Shop", "category": "Economy", "type": "Manufacturing", "address": "PM5G+3R Buenavista, 5044 Guimaras", "contact_mobile": null, "contact_landline": null, "email": null, "barangay": "Supang", "district": null, "municity": "Buenavista", "province": "Guimaras", "facebook": null, "url": null, "entry fee": null, "open time": "07:00", "closing time": "19:00" }, "geometry": { "type": "Point", "coordinates": [ 122.67701, 10.70775 ] } },
{ "type": "Feature", "properties": { "name": "Western Union - H Lhuillier Pawnshop - Buenavista", "category": "Economy", "type": "Finance", "address": "PJ2H+72Q, Barangay Santo Rosario (Beside Umali Pharmacy), Buenavista, 5044", "contact_mobile": null, "contact_landline": 335808422, "email": null, "barangay": "Zaldivar", "district": null, "municity": "Buenavista", "province": "Guimaras", "facebook": null, "url": "http://www.westernunion.com.ph/", "entry fee": null, "open time": null, "closing time": null }, "geometry": { "type": "Point", "coordinates": [ 122.62761, 10.70072 ] } },
{ "type": "Feature", "properties": { "name": "Diday Construction and Supply", "category": "Economy", "type": "Construction", "address": "PM29+XJW, Guimaras Circumferential Rd, Buenavista, Guimaras", "contact_mobile": 9217376482, "contact_landline": null, "email": null, "barangay": "McLain", "district": null, "municity": "Buenavista", "province": "Guimaras", "facebook": null, "url": null, "entry fee": null, "open time": "07:00", "closing time": "17:00" }, "geometry": { "type": "Point", "coordinates": [ 122.66906, 10.7025 ] } },
{ "type": "Feature", "properties": { "name": "Fibre X Engineering Services", "category": "Economy", "type": "Construction", "address": "PM3C+36W, Buenavista, Guimaras", "contact_mobile": null, "contact_landline": null, "email": null, "barangay": "McLain", "district": null, "municity": "Buenavista", "province": "Guimaras", "facebook": "https://www.facebook.com/profile.php?id=100064113367037", "url": null, "entry fee": null, "open time": null, "closing time": null }, "geometry": { "type": "Point", "coordinates": [ 122.67056, 10.70273 ] } },
{ "type": "Feature", "properties": { "name": "Western Union - Rural Bank of Buenavista", "category": "Economy", "type": "Finance", "address": "PM25+9V Mc Laine, Buenavista, 5044, Guimaras", "contact_mobile": null, "contact_landline": 335807664, "email": null, "barangay": "McLain", "district": null, "municity": "Buenavista", "province": "Guimaras", "facebook": "https://www.facebook.com/WesternUnion", "url": "http://www.westernunion.com.ph/", "entry fee": null, "open time": null, "closing time": null }, "geometry": { "type": "Point", "coordinates": [ 122.65969, 10.70098 ] } },
{ "type": "Feature", "properties": { "name": "PRODUCERS BANK", "category": "Economy", "type": "Finance", "address": "MJWX+PWJ, Buenavista, Guimaras", "contact_mobile": null, "contact_landline": null, "email": null, "barangay": "McLain", "district": null, "municity": "Buenavista", "province": "Guimaras", "facebook": null, "url": null, "entry fee": null, "open time": null, "closing time": null }, "geometry": { "type": "Point", "coordinates": [ 122.65066, 10.69756 ] } },
{ "type": "Feature", "properties": { "name": "Western Union - Rural Bank of Buenavista - San Miguel", "category": "Economy", "type": "Finance", "address": "MMX2+27 Barangay San Miguel, Jordan, 5045, Guimaras, 5045", "contact_mobile": null, "contact_landline": 335813215, "email": null, "barangay": "McLain", "district": null, "municity": "Buenavista", "province": "Guimaras", "facebook": "https://www.facebook.com/WesternUnion", "url": null, "entry fee": null, "open time": null, "closing time": null }, "geometry": { "type": "Point", "coordinates": [ 122.65064, 10.69754 ] } },
{ "type": "Feature", "properties": { "name": "Bayanihan Bank", "category": "Economy", "type": "Finance", "address": "Ona, Buenavista, Guimaras", "contact_mobile": null, "contact_landline": 423165337, "email": "hr@bayanihanbank.com", "barangay": "McLain", "district": null, "municity": "Buenavista", "province": "Guimaras", "facebook": "https://www.facebook.com/BayanihanBank", "url": "http://bayanihanbank.com/", "entry fee": null, "open time": null, "closing time": null }, "geometry": { "type": "Point", "coordinates": [ 122.65037, 10.69669 ] } },
{ "type": "Feature", "properties": { "name": "Buenavista Development Cooperative", "category": "Economy", "type": "Finance", "address": "MJWX+VWX, Mabini Road, Buenavista, 5044 Guimaras", "contact_mobile": null, "contact_landline": 335807717, "email": null, "barangay": "McLain", "district": null, "municity": "Buenavista", "province": "Guimaras", "facebook": "https://www.facebook.com/BDC.Cares", "url": null, "entry fee": null, "open time": "07:00", "closing time": "19:00" }, "geometry": { "type": "Point", "coordinates": [ 122.64985, 10.69723 ] } },
{ "type": "Feature", "properties": { "name": "MoneyGram", "category": "Economy", "type": "Finance", "address": "MMW6+GC New Poblacion Buenavista Guimaras, Buenavista, 5044", "contact_mobile": null, "contact_landline": 323489400, "email": "customerservice@moneygram.com", "barangay": "McLain", "district": null, "municity": "Buenavista", "province": "Guimaras", "facebook": "https://www.facebook.com/moneygram", "url": "http://global.moneygram.com/ph/tl", "entry fee": null, "open time": "07:00", "closing time": "18:00" }, "geometry": { "type": "Point", "coordinates": [ 122.66109, 10.69633 ] } },
{ "type": "Feature", "properties": { "name": "SMB Furniture and Lumber", "category": "Economy", "type": "Manufacturing", "address": "PM28+G5F, Buenavista, Guimaras", "contact_mobile": null, "contact_landline": null, "email": null, "barangay": "McLain", "district": null, "municity": "Buenavista", "province": "Guimaras", "facebook": null, "url": null, "entry fee": null, "open time": "09:00", "closing time": "16:00" }, "geometry": { "type": "Point", "coordinates": [ 122.6654, 10.70133 ] } },
{ "type": "Feature", "properties": { "name": "Rice Mill", "category": "Economy", "type": "Agriculture", "address": "PM4R+PV7, Guimaras Circumferential Rd, Buenavista, Guimaras", "contact_mobile": null, "contact_landline": null, "email": null, "barangay": "Cansilayan", "district": null, "municity": "Buenavista", "province": "Guimaras", "facebook": null, "url": null, "entry fee": null, "open time": null, "closing time": null }, "geometry": { "type": "Point", "coordinates": [ 122.69217, 10.70678 ] } },
{ "type": "Feature", "properties": { "name": "Dane Poultry Supply", "category": "Economy", "type": "Agriculture", "address": "MJWW+GCP, Buenavista, Guimaras", "contact_mobile": null, "contact_landline": null, "email": null, "barangay": "New Poblacion", "district": null, "municity": "Buenavista", "province": "Guimaras", "facebook": null, "url": null, "entry fee": null, "open time": null, "closing time": null }, "geometry": { "type": "Point", "coordinates": [ 122.64608, 10.69636 ] } },
{ "type": "Feature", "properties": { "name": "Tiny Poultry Supply: Rice, Feeds and Veterinary Supplies", "category": "Economy", "type": "Agriculture", "address": "MJWW+FPG, Buenavista, Guimaras", "contact_mobile": null, "contact_landline": null, "email": null, "barangay": "New Poblacion", "district": null, "municity": "Buenavista", "province": "Guimaras", "facebook": null, "url": null, "entry fee": null, "open time": "06:00", "closing time": "19:00" }, "geometry": { "type": "Point", "coordinates": [ 122.6468, 10.69619 ] } },
{ "type": "Feature", "properties": { "name": "LifeBank – A Rural Bank", "category": "Economy", "type": "Finance", "address": "MJWX+4H Purok 4 New Pob Buenavista, 5044 Guimaras", "contact_mobile": 9506695630, "contact_landline": null, "email": null, "barangay": "New Poblacion", "district": null, "municity": "Buenavista", "province": "Guimaras", "facebook": "https://www.facebook.com/profile.php?id=100063689607002", "url": "http://lifebankrb.com.ph/", "entry fee": null, "open time": null, "closing time": null }, "geometry": { "type": "Point", "coordinates": [ 122.64889, 10.69537 ] } },
{ "type": "Feature", "properties": { "name": "Natcco Network Guimaras Multi-Purpose Coop", "category": "Economy", "type": "Finance", "address": "MJWW+G3V, Guimaras Circumferential Rd, Buenavista, Guimaras", "contact_mobile": null, "contact_landline": null, "email": null, "barangay": "New Poblacion", "district": null, "municity": "Buenavista", "province": "Guimaras", "facebook": null, "url": null, "entry fee": null, "open time": null, "closing time": null }, "geometry": { "type": "Point", "coordinates": [ 122.64518, 10.69636 ] } },
{ "type": "Feature", "properties": { "name": "RAF MICROFINANCE", "category": "Economy", "type": "Finance", "address": "MJWX+H42, Guimaras Circumferential Rd, Buenavista, Guimaras", "contact_mobile": null, "contact_landline": null, "email": null, "barangay": "New Poblacion", "district": null, "municity": "Buenavista", "province": "Guimaras", "facebook": null, "url": null, "entry fee": null, "open time": null, "closing time": null }, "geometry": { "type": "Point", "coordinates": [ 122.64777, 10.69637 ] } },
{ "type": "Feature", "properties": { "name": "Palawan Pawnshop", "category": "Economy", "type": "Finance", "address": "MJWX+M7 National Highway, Barangay New Poblacion, Buenavista, 5044, Guimaras", "contact_mobile": 9176249355, "contact_landline": null, "email": null, "barangay": "New Poblacion", "district": null, "municity": "Buenavista", "province": "Guimaras", "facebook": null, "url": null, "entry fee": null, "open time": null, "closing time": null }, "geometry": { "type": "Point", "coordinates": [ 122.64818, 10.69673 ] } },
{ "type": "Feature", "properties": { "name": "Shem Solar", "category": "Economy", "type": "Utilities", "address": "MJVX+923, Unnamed Road, Buenavista, Guimaras", "contact_mobile": 9151742805, "contact_landline": null, "email": null, "barangay": "New Poblacion", "district": null, "municity": "Buenavista", "province": "Guimaras", "facebook": "https://www.facebook.com/profile.php?id=100063902239200", "url": null, "entry fee": null, "open time": null, "closing time": null }, "geometry": { "type": "Point", "coordinates": [ 122.64746, 10.69349 ] } },
{ "type": "Feature", "properties": { "name": "Total", "category": "Economy", "type": "Utilities", "address": "MJWW+J9C, Jordan Rpad, Buenavista, Guimaras", "contact_mobile": null, "contact_landline": null, "email": null, "barangay": "New Poblacion", "district": null, "municity": "Buenavista", "province": "Guimaras", "facebook": null, "url": null, "entry fee": null, "open time": null, "closing time": null }, "geometry": { "type": "Point", "coordinates": [ 122.64589, 10.69659 ] } },
{ "type": "Feature", "properties": { "name": "Braxim Print Concepts and Services", "category": "Economy", "type": "Media", "address": "MJXX+R97, Buenavista, Guimaras", "contact_mobile": null, "contact_landline": null, "email": "braximprintconcepts@gmail.com", "barangay": "New Poblacion", "district": null, "municity": "Buenavista", "province": "Guimaras", "facebook": "https://web.facebook.com/tumzdgreat", "url": null, "entry fee": null, "open time": "08:30", "closing time": "17:30" }, "geometry": { "type": "Point", "coordinates": [ 122.64794, 10.69925 ] } },
{ "type": "Feature", "properties": { "name": "Beanna's Photo copy & lamination", "category": "Economy", "type": "Media", "address": "MJXX+8G GSU at the back, Buenavista, 5044 Guimaras", "contact_mobile": 9655202241, "contact_landline": null, "email": null, "barangay": "New Poblacion", "district": null, "municity": "Buenavista", "province": "Guimaras", "facebook": "https://web.facebook.com/profile.php?id=61566456112865", "url": null, "entry fee": null, "open time": "07:00", "closing time": "21:00" }, "geometry": { "type": "Point", "coordinates": [ 122.64883, 10.69838 ] } },
{ "type": "Feature", "properties": { "name": "traya construction supply sand & gravel", "category": "Economy", "type": "Construction", "address": "MJVR+GM6 Sito diaya, Buenavista, 5044 Guimaras", "contact_mobile": null, "contact_landline": null, "email": null, "barangay": "Salvacion", "district": null, "municity": "Buenavista", "province": "Guimaras", "facebook": null, "url": null, "entry fee": null, "open time": null, "closing time": null }, "geometry": { "type": "Point", "coordinates": [ 122.64166, 10.69384 ] } },
{ "type": "Feature", "properties": { "name": "CELRYL CONST Supply", "category": "Economy", "type": "Construction", "address": "MJWQ+5W5, Guimaras Circumferential Rd, Buenavista, Guimaras", "contact_mobile": null, "contact_landline": null, "email": null, "barangay": "Salvacion", "district": null, "municity": "Buenavista", "province": "Guimaras", "facebook": null, "url": null, "entry fee": null, "open time": null, "closing time": null }, "geometry": { "type": "Point", "coordinates": [ 122.63986, 10.69541 ] } },
{ "type": "Feature", "properties": { "name": "GM Construction Supply", "category": "Economy", "type": "Construction", "address": "MJWV+9H8, Buenavista, Guimaras", "contact_mobile": null, "contact_landline": null, "email": null, "barangay": "Salvacion", "district": null, "municity": "Buenavista", "province": "Guimaras", "facebook": null, "url": null, "entry fee": null, "open time": null, "closing time": null }, "geometry": { "type": "Point", "coordinates": [ 122.64395, 10.69596 ] } },
{ "type": "Feature", "properties": { "name": "Pasaduma Builders Center Corp.", "category": "Economy", "type": "Construction", "address": "MJWR+8V Brgy, Buenavista, 5044 Guimaras", "contact_mobile": null, "contact_landline": null, "email": null, "barangay": "Salvacion", "district": null, "municity": "Buenavista", "province": "Guimaras", "facebook": null, "url": null, "entry fee": null, "open time": "07:30", "closing time": "17:00" }, "geometry": { "type": "Point", "coordinates": [ 122.64221, 10.69589 ] } },
{ "type": "Feature", "properties": { "name": "ALJ Construction and Supply", "category": "Economy", "type": "Construction", "address": "MJQM+M2R, Old Poblacion-Salvacion Rd, Buenavista, 5044 Guimaras", "contact_mobile": 9179565320, "contact_landline": null, "email": null, "barangay": "Salvacion", "district": null, "municity": "Buenavista", "province": "Guimaras", "facebook": null, "url": null, "entry fee": null, "open time": "08:00", "closing time": "17:00" }, "geometry": { "type": "Point", "coordinates": [ 122.63253, 10.68925 ] } },
{ "type": "Feature", "properties": { "name": "Roger & Meneng Rice & Poultry Supply", "category": "Economy", "type": "Agriculture", "address": "MJVR+R93, Buenavista-Jordan Rpad, Buenavista, Guimaras", "contact_mobile": null, "contact_landline": null, "email": null, "barangay": "Salvacion", "district": null, "municity": "Buenavista", "province": "Guimaras", "facebook": null, "url": null, "entry fee": null, "open time": null, "closing time": null }, "geometry": { "type": "Point", "coordinates": [ 122.64092, 10.69452 ] } },
{ "type": "Feature", "properties": { "name": "DERYL POULTRY SUPPLY", "category": "Economy", "type": "Agriculture", "address": "MJWQ+3R8, Guimaras Circumferential Rd, Buenavista, Guimaras", "contact_mobile": null, "contact_landline": null, "email": null, "barangay": "Salvacion", "district": null, "municity": "Buenavista", "province": "Guimaras", "facebook": null, "url": null, "entry fee": null, "open time": null, "closing time": null }, "geometry": { "type": "Point", "coordinates": [ 122.63959, 10.69515 ] } },
{ "type": "Feature", "properties": { "name": "Gambol Store & Poultry Supply", "category": "Economy", "type": "Agriculture", "address": "MJWV+FH5, Buenavista, Guimaras", "contact_mobile": 9081642855, "contact_landline": null, "email": null, "barangay": "Salvacion", "district": null, "municity": "Buenavista", "province": "Guimaras", "facebook": null, "url": null, "entry fee": null, "open time": "07:00", "closing time": "18:00" }, "geometry": { "type": "Point", "coordinates": [ 122.64397, 10.69617 ] } },
{ "type": "Feature", "properties": { "name": "TAMBUNTING PAWNSHOP", "category": "Economy", "type": "Finance", "address": "MJVP+VC Buenavista, Guimaras", "contact_mobile": null, "contact_landline": null, "email": null, "barangay": "Salvacion", "district": null, "municity": "Buenavista", "province": "Guimaras", "facebook": null, "url": null, "entry fee": null, "open time": null, "closing time": null }, "geometry": { "type": "Point", "coordinates": [ 122.63603, 10.69475 ] } },
{ "type": "Feature", "properties": { "name": "Prycegas", "category": "Economy", "type": "Utilities", "address": "MJVP+VH2, Guimaras Circumferential Rd, Buenavista, Guimaras", "contact_mobile": null, "contact_landline": 28994401, "email": "pgi.smd@prycegases.com", "barangay": "Salvacion", "district": null, "municity": "Buenavista", "province": "Guimaras", "facebook": "https://www.facebook.com/prycegasofficial", "url": "PRYCEGAS.COM", "entry fee": null, "open time": null, "closing time": null }, "geometry": { "type": "Point", "coordinates": [ 122.63639, 10.69466 ] } },
{ "type": "Feature", "properties": { "name": "Ruzz Gas Station Enterprise", "category": "Economy", "type": "Utilities", "address": "MJWV+FF8, Jordan Rpad, Buenavista, Guimaras", "contact_mobile": null, "contact_landline": null, "email": null, "barangay": "Salvacion", "district": null, "municity": "Buenavista", "province": "Guimaras", "facebook": null, "url": null, "entry fee": null, "open time": null, "closing time": null }, "geometry": { "type": "Point", "coordinates": [ 122.64369, 10.69617 ] } },
{ "type": "Feature", "properties": { "name": "YP Agri-Supply & Copra Buyer", "category": "Economy", "type": "Agriculture", "address": "MJWQ+5R Proper Zone, Buenavista, 5044 Guimaras", "contact_mobile": null, "contact_landline": null, "email": null, "barangay": "Salvacion", "district": null, "municity": "Buenavista", "province": "Guimaras", "facebook": null, "url": null, "entry fee": null, "open time": "07:00", "closing time": "17:30" }, "geometry": { "type": "Point", "coordinates": [ 122.63962, 10.69546 ] } },
{ "type": "Feature", "properties": { "name": "BARACA HARDWARE AND CONSTRUCTION SUPPLY", "category": "Economy", "type": "Construction", "address": "PM5P+4QX, Guimaras Circumferential Rd, Buenavista, Guimaras", "contact_mobile": null, "contact_landline": null, "email": "ltionado@gmail.com", "barangay": "Banban", "district": null, "municity": "Buenavista", "province": "Guimaras", "facebook": "https://web.facebook.com/p/Baraca-Hardware-and-Construction-Supplies-61552170782335/?_rdc=1&_rdr", "url": null, "entry fee": null, "open time": null, "closing time": null }, "geometry": { "type": "Point", "coordinates": [ 122.68699, 10.70786 ] } },
{ "type": "Feature", "properties": { "name": "Ablanida Hardware", "category": "Economy", "type": "Construction", "address": "MP38+H5 Buenavista, 5044 Guimaras", "contact_mobile": 9759239755, "contact_landline": null, "email": null, "barangay": "East Valencia", "district": null, "municity": "Buenavista", "province": "Guimaras", "facebook": null, "url": null, "entry fee": null, "open time": "06:30", "closing time": "17:00" }, "geometry": { "type": "Point", "coordinates": [ 122.71538, 10.65413 ] } },
{ "type": "Feature", "properties": { "name": "J&J bamboo craft", "category": "Economy", "type": "Manufacturing", "address": "MM4V+P6 East valencia, Sitio sinapsapan, Iloilo 5044 Guimaras PH, Buenavista", "contact_mobile": 9656652236, "contact_landline": null, "email": null, "barangay": "East Valencia", "district": null, "municity": "Buenavista", "province": "Guimaras", "facebook": "https://www.facebook.com/profile.php?id=100070475035494", "url": null, "entry fee": null, "open time": null, "closing time": null }, "geometry": { "type": "Point", "coordinates": [ 122.69309, 10.65687 ] } },
{ "type": "Feature", "properties": { "name": "RSTEEL GUIMARAS", "category": "Economy", "type": "Construction", "address": "HHVP+3J Islander Village, Purok 4, San Miguel, Guimaras", "contact_mobile": 9103651433, "contact_landline": null, "email": "rsteelcolorroofingcenter@gmail.com", "barangay": "San Miguel", "district": null, "municity": "Jordan", "province": "Guimaras", "facebook": "https://www.facebook.com/profile.php?id=100090160505045", "url": null, "entry fee": null, "open time": null, "closing time": null }, "geometry": { "type": "Point", "coordinates": [ 122.5866, 10.59282 ] } },
{ "type": "Feature", "properties": { "name": "TF Building Solutions Corp.", "category": "Economy", "type": "Construction", "address": "HHVQ+MXQ, Jordan, Guimaras", "contact_mobile": null, "contact_landline": null, "email": null, "barangay": "San Miguel", "district": null, "municity": "Jordan", "province": "Guimaras", "facebook": null, "url": null, "entry fee": null, "open time": null, "closing time": null }, "geometry": { "type": "Point", "coordinates": [ 122.58994, 10.59425 ] } },
{ "type": "Feature", "properties": { "name": "J.E.Tico Construction.Co.Inc.", "category": "Economy", "type": "Construction", "address": "HHPW+CM3, Guimaras Circumferential Rd, Jordan, Guimaras", "contact_mobile": null, "contact_landline": null, "email": null, "barangay": "San Miguel", "district": null, "municity": "Jordan", "province": "Guimaras", "facebook": null, "url": null, "entry fee": null, "open time": null, "closing time": null }, "geometry": { "type": "Point", "coordinates": [ 122.59658, 10.586 ] } },
{ "type": "Feature", "properties": { "name": "JAFC Construction and Supply", "category": "Economy", "type": "Construction", "address": "JH3Q+H8F, Guimaras Circumferential Rd, Jordan, Guimaras", "contact_mobile": null, "contact_landline": null, "email": "jafc.construction@gmail.com", "barangay": "San Miguel", "district": null, "municity": "Jordan", "province": "Guimaras", "facebook": "https://www.facebook.com/profile.php?id=100087053867984", "url": null, "entry fee": null, "open time": "07:00", "closing time": "17:00" }, "geometry": { "type": "Point", "coordinates": [ 122.58828, 10.60395 ] } },
{ "type": "Feature", "properties": { "name": "New Guimaras Traders", "category": "Economy", "type": "Construction", "address": "JH3Q+H8H, Guimaras Circumferential Rd, Jordan, 5045 Guimaras", "contact_mobile": null, "contact_landline": 335810289, "email": "newguimarashome@gmail.com", "barangay": "San Miguel", "district": null, "municity": "Jordan", "province": "Guimaras", "facebook": "https://www.facebook.com/profile.php?id=100040885227165", "url": null, "entry fee": null, "open time": "08:00", "closing time": "17:30" }, "geometry": { "type": "Point", "coordinates": [ 122.58837, 10.60395 ] } },
{ "type": "Feature", "properties": { "name": "Armada Hardware", "category": "Economy", "type": "Construction", "address": "JH3Q+978, Guimaras Circumferential Rd, Jordan, Guimaras", "contact_mobile": null, "contact_landline": null, "email": null, "barangay": "San Miguel", "district": null, "municity": "Jordan", "province": "Guimaras", "facebook": null, "url": null, "entry fee": null, "open time": "07:30", "closing time": "17:00" }, "geometry": { "type": "Point", "coordinates": [ 122.58822, 10.60342 ] } },
{ "type": "Feature", "properties": { "name": "Dollsons Builders", "category": "Economy", "type": "Construction", "address": "HHWQ+H5 Southern Trading, Guimaras Circumferential Rd, Jordan, Guimaras", "contact_mobile": null, "contact_landline": null, "email": null, "barangay": "San Miguel", "district": null, "municity": "Jordan", "province": "Guimaras", "facebook": null, "url": null, "entry fee": null, "open time": "07:30", "closing time": "17:00" }, "geometry": { "type": "Point", "coordinates": [ 122.58797, 10.59646 ] } },
{ "type": "Feature", "properties": { "name": "JNL Hardware & Construction Supply", "category": "Economy", "type": "Construction", "address": "HHRM+4WW, Jordan, Guimaras", "contact_mobile": 9514369468, "contact_landline": null, "email": "jnlhardware2020@gmail.com", "barangay": "San Miguel", "district": null, "municity": "Jordan", "province": "Guimaras", "facebook": "https://www.facebook.com/profile.php?id=100063880371512", "url": null, "entry fee": null, "open time": "07:30", "closing time": "17:00" }, "geometry": { "type": "Point", "coordinates": [ 122.58485, 10.59038 ] } },
{ "type": "Feature", "properties": { "name": "Davis Rice Mill", "category": "Economy", "type": "Agriculture", "address": "HHVQ+GRW, Jordan, Guimaras", "contact_mobile": null, "contact_landline": null, "email": null, "barangay": "San Miguel", "district": null, "municity": "Jordan", "province": "Guimaras", "facebook": null, "url": null, "entry fee": null, "open time": null, "closing time": null }, "geometry": { "type": "Point", "coordinates": [ 122.58966, 10.59393 ] } },
{ "type": "Feature", "properties": { "name": "rnj agri poultry supply", "category": "Economy", "type": "Agriculture", "address": "JH4P+36 balading GUIMARAS - JORDAN (CAPITAL GUIMARAS - JORDAN (CAPITAL, 5045 Guimaras", "contact_mobile": 9054928072, "contact_landline": null, "email": null, "barangay": "San Miguel", "district": null, "municity": "Jordan", "province": "Guimaras", "facebook": null, "url": null, "entry fee": null, "open time": "05:30", "closing time": "18:30" }, "geometry": { "type": "Point", "coordinates": [ 122.58553, 10.60524 ] } },
{ "type": "Feature", "properties": { "name": "Randys Poultry Supply New Site San Miguel,", "category": "Economy", "type": "Agriculture", "address": "JH3Q+H8 new site, Jordan, Guimaras", "contact_mobile": null, "contact_landline": null, "email": null, "barangay": "San Miguel", "district": null, "municity": "Jordan", "province": "Guimaras", "facebook": null, "url": null, "entry fee": null, "open time": "06:00", "closing time": "19:00" }, "geometry": { "type": "Point", "coordinates": [ 122.58828, 10.60399 ] } },
{ "type": "Feature", "properties": { "name": "Emmanuel Rice,Hog & Poultry Supply", "category": "Economy", "type": "Agriculture", "address": "JH3Q+F7Q, Guimaras Circumferential Rd, Jordan, Guimaras", "contact_mobile": null, "contact_landline": null, "email": null, "barangay": "San Miguel", "district": null, "municity": "Jordan", "province": "Guimaras", "facebook": null, "url": null, "entry fee": null, "open time": null, "closing time": null }, "geometry": { "type": "Point", "coordinates": [ 122.58824, 10.60373 ] } },
{ "type": "Feature", "properties": { "name": "Roger and Neneng Poultry Supply ( B-Meg)", "category": "Economy", "type": "Agriculture", "address": "JH3Q+97X, Jordan, Guimaras", "contact_mobile": null, "contact_landline": null, "email": null, "barangay": "San Miguel", "district": null, "municity": "Jordan", "province": "Guimaras", "facebook": null, "url": null, "entry fee": null, "open time": null, "closing time": null }, "geometry": { "type": "Point", "coordinates": [ 122.58825, 10.60341 ] } },
{ "type": "Feature", "properties": { "name": "BOHMART POULTRY SUPPLY", "category": "Economy", "type": "Agriculture", "address": "HHVQ+GXV, Guimaras Circumferential Rd, Jordan, Guimaras", "contact_mobile": null, "contact_landline": null, "email": null, "barangay": "San Miguel", "district": null, "municity": "Jordan", "province": "Guimaras", "facebook": null, "url": null, "entry fee": null, "open time": null, "closing time": null }, "geometry": { "type": "Point", "coordinates": [ 122.58993, 10.59387 ] } },
{ "type": "Feature", "properties": { "name": "Marcel Store / CAGAYAN AGRI TRADING CORP.", "category": "Economy", "type": "Agriculture", "address": "JH3Q+C7 Guimaras Circumferential Rd, Jordan, Guimaras", "contact_mobile": 9088119891, "contact_landline": null, "email": null, "barangay": "San Miguel", "district": null, "municity": "Jordan", "province": "Guimaras", "facebook": null, "url": null, "entry fee": null, "open time": "06:00", "closing time": "19:00" }, "geometry": { "type": "Point", "coordinates": [ 122.58824, 10.60356 ] } },
{ "type": "Feature", "properties": { "name": "Joy Reyes Feeds & Agricultural Supply", "category": "Economy", "type": "Agriculture", "address": "HHVP+XVJ, Jordan, Guimaras", "contact_mobile": null, "contact_landline": null, "email": null, "barangay": "San Miguel", "district": null, "municity": "Jordan", "province": "Guimaras", "facebook": null, "url": null, "entry fee": null, "open time": "07:00", "closing time": "18:00" }, "geometry": { "type": "Point", "coordinates": [ 122.58712, 10.59498 ] } },
{ "type": "Feature", "properties": { "name": "CARD Bank Inc. Jordan Branch", "category": "Economy", "type": "Finance", "address": "JH3Q+R8W, Jordan, Guimaras", "contact_mobile": null, "contact_landline": 495034156, "email": "cardbankcsr@cardmri.com", "barangay": "San Miguel", "district": null, "municity": "Jordan", "province": "Guimaras", "facebook": "https://www.facebook.com/CARDBankOfficial", "url": "cardmri.com", "entry fee": null, "open time": null, "closing time": null }, "geometry": { "type": "Point", "coordinates": [ 122.58833, 10.60462 ] } },
{ "type": "Feature", "properties": { "name": "Cooperative Bank", "category": "Economy", "type": "Finance", "address": "JH3Q+C9R, Guimaras Circumferential Rd, Jordan, Guimaras", "contact_mobile": null, "contact_landline": null, "email": null, "barangay": "San Miguel", "district": null, "municity": "Jordan", "province": "Guimaras", "facebook": null, "url": null, "entry fee": null, "open time": null, "closing time": null }, "geometry": { "type": "Point", "coordinates": [ 122.58838, 10.60362 ] } },
{ "type": "Feature", "properties": { "name": "BanKo", "category": "Economy", "type": "Finance", "address": "JH3Q+37V, Guimaras Circumferential Rd, Jordan, Guimaras", "contact_mobile": null, "contact_landline": null, "email": null, "barangay": "San Miguel", "district": null, "municity": "Jordan", "province": "Guimaras", "facebook": null, "url": null, "entry fee": null, "open time": null, "closing time": null }, "geometry": { "type": "Point", "coordinates": [ 122.58818, 10.60276 ] } },
{ "type": "Feature", "properties": { "name": "BDO Network Bank - Jordan, Guimaras", "category": "Economy", "type": "Finance", "address": "JH2Q+Q46, Jordan, 5025 Guimaras", "contact_mobile": null, "contact_landline": 335812990, "email": "customerservice@bdonetworkbank.com.ph", "barangay": "San Miguel", "district": null, "municity": "Jordan", "province": "Guimaras", "facebook": "https://www.facebook.com/BDONetworkBankPH", "url": "bdo.com.ph/bdonetworkbank", "entry fee": null, "open time": "08:30", "closing time": "16:00" }, "geometry": { "type": "Point", "coordinates": [ 122.58777, 10.60193 ] } },
{ "type": "Feature", "properties": { "name": "FIRST IMPERIAL BUSINESS BANK", "category": "Economy", "type": "Finance", "address": "JH2Q+P69, Guimaras Circumferential Rd, Jordan, Guimaras", "contact_mobile": 9176530046, "contact_landline": null, "email": "fibbmktg@imperialbank.net", "barangay": "San Miguel", "district": null, "municity": "Jordan", "province": "Guimaras", "facebook": "https://www.facebook.com/FirstImperialBB", "url": null, "entry fee": null, "open time": null, "closing time": null }, "geometry": { "type": "Point", "coordinates": [ 122.58813, 10.6018 ] } },
{ "type": "Feature", "properties": { "name": "Landbank", "category": "Economy", "type": "Finance", "address": "JH2Q+28J, Jordan, Guimaras", "contact_mobile": null, "contact_landline": 332371419, "email": "customercare@landbank.com", "barangay": "San Miguel", "district": null, "municity": "Jordan", "province": "Guimaras", "facebook": "https://www.facebook.com/landbankofficial", "url": "https://www.landbank.com/", "entry fee": null, "open time": null, "closing time": null }, "geometry": { "type": "Point", "coordinates": [ 122.58828, 10.60011 ] } },
{ "type": "Feature", "properties": { "name": "CitySavings - Guimaras Outlet", "category": "Economy", "type": "Finance", "address": "HHXQ+H4C, Jordan, Guimaras", "contact_mobile": null, "contact_landline": 335812994, "email": "simpleisgood@citysavings.com.ph", "barangay": "San Miguel", "district": null, "municity": "Jordan", "province": "Guimaras", "facebook": "https://www.facebook.com/citysavingsbankofficial", "url": null, "entry fee": null, "open time": "09:00", "closing time": "17:00" }, "geometry": { "type": "Point", "coordinates": [ 122.58774, 10.59895 ] } },
{ "type": "Feature", "properties": { "name": "LifeBank – A Rural Bank", "category": "Economy", "type": "Finance", "address": "Capitol View, Jordan, 5045 Guimaras", "contact_mobile": null, "contact_landline": 335812249, "email": null, "barangay": "San Miguel", "district": null, "municity": "Jordan", "province": "Guimaras", "facebook": "https://www.facebook.com/profile.php?id=100063689607002", "url": "http://lifebankrb.com.ph/", "entry fee": null, "open time": null, "closing time": null }, "geometry": { "type": "Point", "coordinates": [ 122.58778, 10.596 ] } },
{ "type": "Feature", "properties": { "name": "Palawan Pawnshop", "category": "Economy", "type": "Finance", "address": "JH3Q+G8V, Guimaras Circumferential Rd, Jordan, Guimaras", "contact_mobile": 9173013868, "contact_landline": null, "email": "customercare@palawanpawnshop.com", "barangay": "San Miguel", "district": null, "municity": "Jordan", "province": "Guimaras", "facebook": "https://www.facebook.com/palawan.pawnshop", "url": "palawanpawnshop.com", "entry fee": null, "open time": null, "closing time": null }, "geometry": { "type": "Point", "coordinates": [ 122.5883, 10.60386 ] } },
{ "type": "Feature", "properties": { "name": "Cebuana Lhuillier Pawnshop - Guimaras", "category": "Economy", "type": "Finance", "address": "HHXQ+JJ Saldo-Bass Building, San Miguel Street, San Miguel, Jordan, 5045", "contact_mobile": null, "contact_landline": 335812001, "email": "cebuanacares@pjlhuillier.com", "barangay": "San Miguel", "district": null, "municity": "Jordan", "province": "Guimaras", "facebook": "https://www.facebook.com/cebuanalhuillierpawnshop", "url": "https://www.cebuanalhuillier.com/", "entry fee": null, "open time": "08:00", "closing time": "18:00" }, "geometry": { "type": "Point", "coordinates": [ 122.58907, 10.59909 ] } },
{ "type": "Feature", "properties": { "name": "RD PAWNSHOP, INCORPORATED - GUIMARAS BRANCH", "category": "Economy", "type": "Finance", "address": "HHWQ+C63, Jordan, Guimaras", "contact_mobile": null, "contact_landline": null, "email": "marketing@rdpawnshop.com.ph", "barangay": "San Miguel", "district": null, "municity": "Jordan", "province": "Guimaras", "facebook": "https://www.facebook.com/rdpawnshopincorporated", "url": "rdpawnshop.com.ph", "entry fee": null, "open time": null, "closing time": null }, "geometry": { "type": "Point", "coordinates": [ 122.58806, 10.59602 ] } },
{ "type": "Feature", "properties": { "name": "Western Union", "category": "Economy", "type": "Finance", "address": "JH3Q+99 Near Guimaras Public Market, National Highway, Buenavista, 5421 Guimaras", "contact_mobile": null, "contact_landline": 288129209, "email": null, "barangay": "San Miguel", "district": null, "municity": "Jordan", "province": "Guimaras", "facebook": "https://www.facebook.com/WesternUnion", "url": "http://www.westernunion.com.ph/", "entry fee": null, "open time": null, "closing time": null }, "geometry": { "type": "Point", "coordinates": [ 122.58841, 10.6034 ] } },
{ "type": "Feature", "properties": { "name": "Western Union", "category": "Economy", "type": "Finance", "address": "HHWQ+J2Q, Alibhon Commercial Building, Guimaras Circumferential Road, Barangay Poblacion, Guimaras, 5045", "contact_mobile": null, "contact_landline": 234493613, "email": null, "barangay": "San Miguel", "district": null, "municity": "Jordan", "province": "Guimaras", "facebook": "https://www.facebook.com/WesternUnion", "url": "http://www.westernunion.com.ph/", "entry fee": null, "open time": null, "closing time": null }, "geometry": { "type": "Point", "coordinates": [ 122.58766, 10.5966 ] } },
{ "type": "Feature", "properties": { "name": "Sunrise Remittance", "category": "Economy", "type": "Finance", "address": "HHWQ+G25, Cebuana Lhuillier, San Miguel, Jordan, Jordan, Guimaras", "contact_mobile": null, "contact_landline": 335813360, "email": "sunriseremittanceofficial@gmail.com", "barangay": "San Miguel", "district": null, "municity": "Jordan", "province": "Guimaras", "facebook": "https://www.facebook.com/sunriseremittance", "url": "sunriseremit.com", "entry fee": null, "open time": null, "closing time": null }, "geometry": { "type": "Point", "coordinates": [ 122.58764, 10.59628 ] } },
{ "type": "Feature", "properties": { "name": "Western Union - Rural Bank of San Enrique", "category": "Economy", "type": "Finance", "address": "HHRM+9G Barangay San Miguel, Jordan, 5045, Guimaras, 5045", "contact_mobile": null, "contact_landline": 335813154, "email": null, "barangay": "San Miguel", "district": null, "municity": "Jordan", "province": "Guimaras", "facebook": "https://www.facebook.com/WesternUnion", "url": "http://www.westernunion.com.ph/", "entry fee": null, "open time": null, "closing time": null }, "geometry": { "type": "Point", "coordinates": [ 122.58382, 10.5909 ] } },
{ "type": "Feature", "properties": { "name": "Guimarasnon Broadcasting Service", "category": "Economy", "type": "Media", "address": "JH2Q+JG2, Jordan, Guimaras", "contact_mobile": 9399799956, "contact_landline": null, "email": "guimarasnonbroadcastingservice@gmail.com", "barangay": "San Miguel", "district": null, "municity": "Jordan", "province": "Guimaras", "facebook": "https://www.facebook.com/GuimarasnonBroadcastingService", "url": null, "entry fee": null, "open time": "06:00", "closing time": "17:30" }, "geometry": { "type": "Point", "coordinates": [ 122.59091, 10.5931 ] } },
{ "type": "Feature", "properties": { "name": "Guimaras Electric Cooperative", "category": "Economy", "type": "Utilities", "address": "HHQM+65 GUIMELCO Main Office, San Miguel, Jordan, 5045 Guimaras", "contact_mobile": null, "contact_landline": 333398398, "email": "guimelco_79@yahoo.com.ph", "barangay": "San Miguel", "district": null, "municity": "Jordan", "province": "Guimaras", "facebook": "https://www.facebook.com/guimelco", "url": "http://www.guimelco.com/", "entry fee": null, "open time": "08:00", "closing time": "17:00" }, "geometry": { "type": "Point", "coordinates": [ 122.58293, 10.58805 ] } },
{ "type": "Feature", "properties": { "name": "Helios Solar Energy PH", "category": "Economy", "type": "Utilities", "address": "HHRV+QJM, Jordan, Guimaras", "contact_mobile": 9922434159, "contact_landline": null, "email": "james.heliossolar@gmail.com", "barangay": "San Miguel", "district": null, "municity": "Jordan", "province": "Guimaras", "facebook": "https://www.facebook.com/profile.php?id=100087116191834", "url": null, "entry fee": null, "open time": "08:00", "closing time": "05:00" }, "geometry": { "type": "Point", "coordinates": [ 122.59339, 10.59161 ] } },
{ "type": "Feature", "properties": { "name": "Magic Gas Station", "category": "Economy", "type": "Utilities", "address": "HHVR+475, Guimaras Circumferential Rd, Jordan, Guimaras", "contact_mobile": null, "contact_landline": null, "email": null, "barangay": "San Miguel", "district": null, "municity": "Jordan", "province": "Guimaras", "facebook": null, "url": null, "entry fee": null, "open time": null, "closing time": null }, "geometry": { "type": "Point", "coordinates": [ 122.59075, 10.5928 ] } },
{ "type": "Feature", "properties": { "name": "A Fuel Gas Station", "category": "Economy", "type": "Utilities", "address": "HHVQ+MXQ, Jordan, Guimaras", "contact_mobile": null, "contact_landline": null, "email": null, "barangay": "San Miguel", "district": null, "municity": "Jordan", "province": "Guimaras", "facebook": null, "url": null, "entry fee": null, "open time": null, "closing time": null }, "geometry": { "type": "Point", "coordinates": [ 122.58995, 10.59425 ] } },
{ "type": "Feature", "properties": { "name": "AJM Gas Distribution Services (Phoenix Super LPG)", "category": "Economy", "type": "Utilities", "address": "JH2P+7V Caram Estate, Jordan, 5045 Guimaras", "contact_mobile": 9659057444, "contact_landline": null, "email": null, "barangay": "San Miguel", "district": null, "municity": "Jordan", "province": "Guimaras", "facebook": null, "url": null, "entry fee": null, "open time": "08:00", "closing time": "17:00" }, "geometry": { "type": "Point", "coordinates": [ 122.5872, 10.60091 ] } },
{ "type": "Feature", "properties": { "name": "T Drops Water Refilling Station", "category": "Economy", "type": "Utilities", "address": "HHRR+M5X, Jordan, Guimaras", "contact_mobile": null, "contact_landline": null, "email": null, "barangay": "San Miguel", "district": null, "municity": "Jordan", "province": "Guimaras", "facebook": null, "url": null, "entry fee": null, "open time": null, "closing time": null }, "geometry": { "type": "Point", "coordinates": [ 122.59051, 10.59176 ] } },
{ "type": "Feature", "properties": { "name": "Custodio Water Refilling Station", "category": "Economy", "type": "Utilities", "address": "HHXR+CCQ, Jordan, Guimaras", "contact_mobile": null, "contact_landline": null, "email": null, "barangay": "San Miguel", "district": null, "municity": "Jordan", "province": "Guimaras", "facebook": null, "url": null, "entry fee": null, "open time": null, "closing time": null }, "geometry": { "type": "Point", "coordinates": [ 122.59111, 10.59861 ] } },
{ "type": "Feature", "properties": { "name": "White Angel Water Refilling Station", "category": "Economy", "type": "Utilities", "address": "HHWM+FGG, Jordan, Guimaras", "contact_mobile": null, "contact_landline": null, "email": null, "barangay": "San Miguel", "district": null, "municity": "Jordan", "province": "Guimaras", "facebook": null, "url": null, "entry fee": null, "open time": null, "closing time": null }, "geometry": { "type": "Point", "coordinates": [ 122.58384, 10.59618 ] } },
{ "type": "Feature", "properties": { "name": "Aqua Drix Water Refilling Station", "category": "Economy", "type": "Utilities", "address": "HHVQ+Q3M, Jordan, Guimaras", "contact_mobile": null, "contact_landline": null, "email": null, "barangay": "San Miguel", "district": null, "municity": "Jordan", "province": "Guimaras", "facebook": null, "url": null, "entry fee": null, "open time": null, "closing time": null }, "geometry": { "type": "Point", "coordinates": [ 122.5877, 10.59453 ] } },
{ "type": "Feature", "properties": { "name": "Aqua Jade Water Refilling Station", "category": "Economy", "type": "Utilities", "address": "HHQR+W9X, Villa Ercelia, San Miguel, Jordan, Guimaras", "contact_mobile": 9079937966, "contact_landline": null, "email": null, "barangay": "San Miguel", "district": null, "municity": "Jordan", "province": "Guimaras", "facebook": "https://www.facebook.com/profile.php?id=100093967492014", "url": null, "entry fee": null, "open time": null, "closing time": null }, "geometry": { "type": "Point", "coordinates": [ 122.59099, 10.58987 ] } },
{ "type": "Feature", "properties": { "name": "Sweets Water Refill Station", "category": "Economy", "type": "Utilities", "address": "JH2Q+57 San Miguel Central School, Guimaras Circumferential Rd, Jordan, Guimaras", "contact_mobile": null, "contact_landline": null, "email": null, "barangay": "San Miguel", "district": null, "municity": "Jordan", "province": "Guimaras", "facebook": null, "url": null, "entry fee": null, "open time": null, "closing time": null }, "geometry": { "type": "Point", "coordinates": [ 122.58823, 10.60044 ] } },
{ "type": "Feature", "properties": { "name": "Radyo Pilipinas 585 AM Iloilo Transmitter", "category": "Economy", "type": "Media", "address": "HHXJ+9X Jordan, Guimaras", "contact_mobile": null, "contact_landline": null, "email": null, "barangay": "San Miguel", "district": null, "municity": "Jordan", "province": "Guimaras", "facebook": null, "url": "http://www.radyopilipinas.ph/", "entry fee": null, "open time": "06:00", "closing time": "19:00" }, "geometry": { "type": "Point", "coordinates": [ 122.58246, 10.5985 ] } },
{ "type": "Feature", "properties": { "name": "DG Prints Guimaras", "category": "Economy", "type": "Media", "address": "HHWM+QPR, Jordan, Guimaras", "contact_mobile": 9687344705, "contact_landline": null, "email": "dgprintsguimaras@gmail.com", "barangay": "San Miguel", "district": null, "municity": "Jordan", "province": "Guimaras", "facebook": "https://web.facebook.com/dgprintsguimaras/?_rdc=1&_rdr", "url": null, "entry fee": null, "open time": null, "closing time": null }, "geometry": { "type": "Point", "coordinates": [ 122.58422, 10.59697 ] } },
{ "type": "Feature", "properties": { "name": "Neon Chameleon online films", "category": "Economy", "type": "Media", "address": "HHRP+G4 Guimaras Circumferential Rd, Jordan, Guimaras", "contact_mobile": 9212211567, "contact_landline": null, "email": null, "barangay": "San Miguel", "district": null, "municity": "Jordan", "province": "Guimaras", "facebook": "https://web.facebook.com/neonchameleonfilms/?_rdc=1&_rdr", "url": null, "entry fee": null, "open time": null, "closing time": null }, "geometry": { "type": "Point", "coordinates": [ 122.58527, 10.59128 ] } },
{ "type": "Feature", "properties": { "name": "Joy E. Reyes - Agricultural & Poultry Supply", "category": "Economy", "type": "Agriculture", "address": "JH3Q+G2V, Jordan, Guimaras", "contact_mobile": null, "contact_landline": null, "email": null, "barangay": "San Miguel", "district": null, "municity": "Jordan", "province": "Guimaras", "facebook": null, "url": null, "entry fee": null, "open time": null, "closing time": null }, "geometry": { "type": "Point", "coordinates": [ 122.58755, 10.60388 ] } },
{ "type": "Feature", "properties": { "name": "CANTUA Agricultural Supply", "category": "Economy", "type": "Agriculture", "address": "HHVQ+WQX, Guimaras Circumferential Rd, Jordan, Guimaras", "contact_mobile": null, "contact_landline": null, "email": null, "barangay": "San Miguel", "district": null, "municity": "Jordan", "province": "Guimaras", "facebook": null, "url": null, "entry fee": null, "open time": null, "closing time": null }, "geometry": { "type": "Point", "coordinates": [ 122.5895, 10.59489 ] } },
{ "type": "Feature", "properties": { "name": "Nelzhon's Hollowblocks Trading", "category": "Economy", "type": "Construction", "address": "HHVG+2P Jordan, 5044 Guimaras", "contact_mobile": 9124048845, "contact_landline": null, "email": null, "barangay": "Santa Teresa", "district": null, "municity": "Jordan", "province": "Guimaras", "facebook": null, "url": null, "entry fee": null, "open time": null, "closing time": null }, "geometry": { "type": "Point", "coordinates": [ 122.5769, 10.59253 ] } },
{ "type": "Feature", "properties": { "name": "Gamarcha Rice Mill", "category": "Economy", "type": "Agriculture", "address": "HHW3+3M5, Santa Teresa, Jordan, Guimaras", "contact_mobile": null, "contact_landline": null, "email": null, "barangay": "Santa Teresa", "district": null, "municity": "Jordan", "province": "Guimaras", "facebook": "https://www.facebook.com/errol.gamarcha.7", "url": null, "entry fee": null, "open time": null, "closing time": null }, "geometry": { "type": "Point", "coordinates": [ 122.55425, 10.59515 ] } },
{ "type": "Feature", "properties": { "name": "Western Union", "category": "Economy", "type": "Finance", "address": "HHVG+2P New Site, Jftm, Jordan, 5045 Guimaras", "contact_mobile": null, "contact_landline": 332371439, "email": null, "barangay": "Santa Teresa", "district": null, "municity": "Jordan", "province": "Guimaras", "facebook": "https://www.facebook.com/WesternUnion", "url": null, "entry fee": null, "open time": "08:00", "closing time": "17:00" }, "geometry": { "type": "Point", "coordinates": [ 122.57687, 10.59258 ] } },
{ "type": "Feature", "properties": { "name": "Guimaras Fruits Processing Plant (GFPP)", "category": "Economy", "type": "Manufacturing", "address": "HHV8+6V St. Teresa, Jordan, 5045 Guimaras", "contact_mobile": 9399339341, "contact_landline": null, "email": null, "barangay": "Santa Teresa", "district": null, "municity": "Jordan", "province": "Guimaras", "facebook": null, "url": null, "entry fee": null, "open time": null, "closing time": null }, "geometry": { "type": "Point", "coordinates": [ 122.56714, 10.59312 ] } },
{ "type": "Feature", "properties": { "name": "GJR Hardware & Construction Supply", "category": "Economy", "type": "Construction", "address": "HJVG+P5M, San Lorenzo, Guimaras", "contact_mobile": null, "contact_landline": null, "email": null, "barangay": "Bugnay", "district": null, "municity": "Jordan", "province": "Guimaras", "facebook": null, "url": null, "entry fee": null, "open time": null, "closing time": null }, "geometry": { "type": "Point", "coordinates": [ 122.62541, 10.59435 ] } },
{ "type": "Feature", "properties": { "name": "Palhi Water Refilling Station", "category": "Economy", "type": "Utilities", "address": "JH95+C9P, Jordan, Guimaras", "contact_mobile": null, "contact_landline": null, "email": null, "barangay": "Morobuan", "district": null, "municity": "Jordan", "province": "Guimaras", "facebook": null, "url": null, "entry fee": null, "open time": null, "closing time": null }, "geometry": { "type": "Point", "coordinates": [ 122.55846, 10.6186 ] } },
{ "type": "Feature", "properties": { "name": "South Trade Builders Center", "category": "Economy", "type": "Construction", "address": "JH4Q+59X, Jordan, Guimaras", "contact_mobile": null, "contact_landline": null, "email": null, "barangay": "Alaguisoc", "district": null, "municity": "Jordan", "province": "Guimaras", "facebook": null, "url": null, "entry fee": null, "open time": "07:30", "closing time": "17:00" }, "geometry": { "type": "Point", "coordinates": [ 122.58845, 10.6055 ] } },
{ "type": "Feature", "properties": { "name": "Mark Jeron Hardware", "category": "Economy", "type": "Construction", "address": "JJ83+JX Purok2, Jordan, 5045 Guimaras", "contact_mobile": null, "contact_landline": null, "email": "Markjeron@gmail.com", "barangay": "Alaguisoc", "district": null, "municity": "Jordan", "province": "Guimaras", "facebook": "https://www.facebook.com/profile.php?id=100092737089605", "url": null, "entry fee": null, "open time": "05:00", "closing time": "21:00" }, "geometry": { "type": "Point", "coordinates": [ 122.60494, 10.61659 ] } },
{ "type": "Feature", "properties": { "name": "ILOILO ASIAN LUMBER & HARDWARE INC", "category": "Economy", "type": "Construction", "address": "JHMQ+4Q2, Guimaras Circumferential Rd, Jordan, Guimaras", "contact_mobile": null, "contact_landline": 333372970, "email": "iloiloasianlumber@gmail.com", "barangay": "Alaguisoc", "district": null, "municity": "Jordan", "province": "Guimaras", "facebook": "https://www.facebook.com/iloiloasianlumber", "url": null, "entry fee": null, "open time": null, "closing time": null }, "geometry": { "type": "Point", "coordinates": [ 122.58934, 10.63276 ] } },
{ "type": "Feature", "properties": { "name": "Hog Cocker's Trading", "category": "Economy", "type": "Agriculture", "address": "JH4Q+28 Guimaras Circumferential Rd, Jordan, Guimaras", "contact_mobile": null, "contact_landline": null, "email": null, "barangay": "Alaguisoc", "district": null, "municity": "Jordan", "province": "Guimaras", "facebook": null, "url": null, "entry fee": null, "open time": "06:00", "closing time": "18:00" }, "geometry": { "type": "Point", "coordinates": [ 122.58835, 10.60503 ] } },
{ "type": "Feature", "properties": { "name": "Purple Game Farm", "category": "Economy", "type": "Agriculture", "address": "JHGC+9R Jordan, Guimaras", "contact_mobile": 9124770115, "contact_landline": null, "email": null, "barangay": "Balcon Maravilla", "district": null, "municity": "Jordan", "province": "Guimaras", "facebook": null, "url": null, "entry fee": null, "open time": "07:00", "closing time": "19:00" }, "geometry": { "type": "Point", "coordinates": [ 122.5721, 10.62598 ] } },
{ "type": "Feature", "properties": { "name": "91.1 True FM Guimaras Transmitter", "category": "Economy", "type": "Media", "address": "JJV9+Q8X, Piña - Tamborong-Alaguisoc Road., Jordan, Lalawigan ng Guimaras", "contact_mobile": null, "contact_landline": null, "email": null, "barangay": "Tamborong", "district": null, "municity": "Jordan", "province": "Guimaras", "facebook": null, "url": "http://www.tv5.com.ph/", "entry fee": null, "open time": "04:00", "closing time": "00:00" }, "geometry": { "type": "Point", "coordinates": [ 122.61834, 10.64443 ] } },
{ "type": "Feature", "properties": { "name": "Barangay FM 93.5 Guimaras Transmitter", "category": "Economy", "type": "Media", "address": "JJV9+9G6, Piña - Tamborong-Alaguisoc Road., Jordan, Lalawigan ng Guimaras", "contact_mobile": null, "contact_landline": null, "email": null, "barangay": "Tamborong", "district": null, "municity": "Jordan", "province": "Guimaras", "facebook": null, "url": "http://www.gmanetwork.com/radio", "entry fee": null, "open time": "04:00", "closing time": "00:00" }, "geometry": { "type": "Point", "coordinates": [ 122.61878, 10.64342 ] } },
{ "type": "Feature", "properties": { "name": "Espinosa Rice Mill", "category": "Economy", "type": "Agriculture", "address": "MH3Q+CFW, Jordan, Guimaras", "contact_mobile": null, "contact_landline": null, "email": null, "barangay": "Poblacion", "district": null, "municity": "Jordan", "province": "Guimaras", "facebook": null, "url": null, "entry fee": null, "open time": null, "closing time": null }, "geometry": { "type": "Point", "coordinates": [ 122.58873, 10.65358 ] } },
{ "type": "Feature", "properties": { "name": "GSV hardware and construction supply", "category": "Economy", "type": "Construction", "address": "JHRM+MR Brgy Proper, Jordan, Guimaras", "contact_mobile": 9056177588, "contact_landline": null, "email": null, "barangay": "Balcon Melliza", "district": null, "municity": "Jordan", "province": "Guimaras", "facebook": null, "url": null, "entry fee": null, "open time": "08:00", "closing time": "05:30" }, "geometry": { "type": "Point", "coordinates": [ 122.58451, 10.64165 ] } },
{ "type": "Feature", "properties": { "name": "JNL Hardware - Daragan Branch", "category": "Economy", "type": "Construction", "address": "MJ3F+F47 Tamborong, San Lorenzo, Guimaras", "contact_mobile": 9203808308, "contact_landline": null, "email": "jnlhardware2020@gmail.com", "barangay": "Daragan", "district": null, "municity": "Jordan", "province": "Guimaras", "facebook": "https://www.facebook.com/profile.php?id=100088488085663", "url": null, "entry fee": null, "open time": "07:30", "closing time": "17:00" }, "geometry": { "type": "Point", "coordinates": [ 122.62282, 10.65367 ] } },
{ "type": "Feature", "properties": { "name": "Palawan Pawnshop", "category": "Economy", "type": "Finance", "address": "MH8Q+QRV, Jordan, 5045 Guimaras", "contact_mobile": 9173013868, "contact_landline": null, "email": "customercare@palawanpawnshop.com", "barangay": "Rizal", "district": null, "municity": "Jordan", "province": "Guimaras", "facebook": "https://www.facebook.com/palawan.pawnshop", "url": "palawanpawnshop.com", "entry fee": null, "open time": "08:00", "closing time": "17:30" }, "geometry": { "type": "Point", "coordinates": [ 122.58954, 10.667 ] } },
{ "type": "Feature", "properties": { "name": "M. Lhuillier - Jordan Pier", "category": "Economy", "type": "Finance", "address": "Jordan, Guimaras", "contact_mobile": null, "contact_landline": 332382272, "email": null, "barangay": "Rizal", "district": null, "municity": "Jordan", "province": "Guimaras", "facebook": null, "url": "http://www.mlhuillier.com/", "entry fee": null, "open time": null, "closing time": null }, "geometry": { "type": "Point", "coordinates": [ 122.59668, 10.66636 ] } },
{ "type": "Feature", "properties": { "name": "HJ Fuels Gas Stations", "category": "Economy", "type": "Utilities", "address": "MH8R+H2 Jordan Municipal Cemetery, Guimaras Circumferential Rd, Guimaras", "contact_mobile": 9988567114, "contact_landline": null, "email": null, "barangay": "Rizal", "district": null, "municity": "Jordan", "province": "Guimaras", "facebook": null, "url": null, "entry fee": null, "open time": null, "closing time": null }, "geometry": { "type": "Point", "coordinates": [ 122.59006, 10.66642 ] } },
{ "type": "Feature", "properties": { "name": "Aqua Phoenix Water Refilling Station", "category": "Economy", "type": "Utilities", "address": "HGGM+9QV, Jordan, Guimaras", "contact_mobile": null, "contact_landline": null, "email": null, "barangay": "Sinapsapan", "district": null, "municity": "Jordan", "province": "Guimaras", "facebook": null, "url": null, "entry fee": null, "open time": null, "closing time": null }, "geometry": { "type": "Point", "coordinates": [ 122.53441, 10.57599 ] } },
{ "type": "Feature", "properties": { "name": "Gee Way Water Refilling Station", "category": "Economy", "type": "Utilities", "address": "CH92+4J3, Guimaras Circumferential Rd, Nueva Valencia, Guimaras", "contact_mobile": null, "contact_landline": null, "email": null, "barangay": "Cabalagnan", "district": null, "municity": "Nueva Valencia", "province": "Guimaras", "facebook": null, "url": null, "entry fee": null, "open time": null, "closing time": null }, "geometry": { "type": "Point", "coordinates": [ 122.55154, 10.41777 ] } },
{ "type": "Feature", "properties": { "name": "Terre Construction & Electrical Supply", "category": "Economy", "type": "Construction", "address": "CH92+338, Nueva Valencia, Guimaras", "contact_mobile": null, "contact_landline": null, "email": null, "barangay": "Cabalagnan", "district": null, "municity": "Nueva Valencia", "province": "Guimaras", "facebook": null, "url": null, "entry fee": null, "open time": null, "closing time": null }, "geometry": { "type": "Point", "coordinates": [ 122.5502, 10.41767 ] } },
{ "type": "Feature", "properties": { "name": "Gange Furniture Shop", "category": "Economy", "type": "Manufacturing", "address": "CHG4+CV Purok 1, Nueva Valencia, 5046 Guimaras", "contact_mobile": 9637645585, "contact_landline": null, "email": null, "barangay": "Canhawan", "district": null, "municity": "Nueva Valencia", "province": "Guimaras", "facebook": null, "url": null, "entry fee": null, "open time": "07:00", "closing time": "17:30" }, "geometry": { "type": "Point", "coordinates": [ 122.55714, 10.42615 ] } },
{ "type": "Feature", "properties": { "name": "LifeBank – A Rural Bank", "category": "Economy", "type": "Finance", "address": "Nueva Valencia, 5046 Guimaras", "contact_mobile": 9176266154, "contact_landline": 335812249, "email": null, "barangay": "Igdarapdap", "district": null, "municity": "Nueva Valencia", "province": "Guimaras", "facebook": "https://www.facebook.com/profile.php?id=100063689607002", "url": "http://lifebankrb.com.ph/", "entry fee": null, "open time": null, "closing time": null }, "geometry": { "type": "Point", "coordinates": [ 122.5599, 10.43294 ] } },
{ "type": "Feature", "properties": { "name": "FG DRINKS AND DELICACIES", "category": "Economy", "type": "Manufacturing", "address": "FG2J+8JH, Nueva Valencia, Guimaras", "contact_mobile": null, "contact_landline": null, "email": null, "barangay": "Salvacion", "district": null, "municity": "Nueva Valencia", "province": "Guimaras", "facebook": null, "url": null, "entry fee": null, "open time": null, "closing time": null }, "geometry": { "type": "Point", "coordinates": [ 122.53162, 10.45082 ] } },
{ "type": "Feature", "properties": { "name": "Geonigo Construction Supply", "category": "Economy", "type": "Construction", "address": "CGVM+RJG, Nueva Valencia, Guimaras", "contact_mobile": null, "contact_landline": null, "email": null, "barangay": "Salvacion", "district": null, "municity": "Nueva Valencia", "province": "Guimaras", "facebook": null, "url": null, "entry fee": null, "open time": null, "closing time": null }, "geometry": { "type": "Point", "coordinates": [ 122.53403, 10.44458 ] } },
{ "type": "Feature", "properties": { "name": "ALG AGRICULTURAL & POULTRY SUPPLY", "category": "Economy", "type": "Agriculture", "address": "FG6M+5RW, Guimaras Circumferential Rd, Nueva Valencia, Guimaras", "contact_mobile": null, "contact_landline": null, "email": null, "barangay": "Salvacion", "district": null, "municity": "Nueva Valencia", "province": "Guimaras", "facebook": null, "url": null, "entry fee": null, "open time": null, "closing time": null }, "geometry": { "type": "Point", "coordinates": [ 122.53457, 10.46051 ] } },
{ "type": "Feature", "properties": { "name": "Crisjo poultry farm", "category": "Economy", "type": "Agriculture", "address": "FGR4+5F Brgy, Nueva Valencia, Lalawigan ng Guimaras", "contact_mobile": 9127612431, "contact_landline": null, "email": "jonadetteg@yahoo.com", "barangay": "Napandong", "district": null, "municity": "Nueva Valencia", "province": "Guimaras", "facebook": "https://www.facebook.com/crisjopoultrysupply", "url": null, "entry fee": null, "open time": "Open 24 hours", "closing time": "Open 24 hours" }, "geometry": { "type": "Point", "coordinates": [ 122.50615, 10.49044 ] } },
{ "type": "Feature", "properties": { "name": "Boyden Poultry Supply", "category": "Economy", "type": "Agriculture", "address": "FHP8+62R, Sibunag, Guimaras", "contact_mobile": null, "contact_landline": null, "email": null, "barangay": "Oracon sur", "district": null, "municity": "Nueva Valencia", "province": "Guimaras", "facebook": null, "url": null, "entry fee": null, "open time": null, "closing time": null }, "geometry": { "type": "Point", "coordinates": [ 122.56501, 10.48564 ] } },
{ "type": "Feature", "properties": { "name": "Gemino Water Refilling Station", "category": "Economy", "type": "Utilities", "address": "FHM8+7X, Sibunag, Guimaras", "contact_mobile": null, "contact_landline": null, "email": null, "barangay": "Oracon sur", "district": null, "municity": "Nueva Valencia", "province": "Guimaras", "facebook": null, "url": null, "entry fee": null, "open time": null, "closing time": null }, "geometry": { "type": "Point", "coordinates": [ 122.56749, 10.4832 ] } },
{ "type": "Feature", "properties": { "name": "TAACLUYAN RICE & POULTRY SUPPLY", "category": "Economy", "type": "Agriculture", "address": "GG7C+9M7, Guimaras Circumferential Rd, Nueva Valencia, Guimaras", "contact_mobile": null, "contact_landline": null, "email": null, "barangay": "Igang", "district": null, "municity": "Nueva Valencia", "province": "Guimaras", "facebook": null, "url": null, "entry fee": null, "open time": null, "closing time": null }, "geometry": { "type": "Point", "coordinates": [ 122.52167, 10.51342 ] } },
{ "type": "Feature", "properties": { "name": "BOSSING E.G. ENTERPRISES", "category": "Economy", "type": "Construction", "address": "GGFV+H6R, KM20 Poblacion Nueva Valencia Guimaras, Nueva Valencia, Philippines", "contact_mobile": 9070962123, "contact_landline": null, "email": "bossinggaquit@yahoo.com.ph", "barangay": "Concordia Sur", "district": null, "municity": "Nueva Valencia", "province": "Guimaras", "facebook": "https://www.facebook.com/profile.php?id=100093005383773", "url": null, "entry fee": null, "open time": null, "closing time": null }, "geometry": { "type": "Point", "coordinates": [ 122.54318, 10.52396 ] } },
{ "type": "Feature", "properties": { "name": "Cebuana Lhuillier Pawnshop Nueva Valencia KM 18", "category": "Economy", "type": "Finance", "address": "GHC3+2F KM 18, Sibunag, 5046", "contact_mobile": 9366205862, "contact_landline": null, "email": "cebuanacares@pjlhuillier.com", "barangay": "Concordia Sur", "district": null, "municity": "Nueva Valencia", "province": "Guimaras", "facebook": "https://www.facebook.com/cebuanalhuillierpawnshop", "url": "https://www.cebuanalhuillier.com/", "entry fee": null, "open time": "08:00", "closing time": "17:30" }, "geometry": { "type": "Point", "coordinates": [ 122.55366, 10.52006 ] } },
{ "type": "Feature", "properties": { "name": "Pasaduma Builders Center Corporation", "category": "Economy", "type": "Construction", "address": "GHC5+86J, Concordia, Sibunag, Guimaras", "contact_mobile": null, "contact_landline": null, "email": null, "barangay": "Concordia Sur", "district": null, "municity": "Nueva Valencia", "province": "Guimaras", "facebook": null, "url": null, "entry fee": null, "open time": "07:30", "closing time": "17:00" }, "geometry": { "type": "Point", "coordinates": [ 122.55801, 10.52083 ] } },
{ "type": "Feature", "properties": { "name": "J & L Hardware & Construction Supply", "category": "Economy", "type": "Construction", "address": "GH93+HP Brgy Concordia, Sibunag, Guimaras", "contact_mobile": null, "contact_landline": null, "email": null, "barangay": "Concordia Sur", "district": null, "municity": "Nueva Valencia", "province": "Guimaras", "facebook": null, "url": null, "entry fee": null, "open time": null, "closing time": null }, "geometry": { "type": "Point", "coordinates": [ 122.55434, 10.51893 ] } },
{ "type": "Feature", "properties": { "name": "DELA CRUZ Hardware & Construction Supply", "category": "Economy", "type": "Construction", "address": "FFMV+C4 Nueva Valencia, Guimaras", "contact_mobile": null, "contact_landline": null, "email": null, "barangay": "Dolores", "district": null, "municity": "Nueva Valencia", "province": "Guimaras", "facebook": null, "url": null, "entry fee": null, "open time": "08:00", "closing time": "17:00" }, "geometry": { "type": "Point", "coordinates": [ 122.49278, 10.48364 ] } },
{ "type": "Feature", "properties": { "name": "Bd Hardware & Construction Supply", "category": "Economy", "type": "Construction", "address": "GG38+C2F, Guimaras Circumferential Rd, Nueva Valencia, Guimaras", "contact_mobile": null, "contact_landline": null, "email": null, "barangay": "Magamay", "district": null, "municity": "Nueva Valencia", "province": "Guimaras", "facebook": null, "url": null, "entry fee": null, "open time": null, "closing time": null }, "geometry": { "type": "Point", "coordinates": [ 122.51511, 10.50357 ] } },
{ "type": "Feature", "properties": { "name": "Roger And Nening Rice & Poultry Supply", "category": "Economy", "type": "Agriculture", "address": "GGGR+F5W, Guimaras Circumferential Rd, Nueva Valencia, Guimaras", "contact_mobile": null, "contact_landline": null, "email": null, "barangay": "Poblacion", "district": null, "municity": "Nueva Valencia", "province": "Guimaras", "facebook": null, "url": null, "entry fee": null, "open time": null, "closing time": null }, "geometry": { "type": "Point", "coordinates": [ 122.54046, 10.52626 ] } },
{ "type": "Feature", "properties": { "name": "LANDBANK", "category": "Economy", "type": "Finance", "address": "GGGQ+HVV, Guimaras Circumferential Rd, Nueva Valencia, Guimaras", "contact_mobile": null, "contact_landline": 332371419, "email": "customercare@landbank.com", "barangay": "Poblacion", "district": null, "municity": "Nueva Valencia", "province": "Guimaras", "facebook": "https://www.facebook.com/landbankofficial", "url": "https://www.landbank.com/", "entry fee": null, "open time": null, "closing time": null }, "geometry": { "type": "Point", "coordinates": [ 122.53971, 10.5265 ] } },
{ "type": "Feature", "properties": { "name": "Rd Pawnshop, Inc.", "category": "Economy", "type": "Finance", "address": "GGGQ+PWG, Guimaras Circumferential Rd, Nueva Valencia, Guimaras", "contact_mobile": null, "contact_landline": null, "email": "marketing@rdpawnshop.com.ph", "barangay": "Poblacion", "district": null, "municity": "Nueva Valencia", "province": "Guimaras", "facebook": "https://www.facebook.com/rdpawnshopincorporated", "url": "rdpawnshop.com.ph", "entry fee": null, "open time": null, "closing time": null }, "geometry": { "type": "Point", "coordinates": [ 122.53981, 10.52682 ] } },
{ "type": "Feature", "properties": { "name": "HERMS & PEDS POULTRY SUPPLY", "category": "Economy", "type": "Agriculture", "address": "GJXR+RJ Sitio Talisay, San Lorenzo, Guimaras", "contact_mobile": null, "contact_landline": null, "email": null, "barangay": "Sapal", "district": null, "municity": "San Lorenzo", "province": "Guimaras", "facebook": null, "url": null, "entry fee": null, "open time": null, "closing time": null }, "geometry": { "type": "Point", "coordinates": [ 122.64151, 10.54956 ] } },
{ "type": "Feature", "properties": { "name": "White Copra and RBDO Processing Center", "category": "Economy", "type": "Manufacturing", "address": "HM77+3H, San Lorenzo, Guimaras", "contact_mobile": null, "contact_landline": null, "email": null, "barangay": "Sapal", "district": null, "municity": "San Lorenzo", "province": "Guimaras", "facebook": null, "url": null, "entry fee": null, "open time": null, "closing time": null }, "geometry": { "type": "Point", "coordinates": [ 122.66391, 10.56266 ] } },
{ "type": "Feature", "properties": { "name": "Sapal Weavers Association", "category": "Economy", "type": "Manufacturing", "address": "HJ3X+9FQ, San Lorenzo, Guimaras", "contact_mobile": 9517374318, "contact_landline": null, "email": "sapalweaversassociation@gmail.com", "barangay": "Sapal", "district": null, "municity": "San Lorenzo", "province": "Guimaras", "facebook": "https://www.facebook.com/sapalweavers", "url": null, "entry fee": null, "open time": null, "closing time": null }, "geometry": { "type": "Point", "coordinates": [ 122.64877, 10.55346 ] } },
{ "type": "Feature", "properties": { "name": "Privcon hardware", "category": "Economy", "type": "Construction", "address": "HPP2+8Q San Lorenzo, Guimaras", "contact_mobile": 9686488180, "contact_landline": null, "email": "privconhardware@gmail.com", "barangay": "Cabano", "district": null, "municity": "San Lorenzo", "province": "Guimaras", "facebook": "https://www.facebook.com/profile.php?id=100064812348809", "url": null, "entry fee": null, "open time": "08:00", "closing time": "17:00" }, "geometry": { "type": "Point", "coordinates": [ 122.70193, 10.58582 ] } },
{ "type": "Feature", "properties": { "name": "Palawan Pawnshop San Lorenzo", "category": "Economy", "type": "Finance", "address": "HPP2+WJQ, Guimaras Circumferential Rd, San Lorenzo, Guimaras", "contact_mobile": null, "contact_landline": null, "email": "customercare@palawanpawnshop.com", "barangay": "Cabano", "district": null, "municity": "San Lorenzo", "province": "Guimaras", "facebook": null, "url": null, "entry fee": null, "open time": null, "closing time": null }, "geometry": { "type": "Point", "coordinates": [ 122.7016, 10.58735 ] } },
{ "type": "Feature", "properties": { "name": "JJT Printing Services", "category": "Economy", "type": "Media", "address": "HPW3+FRJ, San Lorenzo, Guimaras", "contact_mobile": 9669823200, "contact_landline": null, "email": null, "barangay": "M. Chavez", "district": null, "municity": "San Lorenzo", "province": "Guimaras", "facebook": null, "url": null, "entry fee": null, "open time": "08:30", "closing time": "17:00" }, "geometry": { "type": "Point", "coordinates": [ 122.70456, 10.59621 ] } },
{ "type": "Feature", "properties": { "name": "Tristan Furniture Shop", "category": "Economy", "type": "Manufacturing", "address": "HJVM+42R, Guimaras none, 5046 Guimaras", "contact_mobile": null, "contact_landline": null, "email": null, "barangay": "Constancia", "district": null, "municity": "San Lorenzo", "province": "Guimaras", "facebook": null, "url": null, "entry fee": null, "open time": null, "closing time": null }, "geometry": { "type": "Point", "coordinates": [ 122.63251, 10.59287 ] } },
{ "type": "Feature", "properties": { "name": "JTT Water Refilling Station", "category": "Economy", "type": "Utilities", "address": "HJHR+CQC, San Lorenzo, Guimaras", "contact_mobile": null, "contact_landline": null, "email": null, "barangay": "Constancia", "district": null, "municity": "San Lorenzo", "province": "Guimaras", "facebook": null, "url": null, "entry fee": null, "open time": null, "closing time": null }, "geometry": { "type": "Point", "coordinates": [ 122.64187, 10.57858 ] } },
{ "type": "Feature", "properties": { "name": "JJ Vilches Hardware & Const. Supply", "category": "Economy", "type": "Construction", "address": "JP67+QP9, Guimaras Circumferential Rd, San Lorenzo, Guimaras", "contact_mobile": null, "contact_landline": null, "email": null, "barangay": "Suclaran", "district": null, "municity": "San Lorenzo", "province": "Guimaras", "facebook": null, "url": null, "entry fee": null, "open time": "08:00", "closing time": "18:00" }, "geometry": { "type": "Point", "coordinates": [ 122.71441, 10.61192 ] } },
{ "type": "Feature", "properties": { "name": "IRIS POULTRY SUPPLY", "category": "Economy", "type": "Agriculture", "address": "JP67+6C8, Guimaras Circumferential Rd, San Lorenzo, Guimaras", "contact_mobile": null, "contact_landline": null, "email": null, "barangay": "Suclaran", "district": null, "municity": "San Lorenzo", "province": "Guimaras", "facebook": null, "url": null, "entry fee": null, "open time": null, "closing time": null }, "geometry": { "type": "Point", "coordinates": [ 122.71358, 10.61056 ] } },
{ "type": "Feature", "properties": { "name": "Dr. Emilio Z Aragon Agro-Industrial Coop", "category": "Economy", "type": "Agriculture", "address": "JPW6+4X Sitio Matagsing, San Enrique, San Lorenzo, 5044 Guimaras", "contact_mobile": 9089273786, "contact_landline": null, "email": null, "barangay": "San Enrique", "district": null, "municity": "San Lorenzo", "province": "Guimaras", "facebook": null, "url": null, "entry fee": null, "open time": "09:00", "closing time": "17:00" }, "geometry": { "type": "Point", "coordinates": [ 122.71249, 10.64537 ] } },
{ "type": "Feature", "properties": { "name": "TMK CONSTRUCTION SUPPLY", "category": "Economy", "type": "Construction", "address": "JMGM+W2 San Lorenzo, Guimaras", "contact_mobile": 9979785214, "contact_landline": null, "email": null, "barangay": "Gaban", "district": null, "municity": "San Lorenzo", "province": "Guimaras", "facebook": "https://www.facebook.com/profile.php?id=100077410702043", "url": null, "entry fee": null, "open time": "07:30", "closing time": "17:00" }, "geometry": { "type": "Point", "coordinates": [ 122.68256, 10.62734 ] } },
{ "type": "Feature", "properties": { "name": "GABASA RICE MILL", "category": "Economy", "type": "Agriculture", "address": "JMHJ+3P PROPER WEST, San Lorenzo, Guimaras", "contact_mobile": 9656850271, "contact_landline": null, "email": "9203808308", "barangay": "Gaban", "district": null, "municity": "San Lorenzo", "province": "Guimaras", "facebook": "https://www.facebook.com/profile.php?id=100089657805226", "url": null, "entry fee": null, "open time": "07:30", "closing time": "17:00" }, "geometry": { "type": "Point", "coordinates": [ 122.68187, 10.62765 ] } },
{ "type": "Feature", "properties": { "name": "Jeian's Furniture Shop", "category": "Economy", "type": "Manufacturing", "address": "JMJV+55 PROPER WEST, Sanlorenzo, 5044 Guimaras", "contact_mobile": 9068701613, "contact_landline": null, "email": null, "barangay": "Gaban", "district": null, "municity": "San Lorenzo", "province": "Guimaras", "facebook": null, "url": null, "entry fee": null, "open time": null, "closing time": null }, "geometry": { "type": "Point", "coordinates": [ 122.69299, 10.63041 ] } },
{ "type": "Feature", "properties": { "name": "Gallo Fuel Station and Alora Cuisine - Coffee and Grill", "category": "Economy", "type": "Utilities", "address": "JJVJ+6XH, Buenavista, Guimaras", "contact_mobile": null, "contact_landline": null, "email": null, "barangay": "Tamborong", "district": null, "municity": "San Lorenzo", "province": "Guimaras", "facebook": null, "url": null, "entry fee": null, "open time": null, "closing time": null }, "geometry": { "type": "Point", "coordinates": [ 122.63173, 10.64388 ] } },
{ "type": "Feature", "properties": { "name": "Rice Mill", "category": "Economy", "type": "Agriculture", "address": "FJ5Q+WC2, Sibunag, Guimaras", "contact_mobile": null, "contact_landline": null, "email": null, "barangay": "San Isidro", "district": null, "municity": "Sibunag", "province": "Guimaras", "facebook": null, "url": null, "entry fee": null, "open time": null, "closing time": null }, "geometry": { "type": "Point", "coordinates": [ 122.63854, 10.45975 ] } },
{ "type": "Feature", "properties": { "name": "THEA'S POULTRY & AGRICULTURAL SUPPLY", "category": "Economy", "type": "Agriculture", "address": "FJ5P+4X6, Guimaras Circumferential Rd, Sibunag, Guimaras", "contact_mobile": null, "contact_landline": null, "email": null, "barangay": "San Isidro", "district": null, "municity": "Sibunag", "province": "Guimaras", "facebook": null, "url": null, "entry fee": null, "open time": null, "closing time": null }, "geometry": { "type": "Point", "coordinates": [ 122.63742, 10.45779 ] } },
{ "type": "Feature", "properties": { "name": "RNA AGRI & POULTRY SUPPLY", "category": "Economy", "type": "Agriculture", "address": "FJ3P+PJ2, Guimaras Circumferential Rd, Sibunag, Guimaras", "contact_mobile": null, "contact_landline": null, "email": null, "barangay": "San Isidro", "district": null, "municity": "Sibunag", "province": "Guimaras", "facebook": null, "url": null, "entry fee": null, "open time": null, "closing time": null }, "geometry": { "type": "Point", "coordinates": [ 122.63653, 10.45428 ] } },
{ "type": "Feature", "properties": { "name": "Banco De Arevalo", "category": "Economy", "type": "Finance", "address": "GHP6+939, Guimaras Circumferential Rd, Sibunag, Guimaras", "contact_mobile": null, "contact_landline": null, "email": null, "barangay": "Concordia Norte", "district": null, "municity": "Sibunag", "province": "Guimaras", "facebook": null, "url": null, "entry fee": null, "open time": null, "closing time": null }, "geometry": { "type": "Point", "coordinates": [ 122.56022, 10.53591 ] } },
{ "type": "Feature", "properties": { "name": "RJ 2 EJ POULTRY SUPPLY", "category": "Economy", "type": "Agriculture", "address": "GJCM+F97, Guimaras Circumferential Rd, Sibunag, Guimaras", "contact_mobile": null, "contact_landline": null, "email": null, "barangay": "Maabay", "district": null, "municity": "Sibunag", "province": "Guimaras", "facebook": "https://www.facebook.com/profile.php?id=61560773741684", "url": null, "entry fee": null, "open time": null, "closing time": null }, "geometry": { "type": "Point", "coordinates": [ 122.63342, 10.52118 ] } },
{ "type": "Feature", "properties": { "name": "Palawan Pawnshop", "category": "Economy", "type": "Finance", "address": "GJCM+G52, Guimaras Circumferential Rd, Sibunag, Guimaras", "contact_mobile": null, "contact_landline": null, "email": "customercare@palawanpawnshop.com", "barangay": "Maabay", "district": null, "municity": "Sibunag", "province": "Guimaras", "facebook": null, "url": null, "entry fee": null, "open time": null, "closing time": null }, "geometry": { "type": "Point", "coordinates": [ 122.63289, 10.52126 ] } },
{ "type": "Feature", "properties": { "name": "Ganz Water Refilling Station", "category": "Economy", "type": "Utilities", "address": "HHCV+GJW, Sibunag, Guimaras", "contact_mobile": null, "contact_landline": null, "email": null, "barangay": "Tanglad", "district": null, "municity": "Sibunag", "province": "Guimaras", "facebook": "https://www.facebook.com/profile.php?id=100066801591780", "url": null, "entry fee": null, "open time": null, "closing time": null }, "geometry": { "type": "Point", "coordinates": [ 122.59408, 10.57139 ] } },
{ "type": "Feature", "properties": { "name": "Full Tank LPG Distribution", "category": "Economy", "type": "Utilities", "address": "HJ67+53 Sooc Mandurriao, C1 Guimaras Circumferential Rd, Sibunag, Guimaras", "contact_mobile": 9178680437, "contact_landline": null, "email": "fulltanklpg@yahoo.com", "barangay": "Millan", "district": null, "municity": "Sibunag", "province": "Guimaras", "facebook": "https://www.facebook.com/fulltankgasul", "url": null, "entry fee": null, "open time": null, "closing time": null }, "geometry": { "type": "Point", "coordinates": [ 122.61266, 10.56041 ] } },
{ "type": "Feature", "properties": { "name": "Arlen's Water Refilling Station", "category": "Economy", "type": "Utilities", "address": "HJ95+F3Q, Sibunag, Guimaras", "contact_mobile": 9302303199, "contact_landline": null, "email": null, "barangay": "Millan", "district": null, "municity": "Sibunag", "province": "Guimaras", "facebook": null, "url": null, "entry fee": null, "open time": "06:00", "closing time": "19:00" }, "geometry": { "type": "Point", "coordinates": [ 122.60773, 10.56876 ] } },
{ "type": "Feature", "properties": { "name": "Oyo Water Refilling Station", "category": "Economy", "type": "Utilities", "address": "HJ94+QWG, Sibunag, Guimaras", "contact_mobile": null, "contact_landline": null, "email": null, "barangay": "Millan", "district": null, "municity": "Sibunag", "province": "Guimaras", "facebook": null, "url": null, "entry fee": null, "open time": null, "closing time": null }, "geometry": { "type": "Point", "coordinates": [ 122.60736, 10.56948 ] } },
{ "type": "Feature", "properties": { "name": "Miaqua Water Refilling Station", "category": "Economy", "type": "Utilities", "address": "HJ56+8X4, Sibunag, Guimaras", "contact_mobile": null, "contact_landline": null, "email": null, "barangay": "Millan", "district": null, "municity": "Sibunag", "province": "Guimaras", "facebook": null, "url": null, "entry fee": null, "open time": null, "closing time": null }, "geometry": { "type": "Point", "coordinates": [ 122.61247, 10.55838 ] } },
{ "type": "Feature", "properties": { "name": "Jay-R Furniture Shop", "category": "Economy", "type": "Manufacturing", "address": "GM3F+27M, Sibunag, Guimaras", "contact_mobile": 9058126998, "contact_landline": null, "email": null, "barangay": "Sebaste", "district": null, "municity": "Sibunag", "province": "Guimaras", "facebook": null, "url": null, "entry fee": null, "open time": "08:00", "closing time": "04:00" }, "geometry": { "type": "Point", "coordinates": [ 122.67317, 10.50259 ] } }
]
}
