{
"type": "FeatureCollection",
"name": "ECONOMY_PAVIA_POIs_Insights",
"crs": { "type": "name", "properties": { "name": "urn:ogc:def:crs:OGC:1.3:CRS84" } },
"features": [
{ "type": "Feature", "properties": { "name": "EXPRESSPAY GMR BILLS PAYMENT AND REMITTANCE CENTER", "category": "Economy", "type": "Finance", "address": "PGQ9+Q3 1155 Guzman St, Mandurriao, Iloilo City, Iloilo", "contact_mobile": null, "contact_landline": null, "email": null, "barangay": "Pandac", "district": null, "municity": "Pavia", "province": "Iloilo", "facebook": null, "url": null, "entry fee": null, "open time": null, "closing time": null }, "geometry": { "type": "Point", "coordinates": [ 122.51783, 10.74235 ] } },
{ "type": "Feature", "properties": { "name": "Casa Felisa", "category": "Economy", "type": "Construction", "address": "QG3F+VCF, Felix Gorriceta Jr. Avenue, Pavia, Iloilo", "contact_mobile": null, "contact_landline": 333210311, "email": null, "barangay": "Pandac", "district": null, "municity": "Pavia", "province": "Iloilo", "facebook": null, "url": null, "entry fee": null, "open time": null, "closing time": null }, "geometry": { "type": "Point", "coordinates": [ 122.52356, 10.75471 ] } },
{ "type": "Feature", "properties": { "name": "D. SALARDA PRINTING PRESS OFFSET & LETTERPRESS", "category": "Economy", "type": "Media", "address": "PGWF+GR2, Pavia, Iloilo", "contact_mobile": 9919643264, "contact_landline": 333321252, "email": "ellandavesalarda@gmail.com", "barangay": "Pandac", "district": null, "municity": "Pavia", "province": "Iloilo", "facebook": "https://web.facebook.com/p/D-Salarda-Printing-Press-100063942187755/?_rdc=1&_rdr", "url": null, "entry fee": null, "open time": "08:00", "closing time": "17:00" }, "geometry": { "type": "Point", "coordinates": [ 122.52397, 10.74627 ] } },
{ "type": "Feature", "properties": { "name": "Iloilo Metropolitan Times", "category": "Economy", "type": "Media", "address": "QG2G+XC Phase II Block 1 Lot 69, Deca Homes Subdivision, Pavia, Iloilo City, 5001 Iloilo", "contact_mobile": null, "contact_landline": 335145113, "email": "imt.editorial@gmail.com", "barangay": "Pandac", "district": null, "municity": "Pavia", "province": "Iloilo", "facebook": "https://web.facebook.com/IloiloMetroTimes/?_rdc=1&_rdr", "url": null, "entry fee": null, "open time": "08:00", "closing time": "17:00" }, "geometry": { "type": "Point", "coordinates": [ 122.52611, 10.75238 ] } },
{ "type": "Feature", "properties": { "name": "IMT News", "category": "Economy", "type": "Media", "address": "QG2F+RG Phase 2 Block 1 Lot 69, Deca Homes, Pavia, 5001 Iloilo", "contact_mobile": null, "contact_landline": 333278133, "email": "imt.editorial@gmail.com", "barangay": "Pandac", "district": null, "municity": "Pavia", "province": "Iloilo", "facebook": "https://web.facebook.com/IloiloMetroTimes/?_rdc=1&_rdr", "url": "http://www.imtnews.ph/", "entry fee": null, "open time": "00:00", "closing time": "00:00" }, "geometry": { "type": "Point", "coordinates": [ 122.52382, 10.75209 ] } },
{ "type": "Feature", "properties": { "name": "Archangel Water Refilling Station", "category": "Economy", "type": "Utilities", "address": "QG2C+QJ Pavia, Iloilo", "contact_mobile": null, "contact_landline": null, "email": null, "barangay": "Pandac", "district": null, "municity": "Pavia", "province": "Iloilo", "facebook": null, "url": null, "entry fee": null, "open time": null, "closing time": null }, "geometry": { "type": "Point", "coordinates": [ 122.52151, 10.75193 ] } },
{ "type": "Feature", "properties": { "name": "Aqua Vida Water Refilling Station", "category": "Economy", "type": "Utilities", "address": "QG2Q+W2 Zone 4 Panay Railways, Ungka Dos, Pavia, 5000 Iloilo", "contact_mobile": 9541575536, "contact_landline": null, "email": null, "barangay": "Ungka II", "district": null, "municity": "Pavia", "province": "Iloilo", "facebook": null, "url": null, "entry fee": null, "open time": "07:00", "closing time": "17:00" }, "geometry": { "type": "Point", "coordinates": [ 122.5376, 10.75341 ] } },
{ "type": "Feature", "properties": { "name": "Publicidad Printing & Signage Advertising", "category": "Economy", "type": "Media", "address": "QG2Q+45 Iloilo City - Aleosan Rd, Pavia, 5001 Iloilo", "contact_mobile": 9995567451, "contact_landline": null, "email": "PublicidadSigns@gmail.com", "barangay": "Ungka II", "district": null, "municity": "Pavia", "province": "Iloilo", "facebook": "https://web.facebook.com/PublicidadSignsIloilo/?_rdc=1&_rdr", "url": "http://publicidadsignsph.com/", "entry fee": null, "open time": "08:00", "closing time": "18:00" }, "geometry": { "type": "Point", "coordinates": [ 122.5379, 10.75034 ] } },
{ "type": "Feature", "properties": { "name": "Sassy's Flow", "category": "Economy", "type": "Utilities", "address": "QG3P+3PQ, Pavia, 5001 Iloilo", "contact_mobile": 9336938790, "contact_landline": null, "email": null, "barangay": "Ungka II", "district": null, "municity": "Pavia", "province": "Iloilo", "facebook": null, "url": null, "entry fee": null, "open time": null, "closing time": null }, "geometry": { "type": "Point", "coordinates": [ 122.53686, 10.75273 ] } },
{ "type": "Feature", "properties": { "name": "Coca-Cola Europacific Aboitiz Philippines - Iloilo Plant", "category": "Economy", "type": "Manufacturing", "address": "QG4Q+CPC, Pavia, Iloilo", "contact_mobile": null, "contact_landline": 333297716, "email": null, "barangay": "Ungka I", "district": null, "municity": "Pavia", "province": "Iloilo", "facebook": "https://www.facebook.com/cocacolaeap", "url": "linktr.ee/cocacolaeap", "entry fee": null, "open time": "Open 24 hours", "closing time": "Open 24 hours" }, "geometry": { "type": "Point", "coordinates": [ 122.54099, 10.76037 ] } },
{ "type": "Feature", "properties": { "name": "Pryce Gases, Inc.", "category": "Economy", "type": "Utilities", "address": "QG8R+82 Ungka Uno,Pavia, Iloilo City, 5001 Iloilo", "contact_mobile": null, "contact_landline": 333295023, "email": null, "barangay": "Ungka I", "district": null, "municity": "Pavia", "province": "Iloilo", "facebook": null, "url": "http://www.prycegas.com/", "entry fee": null, "open time": "06:00", "closing time": "20:00" }, "geometry": { "type": "Point", "coordinates": [ 122.54006, 10.76587 ] } },
{ "type": "Feature", "properties": { "name": "Bon Builders Corporation", "category": "Economy", "type": "Construction", "address": "QG6Q+P4 Injap Bldg., Ungka Uno, Pavia, 5001 Iloilo", "contact_mobile": null, "contact_landline": 335196348, "email": null, "barangay": "Ungka I", "district": null, "municity": "Pavia", "province": "Iloilo", "facebook": null, "url": null, "entry fee": null, "open time": "07:00", "closing time": "14:00" }, "geometry": { "type": "Point", "coordinates": [ 122.53776, 10.76191 ] } },
{ "type": "Feature", "properties": { "name": "Solid Gas", "category": "Economy", "type": "Utilities", "address": "QG7P+8RV, Pavia, Iloilo", "contact_mobile": null, "contact_landline": null, "email": null, "barangay": "Ungka I", "district": null, "municity": "Pavia", "province": "Iloilo", "facebook": null, "url": null, "entry fee": null, "open time": null, "closing time": null }, "geometry": { "type": "Point", "coordinates": [ 122.53705, 10.76336 ] } },
{ "type": "Feature", "properties": { "name": "DAMASCO MARKETING and HOLLOW BLOCKS", "category": "Economy", "type": "Construction", "address": "QG9P+FM Vice President Fernando Lopez Avenue Along the main highway (Iloilo R3 Road, Old Iloilo - Capiz Rd, Pavia, Iloilo", "contact_mobile": 9173176436, "contact_landline": null, "email": "damascomarketing88@gmail.com", "barangay": "Aganan", "district": null, "municity": "Pavia", "province": "Iloilo", "facebook": "https://www.facebook.com/damascomarketing", "url": null, "entry fee": null, "open time": "08:00", "closing time": "16:30" }, "geometry": { "type": "Point", "coordinates": [ 122.5367, 10.7687 ] } },
{ "type": "Feature", "properties": { "name": "GV7 Business Ads.", "category": "Economy", "type": "Media", "address": "QG9P+74 Road 04, Iloilo City, 5001 Iloilo", "contact_mobile": 9097103930, "contact_landline": null, "email": null, "barangay": "Aganan", "district": null, "municity": "Pavia", "province": "Iloilo", "facebook": null, "url": null, "entry fee": null, "open time": "08:00", "closing time": "20:00" }, "geometry": { "type": "Point", "coordinates": [ 122.5353, 10.76819 ] } },
{ "type": "Feature", "properties": { "name": "E-print Digital Printing Services", "category": "Economy", "type": "Media", "address": "QG9P+6P Aganan, Pavia, Iloilo City, 5001 Iloilo", "contact_mobile": 9671940008, "contact_landline": null, "email": "eprintdigiservices@gmail.com", "barangay": "Aganan", "district": null, "municity": "Pavia", "province": "Iloilo", "facebook": "https://www.facebook.com/digiprintservices", "url": null, "entry fee": null, "open time": "09:00", "closing time": "20:00" }, "geometry": { "type": "Point", "coordinates": [ 122.53682, 10.76804 ] } },
{ "type": "Feature", "properties": { "name": "Writer Febrina", "category": "Economy", "type": "Media", "address": "QG9P+48 Zone 1, Brgy, Pavia, 5001 Iloilo", "contact_mobile": 9995026488, "contact_landline": null, "email": null, "barangay": "Aganan", "district": null, "municity": "Pavia", "province": "Iloilo", "facebook": null, "url": "https://writerfebrina.com/", "entry fee": null, "open time": "09:00", "closing time": "05:00" }, "geometry": { "type": "Point", "coordinates": [ 122.53586, 10.76777 ] } },
{ "type": "Feature", "properties": { "name": "Dexterify Solutions", "category": "Economy", "type": "Media", "address": "QG6J+HX 2nd Street, PRP B1 L31, Parc Regency Dr, Pavia, 5001 Iloilo", "contact_mobile": null, "contact_landline": 17273791534, "email": null, "barangay": "Aganan", "district": null, "municity": "Pavia", "province": "Iloilo", "facebook": null, "url": null, "entry fee": null, "open time": null, "closing time": null }, "geometry": { "type": "Point", "coordinates": [ 122.53245, 10.7614 ] } },
{ "type": "Feature", "properties": { "name": "Evzxel Agri-Poultry Supply", "category": "Economy", "type": "Agriculture", "address": "QG6H+GCM, Felix Gorriceta Jr. Avenue, Pavia, Iloilo", "contact_mobile": null, "contact_landline": null, "email": null, "barangay": "Balabag", "district": null, "municity": "Pavia", "province": "Iloilo", "facebook": "https://web.facebook.com/evzxel.agri.poultry.supply/?_rdc=1&_rdr", "url": null, "entry fee": null, "open time": null, "closing time": null }, "geometry": { "type": "Point", "coordinates": [ 122.52853, 10.76135 ] } },
{ "type": "Feature", "properties": { "name": "VA Studio PH", "category": "Economy", "type": "Media", "address": "QG5M+W3 Parc Regency Residences, Pavia, 5001 Iloilo", "contact_mobile": 9272519168, "contact_landline": null, "email": "ellen@vastudioph.com", "barangay": "Balabag", "district": null, "municity": "Pavia", "province": "Iloilo", "facebook": "https://web.facebook.com/vastudioph2019/?_rdc=1&_rdr", "url": null, "entry fee": null, "open time": "00:00", "closing time": "00:00" }, "geometry": { "type": "Point", "coordinates": [ 122.5327, 10.75988 ] } },
{ "type": "Feature", "properties": { "name": "Blue House Manokan", "category": "Economy", "type": "Agriculture", "address": "QG6G+49 Iloilo City, Iloilo", "contact_mobile": 9605982207, "contact_landline": null, "email": null, "barangay": "Balabag", "district": null, "municity": "Pavia", "province": "Iloilo", "facebook": null, "url": null, "entry fee": null, "open time": "09:00", "closing time": "18:00" }, "geometry": { "type": "Point", "coordinates": [ 122.52595, 10.76035 ] } },
{ "type": "Feature", "properties": { "name": "Ajara Agri Products Marketing", "category": "Economy", "type": "Agriculture", "address": "QG99+3JG, Angela Avenue, Pavia, Iloilo", "contact_mobile": 9280778672, "contact_landline": null, "email": "beccy2885@yahoo.com", "barangay": "Balabag", "district": null, "municity": "Pavia", "province": "Iloilo", "facebook": "https://www.facebook.com/profile.php?id=100061677685776", "url": null, "entry fee": null, "open time": "06:00", "closing time": "19:30" }, "geometry": { "type": "Point", "coordinates": [ 122.51909, 10.76768 ] } },
{ "type": "Feature", "properties": { "name": "AHNEX BUILDERS CORPORATION AHNEX READY MIX", "category": "Economy", "type": "Construction", "address": "QG5H+P8Q, Felix Gorriceta Jr. Avenue, Pavia, 5001 Iloilo", "contact_mobile": null, "contact_landline": null, "email": null, "barangay": "Balabag", "district": null, "municity": "Pavia", "province": "Iloilo", "facebook": null, "url": null, "entry fee": null, "open time": null, "closing time": null }, "geometry": { "type": "Point", "coordinates": [ 122.52833, 10.75936 ] } },
{ "type": "Feature", "properties": { "name": "Hammer Construction & Development Corporation", "category": "Economy", "type": "Construction", "address": "QG5G+MP JEHCA Complex, Pavia, 5001 Iloilo", "contact_mobile": 9950576942, "contact_landline": null, "email": "hammer.designbuild2023@yahoo.com", "barangay": "Balabag", "district": null, "municity": "Pavia", "province": "Iloilo", "facebook": "https://web.facebook.com/p/Hammer-Construction-Development-Corporation-61563483400703/?_rdc=1&_rdr", "url": null, "entry fee": null, "open time": "08:00", "closing time": "17:00" }, "geometry": { "type": "Point", "coordinates": [ 122.5268, 10.75914 ] } },
{ "type": "Feature", "properties": { "name": "CEH Construction Services", "category": "Economy", "type": "Construction", "address": "QG5G+FRW, Felix Gorriceta Jr. Avenue, Pavia, 5001 Iloilo", "contact_mobile": 9171059030, "contact_landline": null, "email": null, "barangay": "Balabag", "district": null, "municity": "Pavia", "province": "Iloilo", "facebook": "https://www.facebook.com/cehconstruction/", "url": null, "entry fee": null, "open time": "08:00", "closing time": "18:00" }, "geometry": { "type": "Point", "coordinates": [ 122.52709, 10.75874 ] } },
{ "type": "Feature", "properties": { "name": "RBA CONSTRUCTION SERVICES", "category": "Economy", "type": "Construction", "address": "QG5G+PHW, Felix Gorriceta Jr. Avenue, Pavia, Iloilo", "contact_mobile": 9166534150, "contact_landline": null, "email": "rbaconstructionservices2021@gmail.com", "barangay": "Balabag", "district": null, "municity": "Pavia", "province": "Iloilo", "facebook": "https://web.facebook.com/rbaconstructionservices2021official/?_rdc=1&_rdr", "url": null, "entry fee": null, "open time": "08:00", "closing time": "17:00" }, "geometry": { "type": "Point", "coordinates": [ 122.52646, 10.75936 ] } },
{ "type": "Feature", "properties": { "name": "PN3B Engineering Services", "category": "Economy", "type": "Construction", "address": "QG5G+MHW, Felix Gorriceta Jr. Avenue, Pavia, Iloilo", "contact_mobile": null, "contact_landline": null, "email": null, "barangay": "Balabag", "district": null, "municity": "Pavia", "province": "Iloilo", "facebook": null, "url": null, "entry fee": null, "open time": null, "closing time": null }, "geometry": { "type": "Point", "coordinates": [ 122.52645, 10.75922 ] } },
{ "type": "Feature", "properties": { "name": "Stellar Builders", "category": "Economy", "type": "Construction", "address": "QG6G+9X5, Unnamed Road, Pavia, Iloilo", "contact_mobile": null, "contact_landline": null, "email": "stellarbuildersiloilo@gmail.com", "barangay": "Balabag", "district": null, "municity": "Pavia", "province": "Iloilo", "facebook": "https://web.facebook.com/stellarbuildersiloilo/?locale=tl_PH&_rdc=1&_rdr", "url": null, "entry fee": null, "open time": null, "closing time": null }, "geometry": { "type": "Point", "coordinates": [ 122.52747, 10.76089 ] } },
{ "type": "Feature", "properties": { "name": "ShyrDan Prints & Style Printing Services", "category": "Economy", "type": "Media", "address": "QG8C+R7 Brgy, Sitio Proper, Pavia, 5001 Iloilo", "contact_mobile": 9917242099, "contact_landline": null, "email": "shyrdan2020@gmail.com", "barangay": "Balabag", "district": null, "municity": "Pavia", "province": "Iloilo", "facebook": "https://www.facebook.com/shyrdanprintsandstyle", "url": null, "entry fee": null, "open time": "09:00", "closing time": "18:00" }, "geometry": { "type": "Point", "coordinates": [ 122.52062, 10.76706 ] } },
{ "type": "Feature", "properties": { "name": "A.P.S. Services", "category": "Economy", "type": "Media", "address": "QG76+Q5 Whale Ave, Santa Barbara, 5001 Iloilo", "contact_mobile": 9451047390, "contact_landline": null, "email": null, "barangay": "Balabag", "district": null, "municity": "Pavia", "province": "Iloilo", "facebook": null, "url": null, "entry fee": null, "open time": "06:00", "closing time": "20:00" }, "geometry": { "type": "Point", "coordinates": [ 122.51039, 10.76441 ] } },
{ "type": "Feature", "properties": { "name": "Alka Quest Water Refilling Station", "category": "Economy", "type": "Utilities", "address": "QG98+JJ Angela Avenue, Pavia, Iloilo", "contact_mobile": null, "contact_landline": null, "email": null, "barangay": "Balabag", "district": null, "municity": "Pavia", "province": "Iloilo", "facebook": null, "url": null, "entry fee": null, "open time": null, "closing time": null }, "geometry": { "type": "Point", "coordinates": [ 122.51661, 10.76906 ] } },
{ "type": "Feature", "properties": { "name": "F&T Construction & Supply", "category": "Economy", "type": "Construction", "address": "QH93+8HG, Pagsanga-an, Pavia, Iloilo City, Iloilo", "contact_mobile": null, "contact_landline": 338550367, "email": null, "barangay": "Pagsanga-an", "district": null, "municity": "Pavia", "province": "Iloilo", "facebook": null, "url": null, "entry fee": null, "open time": "08:00", "closing time": "17:00" }, "geometry": { "type": "Point", "coordinates": [ 122.55397, 10.76834 ] } },
{ "type": "Feature", "properties": { "name": "Mariel Grace Water Refilling Station", "category": "Economy", "type": "Utilities", "address": "QH93+VQM, Pavia, Iloilo", "contact_mobile": null, "contact_landline": null, "email": null, "barangay": "Pagsanga-an", "district": null, "municity": "Pavia", "province": "Iloilo", "facebook": null, "url": null, "entry fee": null, "open time": "08:00", "closing time": "17:00" }, "geometry": { "type": "Point", "coordinates": [ 122.55442, 10.76967 ] } },
{ "type": "Feature", "properties": { "name": "Cecilia Jerezo arucera", "category": "Economy", "type": "Agriculture", "address": "QGJX+M7G, Pavia, Iloilo", "contact_mobile": null, "contact_landline": null, "email": null, "barangay": "Tigum", "district": null, "municity": "Pavia", "province": "Iloilo", "facebook": null, "url": null, "entry fee": null, "open time": null, "closing time": null }, "geometry": { "type": "Point", "coordinates": [ 122.54818, 10.7817 ] } },
{ "type": "Feature", "properties": { "name": "Falsis Rice Mill", "category": "Economy", "type": "Agriculture", "address": "QGMG+9FC Amparo, Pavia, Iloilo", "contact_mobile": null, "contact_landline": null, "email": null, "barangay": "Amparo", "district": null, "municity": "Pavia", "province": "Iloilo", "facebook": "https://www.facebook.com/profile.php?id=100090403944621&mibextid=LQQJ4d", "url": null, "entry fee": null, "open time": null, "closing time": null }, "geometry": { "type": "Point", "coordinates": [ 122.52615, 10.78344 ] } },
{ "type": "Feature", "properties": { "name": "RJ Modern Rice Mill Corporation", "category": "Economy", "type": "Agriculture", "address": "QGPH+G7F Sitio Bong-ao, Pavia, Iloilo", "contact_mobile": null, "contact_landline": null, "email": null, "barangay": "Amparo", "district": null, "municity": "Pavia", "province": "Iloilo", "facebook": null, "url": null, "entry fee": null, "open time": null, "closing time": null }, "geometry": { "type": "Point", "coordinates": [ 122.5282, 10.78638 ] } },
{ "type": "Feature", "properties": { "name": "Water Seven Refilling Station", "category": "Economy", "type": "Utilities", "address": "QGGF+R22, Pavia, Iloilo", "contact_mobile": null, "contact_landline": null, "email": null, "barangay": "Amparo", "district": null, "municity": "Pavia", "province": "Iloilo", "facebook": null, "url": null, "entry fee": null, "open time": "08:00", "closing time": "18:00" }, "geometry": { "type": "Point", "coordinates": [ 122.52254, 10.77701 ] } },
{ "type": "Feature", "properties": { "name": "3G Farm Agri Supplies", "category": "Economy", "type": "Agriculture", "address": "QGRV+H6 Tigum Barrio Rd, Pavia, 5001 Iloilo", "contact_mobile": 9234273653, "contact_landline": null, "email": null, "barangay": "Cabugao Norte", "district": null, "municity": "Pavia", "province": "Iloilo", "facebook": "https://www.facebook.com/3GFarmAgriSupplies", "url": null, "entry fee": null, "open time": "08:00", "closing time": "18:00" }, "geometry": { "type": "Point", "coordinates": [ 122.543, 10.7915 ] } },
{ "type": "Feature", "properties": { "name": "Jibao-an Furniture and Enterprises", "category": "Economy", "type": "Manufacturing", "address": "PGV8+MC Felix Gorriceta Jr. Avenue, Pavia, Iloilo", "contact_mobile": 9176299105, "contact_landline": null, "email": null, "barangay": "Jibao-an", "district": null, "municity": "Pavia", "province": "Iloilo", "facebook": "http://www.facebook.com/jibaoanfurniture", "url": null, "entry fee": null, "open time": "09:00", "closing time": "17:00" }, "geometry": { "type": "Point", "coordinates": [ 122.51601, 10.74421 ] } },
{ "type": "Feature", "properties": { "name": "Mira Aqua Water Refilling Station", "category": "Economy", "type": "Utilities", "address": "QG37+9C Zone 5-b, Pavia, 5001 Iloilo", "contact_mobile": 9381235624, "contact_landline": null, "email": null, "barangay": "Jibao-an", "district": null, "municity": "Pavia", "province": "Iloilo", "facebook": "https://web.facebook.com/groups/612238940377279/posts/1183736653227502/?_rdc=1&_rdr", "url": null, "entry fee": null, "open time": "07:00", "closing time": "19:00" }, "geometry": { "type": "Point", "coordinates": [ 122.51355, 10.75346 ] } },
{ "type": "Feature", "properties": { "name": "MorePure Water Refilling Station", "category": "Economy", "type": "Utilities", "address": "QG26+X3 Block11 Lot 8, Eon Centennial Homes, Pavia, 5001 Iloilo", "contact_mobile": 9176315236, "contact_landline": null, "email": "samrubz@gmail.com", "barangay": "Jibao-an", "district": null, "municity": "Pavia", "province": "Iloilo", "facebook": "https://web.facebook.com/people/MorePure-Water-Refilling-Station/100083397098039/?_rdc=1&_rdr", "url": null, "entry fee": null, "open time": "07:00", "closing time": "18:00" }, "geometry": { "type": "Point", "coordinates": [ 122.51024, 10.75245 ] } },
{ "type": "Feature", "properties": { "name": "Joe Jane Purified Water Refilling Station", "category": "Economy", "type": "Utilities", "address": "QG34+GG Brgy, Pavia, 5001 Iloilo", "contact_mobile": 9464379505, "contact_landline": null, "email": null, "barangay": "Jibao-an", "district": null, "municity": "Pavia", "province": "Iloilo", "facebook": null, "url": null, "entry fee": null, "open time": "05:30", "closing time": "18:30" }, "geometry": { "type": "Point", "coordinates": [ 122.50629, 10.75379 ] } },
{ "type": "Feature", "properties": { "name": "WESGAZ LPG Center", "category": "Economy", "type": "Utilities", "address": "QGFV+H5 Remigio St, Pavia, 5001 Iloilo", "contact_mobile": 9193663888, "contact_landline": null, "email": null, "barangay": "Purok III (Pob.)", "district": null, "municity": "Pavia", "province": "Iloilo", "facebook": "https://www.facebook.com/WesGaz-LPG-Center-102912791498283/", "url": null, "entry fee": null, "open time": "08:00", "closing time": "17:00" }, "geometry": { "type": "Point", "coordinates": [ 122.54287, 10.77419 ] } },
{ "type": "Feature", "properties": { "name": "Fiesta Gas", "category": "Economy", "type": "Utilities", "address": "QGFV+X24, Hedriana St, Pavia, Iloilo", "contact_mobile": 9190810205, "contact_landline": null, "email": null, "barangay": "Purok III (Pob.)", "district": null, "municity": "Pavia", "province": "Iloilo", "facebook": null, "url": null, "entry fee": null, "open time": "08:30", "closing time": "17:30" }, "geometry": { "type": "Point", "coordinates": [ 122.54258, 10.77487 ] } },
{ "type": "Feature", "properties": { "name": "Dellota Construction & Supply", "category": "Economy", "type": "Construction", "address": "QGCQ+J6 Rooster Village Game Farm, 146 Gonzaga St, Pavia, Iloilo", "contact_mobile": null, "contact_landline": null, "email": null, "barangay": "Purok IV (Pob.)", "district": null, "municity": "Pavia", "province": "Iloilo", "facebook": null, "url": null, "entry fee": null, "open time": null, "closing time": null }, "geometry": { "type": "Point", "coordinates": [ 122.53802, 10.77163 ] } },
{ "type": "Feature", "properties": { "name": "TSD WATER REFILLING STATION", "category": "Economy", "type": "Utilities", "address": "QGQQ+9F Sitio Red Fox Road, Pavia, Iloilo", "contact_mobile": 9177996442, "contact_landline": null, "email": null, "barangay": "Cabugao Sur", "district": null, "municity": "Pavia", "province": "Iloilo", "facebook": "https://web.facebook.com/p/TSD-WATER-Refilling-Station-100054235820448/?_rdc=1&_rdr", "url": null, "entry fee": null, "open time": "07:00", "closing time": "17:00" }, "geometry": { "type": "Point", "coordinates": [ 122.53869, 10.78842 ] } },
{ "type": "Feature", "properties": { "name": "Laloy's Furniture Shop", "category": "Economy", "type": "Manufacturing", "address": "QGWM+6M6, Pavia, Iloilo", "contact_mobile": 9277322511, "contact_landline": null, "email": null, "barangay": "Cabugao Sur", "district": null, "municity": "Pavia", "province": "Iloilo", "facebook": "https://www.facebook.com/share/7KSZaPFU6YouFd95/?mibextid=qi2Omg", "url": null, "entry fee": null, "open time": "08:00", "closing time": "17:00" }, "geometry": { "type": "Point", "coordinates": [ 122.53417, 10.79556 ] } },
{ "type": "Feature", "properties": { "name": "Lovefeeds, New Panay Agri-Ventures Dev't., Inc.", "category": "Economy", "type": "Agriculture", "address": "QGPP+6W Pavia, 5001 Iloilo", "contact_mobile": null, "contact_landline": 333295881, "email": null, "barangay": "Cabugao Sur", "district": null, "municity": "Pavia", "province": "Iloilo", "facebook": null, "url": "https://www.lovefeeds.com.ph/", "entry fee": null, "open time": "08:00", "closing time": "17:00" }, "geometry": { "type": "Point", "coordinates": [ 122.53732, 10.78552 ] } },
{ "type": "Feature", "properties": { "name": "Hannah Poultry Farm - Iloilo City", "category": "Economy", "type": "Agriculture", "address": "QGPH+V7 Amparo, Pavia, 5001 Iloilo", "contact_mobile": 9103605369, "contact_landline": null, "email": "hannahpoultyilo@gmail.com", "barangay": "Mali-ao", "district": null, "municity": "Pavia", "province": "Iloilo", "facebook": "https://www.facebook.com/hannahpoultryilo", "url": null, "entry fee": null, "open time": "09:00", "closing time": "16:00" }, "geometry": { "type": "Point", "coordinates": [ 122.52869, 10.7903 ] } },
{ "type": "Feature", "properties": { "name": "BMEG Pavia Plant San Miguel Foods, Inc.", "category": "Economy", "type": "Agriculture", "address": "QGHP+6W 129 Evangelista St, Pavia, 5001 Iloilo", "contact_mobile": null, "contact_landline": null, "email": null, "barangay": "Mali-ao", "district": null, "municity": "Pavia", "province": "Iloilo", "facebook": null, "url": null, "entry fee": null, "open time": null, "closing time": null }, "geometry": { "type": "Point", "coordinates": [ 122.53735, 10.77811 ] } },
{ "type": "Feature", "properties": { "name": "Kimwa Iloilo Construction Development Corporation", "category": "Economy", "type": "Construction", "address": "QGJP+QQ3, Pavia, Iloilo", "contact_mobile": 9998852965, "contact_landline": null, "email": null, "barangay": "Mali-ao", "district": null, "municity": "Pavia", "province": "Iloilo", "facebook": "https://web.facebook.com/profile.php?id=648744495226549&_rdc=1&_rdr", "url": null, "entry fee": null, "open time": "08:00", "closing time": "17:00" }, "geometry": { "type": "Point", "coordinates": [ 122.53692, 10.7819 ] } },
{ "type": "Feature", "properties": { "name": "Cad printing", "category": "Economy", "type": "Media", "address": "QGGP+4FF, barrio road Highway, Pavia, 5001 Iloilo", "contact_mobile": 9914203994, "contact_landline": null, "email": null, "barangay": "Mali-ao", "district": null, "municity": "Pavia", "province": "Iloilo", "facebook": null, "url": null, "entry fee": null, "open time": "08:00", "closing time": "19:00" }, "geometry": { "type": "Point", "coordinates": [ 122.53619, 10.77531 ] } },
{ "type": "Feature", "properties": { "name": "Panay News, Incorporated", "category": "Economy", "type": "Media", "address": "QGHP+7G Panay News Complex, Pavia, 5001 Iloilo", "contact_mobile": null, "contact_landline": 335022645, "email": "editorial.panaynews@gmail.com", "barangay": "Mali-ao", "district": null, "municity": "Pavia", "province": "Iloilo", "facebook": "https://web.facebook.com/PanayNews/?_rdc=1&_rdr", "url": "http://www.panaynews.net/", "entry fee": null, "open time": "09:00", "closing time": "18:00" }, "geometry": { "type": "Point", "coordinates": [ 122.53639, 10.7782 ] } },
{ "type": "Feature", "properties": { "name": "Zach Water Refilling Station", "category": "Economy", "type": "Utilities", "address": "QGJQ+38 134 Evangelista St, Pavia, Iloilo", "contact_mobile": null, "contact_landline": 333201289, "email": null, "barangay": "Purok I (Pob.)", "district": null, "municity": "Pavia", "province": "Iloilo", "facebook": null, "url": null, "entry fee": null, "open time": "06:00", "closing time": "18:00" }, "geometry": { "type": "Point", "coordinates": [ 122.53831, 10.78015 ] } },
{ "type": "Feature", "properties": { "name": "Artsign Pavia Printing Services & Party Needs", "category": "Economy", "type": "Media", "address": "QGHQ+M9 Evangelista St, Iloilo City, 5001 Iloilo", "contact_mobile": 9103390793, "contact_landline": null, "email": "artsignpavia06003@gmail.com", "barangay": "Purok II (Pob.)", "district": null, "municity": "Pavia", "province": "Iloilo", "facebook": "https://web.facebook.com/people/Artsign-Pavia-Printing-Services/100072085020027/?_rdc=1&_rdr", "url": null, "entry fee": null, "open time": "08:00", "closing time": "17:30" }, "geometry": { "type": "Point", "coordinates": [ 122.53843, 10.77923 ] } },
{ "type": "Feature", "properties": { "name": "R&L Water Refilling Station", "category": "Economy", "type": "Utilities", "address": "QGFQ+XRH, Pavia, Iloilo", "contact_mobile": null, "contact_landline": null, "email": null, "barangay": "Purok II (Pob.)", "district": null, "municity": "Pavia", "province": "Iloilo", "facebook": null, "url": null, "entry fee": null, "open time": "07:30", "closing time": "19:30" }, "geometry": { "type": "Point", "coordinates": [ 122.53963, 10.77497 ] } }
]
}
