{
"type": "FeatureCollection",
"name": "ECONOMY_LEGANES_POIs_Insights",
"crs": { "type": "name", "properties": { "name": "urn:ogc:def:crs:OGC:1.3:CRS84" } },
"features": [
{ "type": "Feature", "properties": { "name": "F&M Printing Press", "category": null, "type": "Media", "address": "RH2C+FJR, Leganes, 5003 Iloilo", "contact_mobile": null, "contact_landline": null, "email": null, "barangay": "Lapayon", "district": null, "municity": "Iloilo City", "province": "Iloilo", "facebook": null, "url": null, "entry fee": null, "open time": null, "closing time": null }, "geometry": { "type": "Point", "coordinates": [ 122.57151, 10.80124 ] } },
{ "type": "Feature", "properties": { "name": "G. UY CONSTRUCTION", "category": null, "type": "Construction", "address": "QHPJ+VC Santa Barbara - Leganes Rd, Leganes, Iloilo", "contact_mobile": null, "contact_landline": null, "email": "g.uyconstruction@yahoo.com", "barangay": "San Vicente", "district": null, "municity": "Leganes", "province": "Iloilo", "facebook": "https://web.facebook.com/p/GUY-Construction-100054365717611/?_rdc=1&_rdr", "url": null, "entry fee": null, "open time": null, "closing time": null }, "geometry": { "type": "Point", "coordinates": [ 122.58111, 10.78725 ] } },
{ "type": "Feature", "properties": { "name": "RL Royal Prime Construction Company Leganes", "category": null, "type": "Construction", "address": "QHJF+XFR, Iloilo Radial By-Pass Rd 4, Leganes, 5000 Iloilo", "contact_mobile": 9992247540, "contact_landline": null, "email": null, "barangay": "Guihaman", "district": null, "municity": "Leganes", "province": "Iloilo", "facebook": "http://fb.com/rlroyalprimeconst", "url": null, "entry fee": null, "open time": "08:00:00", "closing time": "17:00:00" }, "geometry": { "type": "Point", "coordinates": [ 122.57358, 10.78258 ] } },
{ "type": "Feature", "properties": { "name": "Pabar Woodcraft", "category": null, "type": "Manufacturing", "address": "QHFM+QVM, Jaro, Iloilo City, 5003 Iloilo", "contact_mobile": null, "contact_landline": 333294910, "email": null, "barangay": "Guihaman", "district": null, "municity": "Leganes", "province": "Iloilo", "facebook": "https://www.facebook.com/pabarwoodcraft.panes", "url": null, "entry fee": null, "open time": "08:00:00", "closing time": "17:00:00" }, "geometry": { "type": "Point", "coordinates": [ 122.58639, 10.77792 ] } },
{ "type": "Feature", "properties": { "name": "Catamin Rice Mill", "category": null, "type": "Agriculture", "address": "QHHJ+W6 Calamaisan Road, Leganes, 5002 Iloilo", "contact_mobile": 9192293939, "contact_landline": null, "email": null, "barangay": "Guihaman", "district": null, "municity": "Leganes", "province": "Iloilo", "facebook": null, "url": null, "entry fee": null, "open time": "08:00:00", "closing time": "18:00:00" }, "geometry": { "type": "Point", "coordinates": [ 122.5806, 10.77988 ] } },
{ "type": "Feature", "properties": { "name": "GGS Rice Mill", "category": null, "type": "Agriculture", "address": "QHJH+3QJ, Leganes, Iloilo", "contact_mobile": 9988899670, "contact_landline": null, "email": null, "barangay": "Guihaman", "district": null, "municity": "Leganes", "province": "Iloilo", "facebook": null, "url": null, "entry fee": null, "open time": null, "closing time": null }, "geometry": { "type": "Point", "coordinates": [ 122.57939, 10.78023 ] } },
{ "type": "Feature", "properties": { "name": "Japitana Rice Mill", "category": null, "type": "Agriculture", "address": "QHHH+XQW, Leganes, Iloilo", "contact_mobile": null, "contact_landline": null, "email": null, "barangay": "Guihaman", "district": null, "municity": "Leganes", "province": "Iloilo", "facebook": null, "url": null, "entry fee": null, "open time": null, "closing time": null }, "geometry": { "type": "Point", "coordinates": [ 122.57947, 10.78002 ] } },
{ "type": "Feature", "properties": { "name": "MJ STONE WORLD BUILDERS CORPORATION", "category": null, "type": "Construction", "address": "QHJP+57 Glenville Subdivision, Iloilo R4 Rd, Leganes, Iloilo", "contact_mobile": null, "contact_landline": 335241002, "email": "mjstoneworldbuilders@gmail.com", "barangay": "Guihaman", "district": null, "municity": "Leganes", "province": "Iloilo", "facebook": "https://web.facebook.com/p/MJ-Stone-World-Builders-100063881894998/?_rdc=1&_rdr", "url": null, "entry fee": null, "open time": "08:00:00", "closing time": "17:00:00" }, "geometry": { "type": "Point", "coordinates": [ 122.58557, 10.78051 ] } },
{ "type": "Feature", "properties": { "name": "Sb Agri Supply", "category": null, "type": "Agriculture", "address": "QHPQ+G8H, Santa Barbara - Leganes Rd, Leganes, Iloilo", "contact_mobile": null, "contact_landline": null, "email": null, "barangay": "Poblacion", "district": null, "municity": "Leganes", "province": "Iloilo", "facebook": "https://www.facebook.com/profile.php?id=100089848567469", "url": null, "entry fee": null, "open time": null, "closing time": null }, "geometry": { "type": "Point", "coordinates": [ 122.58836, 10.78633 ] } },
{ "type": "Feature", "properties": { "name": "PRYCEGAS Leganes", "category": null, "type": "Utilities", "address": "QHPQ+C6 Lopez Arcade, Brgy. Poblacion, Leganes, Iloilo", "contact_mobile": 9631332084, "contact_landline": null, "email": null, "barangay": "Poblacion", "district": null, "municity": "Leganes", "province": "Iloilo", "facebook": "https://web.facebook.com/people/Prycegas-Leganes/61567179553319/?_rdc=1&_rdr", "url": null, "entry fee": null, "open time": null, "closing time": null }, "geometry": { "type": "Point", "coordinates": [ 122.58805, 10.78604 ] } },
{ "type": "Feature", "properties": { "name": "New Hydrax Agro-Vet Supply", "category": null, "type": "Agriculture", "address": "QHPQ+PQ Leganes Commercial Complex, Gustillo St., Poblacion, Leganes, Iloilo City, 5003 Iloilo", "contact_mobile": null, "contact_landline": 333212950, "email": null, "barangay": "Poblacion", "district": null, "municity": "Leganes", "province": "Iloilo", "facebook": null, "url": null, "entry fee": null, "open time": "07:00:00", "closing time": "18:00:00" }, "geometry": { "type": "Point", "coordinates": [ 122.58897, 10.78798 ] } },
{ "type": "Feature", "properties": { "name": "Danny Rice mill", "category": null, "type": "Agriculture", "address": "QHMM+RXG, Leganes, Iloilo", "contact_mobile": 9052854433, "contact_landline": null, "email": null, "barangay": "Poblacion", "district": null, "municity": "Leganes", "province": "Iloilo", "facebook": null, "url": null, "entry fee": null, "open time": null, "closing time": null }, "geometry": { "type": "Point", "coordinates": [ 122.5849, 10.78461 ] } },
{ "type": "Feature", "properties": { "name": "R Espino Poultry Supply", "category": null, "type": "Agriculture", "address": "QHPQ+PV Leganes Commercial Complex, Leganes, 5003 Iloilo", "contact_mobile": 9487887361, "contact_landline": null, "email": null, "barangay": "Poblacion", "district": null, "municity": "Leganes", "province": "Iloilo", "facebook": "https://www.facebook.com/ritce.r.espinops", "url": null, "entry fee": null, "open time": "06:00:00", "closing time": "18:00:00" }, "geometry": { "type": "Point", "coordinates": [ 122.58967, 10.78687 ] } },
{ "type": "Feature", "properties": { "name": "NIÑO V AGRI SUPPLY", "category": null, "type": "Agriculture", "address": "QHMR+GQ Sitio Bulangan, Calle Progreso, Leganes, 5003 Iloilo", "contact_mobile": null, "contact_landline": null, "email": null, "barangay": "Poblacion", "district": null, "municity": "Leganes", "province": "Iloilo", "facebook": null, "url": null, "entry fee": null, "open time": null, "closing time": null }, "geometry": { "type": "Point", "coordinates": [ 122.59193, 10.78381 ] } },
{ "type": "Feature", "properties": { "name": "JITS Construction Corp", "category": null, "type": "Construction", "address": "QHPQ+36V, Jaro, Leganes, Iloilo", "contact_mobile": null, "contact_landline": null, "email": null, "barangay": "Poblacion", "district": null, "municity": "Iloilo City", "province": "Iloilo", "facebook": null, "url": null, "entry fee": null, "open time": null, "closing time": null }, "geometry": { "type": "Point", "coordinates": [ 122.58807, 10.78523 ] } },
{ "type": "Feature", "properties": { "name": "TQM Construction", "category": null, "type": "Construction", "address": "QHMR+JJ 044 Calle Progreso, Leganes, 5003 Iloilo", "contact_mobile": null, "contact_landline": 333294671, "email": "tqmcciloilo@yahoo.com", "barangay": "Poblacion", "district": null, "municity": "Leganes", "province": "Iloilo", "facebook": "https://web.facebook.com/p/TQM-Construction-Corporation-100057404561212/?_rdc=1&_rdr", "url": null, "entry fee": null, "open time": null, "closing time": null }, "geometry": { "type": "Point", "coordinates": [ 122.59155, 10.78406 ] } },
{ "type": "Feature", "properties": { "name": "Anacita Water Refilling Station", "category": null, "type": "Utilities", "address": "QHJQ+8M Block 3 Lot 1 & 2 Phase 2, Glenville Subdivision, Leganes, Iloilo", "contact_mobile": null, "contact_landline": null, "email": "anacitawatersupplies@gmail.com", "barangay": "Poblacion", "district": null, "municity": "Leganes", "province": "Iloilo", "facebook": "https://web.facebook.com/Anacitaaqutech.17/?_rdc=1&_rdr", "url": null, "entry fee": null, "open time": null, "closing time": null }, "geometry": { "type": "Point", "coordinates": [ 122.58914, 10.78083 ] } },
{ "type": "Feature", "properties": { "name": "ST. JOHN water Refilling station", "category": null, "type": "Utilities", "address": "QHRV+MG lot 5 block 19 Villa feliza Subd, Leganes, Iloilo", "contact_mobile": 9995107690, "contact_landline": null, "email": null, "barangay": "Cagamutan Sur", "district": null, "municity": "Leganes", "province": "Iloilo", "facebook": null, "url": null, "entry fee": null, "open time": null, "closing time": null }, "geometry": { "type": "Point", "coordinates": [ 122.59383, 10.79168 ] } },
{ "type": "Feature", "properties": { "name": "R.A.G. Water Refilling Station", "category": null, "type": "Utilities", "address": "QHQW+27F, Unnamed Road, Leganes, Iloilo", "contact_mobile": null, "contact_landline": null, "email": null, "barangay": "Cari Minor", "district": null, "municity": "Leganes", "province": "Iloilo", "facebook": null, "url": null, "entry fee": null, "open time": null, "closing time": null }, "geometry": { "type": "Point", "coordinates": [ 122.59568, 10.78755 ] } },
{ "type": "Feature", "properties": { "name": "Susvilla Bldg - Construction & Real Estate Services", "category": null, "type": "Construction", "address": "QHPX+HV Guinobatan, Leganes, Iloilo, 5003 Iloilo", "contact_mobile": 9480442196, "contact_landline": null, "email": null, "barangay": "Cari Minor", "district": null, "municity": "Leganes", "province": "Iloilo", "facebook": "https://web.facebook.com/jlsusvilla/?_rdc=1&_rdr", "url": null, "entry fee": null, "open time": "08:00:00", "closing time": "19:00:00" }, "geometry": { "type": "Point", "coordinates": [ 122.59969, 10.7864 ] } },
{ "type": "Feature", "properties": { "name": "Restia Rice Milling Corp.", "category": null, "type": "Agriculture", "address": "RH3R+V2M, Calaboa, Iloilo", "contact_mobile": null, "contact_landline": null, "email": null, "barangay": "Calaboa", "district": null, "municity": "Leganes", "province": "Iloilo", "facebook": null, "url": null, "entry fee": null, "open time": null, "closing time": null }, "geometry": { "type": "Point", "coordinates": [ 122.59021, 10.80522 ] } },
{ "type": "Feature", "properties": { "name": "LG Eggie Poultry Supply", "category": null, "type": "Agriculture", "address": "QHXV+8V Jaro, Leganes, Iloilo", "contact_mobile": null, "contact_landline": 3374272, "email": null, "barangay": "Cagamutan Norte", "district": null, "municity": "Leganes", "province": "Iloilo", "facebook": null, "url": null, "entry fee": null, "open time": null, "closing time": null }, "geometry": { "type": "Point", "coordinates": [ 122.59465, 10.79833 ] } },
{ "type": "Feature", "properties": { "name": "Kingfields", "category": null, "type": "Agriculture", "address": "QJF2+Q6J, Coastal Road, Leganes, 5000 Iloilo", "contact_mobile": 9216820212, "contact_landline": null, "email": "sales@kingfieldstradeinc.com", "barangay": "M.V. Hechanova", "district": null, "municity": "Leganes", "province": "Iloilo", "facebook": "https://www.facebook.com/kingfieldstrade", "url": "kingfieldstradeinc.com", "entry fee": null, "open time": null, "closing time": null }, "geometry": { "type": "Point", "coordinates": [ 122.60051, 10.77446 ] } },
{ "type": "Feature", "properties": { "name": "MR. QUBE ICE PLANT CORPORATION", "category": null, "type": "Utilities", "address": "QJC3+RFQ, Iloilo City, 5003 Iloilo", "contact_mobile": 9391937502, "contact_landline": null, "email": null, "barangay": "M.V. Hechanova", "district": null, "municity": "Iloilo City", "province": "Iloilo", "facebook": null, "url": null, "entry fee": null, "open time": "08:00:00", "closing time": "17:00:00" }, "geometry": { "type": "Point", "coordinates": [ 122.60373, 10.7721 ] } },
{ "type": "Feature", "properties": { "name": "ALON Water Refilling Station", "category": null, "type": "Utilities", "address": "QH7R+GV Zone 2, Jaro, Leganes, 5003 Iloilo", "contact_mobile": 9175903435, "contact_landline": null, "email": null, "barangay": "Guintas", "district": null, "municity": "Leganes", "province": "Iloilo", "facebook": "https://www.facebook.com/ALONWaterRefillingStation", "url": null, "entry fee": null, "open time": "07:00:00", "closing time": "18:00:00" }, "geometry": { "type": "Point", "coordinates": [ 122.59222, 10.764 ] } },
{ "type": "Feature", "properties": { "name": "SUREFIRE FARM", "category": null, "type": "Agriculture", "address": "QHCR+9X brgy guintas road, Leganes, 5000 Iloilo", "contact_mobile": null, "contact_landline": null, "email": null, "barangay": "Guintas", "district": null, "municity": "Leganes", "province": "Iloilo", "facebook": "https://www.facebook.com/profile.php?id=100063926890040", "url": null, "entry fee": null, "open time": null, "closing time": null }, "geometry": { "type": "Point", "coordinates": [ 122.5924, 10.77102 ] } },
{ "type": "Feature", "properties": { "name": "Nutrifeed Agriventures", "category": null, "type": "Agriculture", "address": "QJQJ+3M8, Leganes, Iloilo", "contact_mobile": null, "contact_landline": null, "email": null, "barangay": "Nabitasan", "district": null, "municity": "Leganes", "province": "Iloilo", "facebook": null, "url": null, "entry fee": null, "open time": "08:00:00", "closing time": "17:00:00" }, "geometry": { "type": "Point", "coordinates": [ 122.63219, 10.78785 ] } },
{ "type": "Feature", "properties": { "name": "101.1 K3 FM Leganes", "category": null, "type": "Media", "address": "QJMJ+CMH, P Jaen Sr, Leganes, Iloilo", "contact_mobile": null, "contact_landline": null, "email": null, "barangay": "Nabitasan", "district": null, "municity": "Leganes", "province": "Iloilo", "facebook": null, "url": null, "entry fee": null, "open time": "04:00:00", "closing time": "00:00:00" }, "geometry": { "type": "Point", "coordinates": [ 122.63176, 10.78355 ] } }
]
}
