{
"type": "FeatureCollection",
"name": "ECONOMY_CABATUAN_POIs_Insights",
"crs": { "type": "name", "properties": { "name": "urn:ogc:def:crs:OGC:1.3:CRS84" } },
"features": [
{ "type": "Feature", "properties": { "name": "3I And 3M Rice Mill", "category": "Economy", "type": "Agriculture", "address": "VFPX+WC Cabatuan, Iloilo", "contact_mobile": null, "contact_landline": null, "email": null, "barangay": "Leong", "district": null, "municity": "Cabatuan", "province": "Iloilo", "facebook": null, "url": null, "entry fee": null, "open time": null, "closing time": null }, "geometry": { "type": "Point", "coordinates": [ 122.49869, 10.88775 ] } },
{ "type": "Feature", "properties": { "name": "Titoy Poultry Supply", "category": "Economy", "type": "Agriculture", "address": "RFGM+PC2, Cabatuan, Iloilo", "contact_mobile": null, "contact_landline": null, "email": null, "barangay": "Manguna", "district": null, "municity": "Cabatuan", "province": "Iloilo", "facebook": null, "url": null, "entry fee": null, "open time": null, "closing time": null }, "geometry": { "type": "Point", "coordinates": [ 122.48352, 10.82677 ] } },
{ "type": "Feature", "properties": { "name": "AYA AGRI SUPPLY", "category": "Economy", "type": "Agriculture", "address": "Cabatuan Bypass Road, Cabatuan, Iloilo", "contact_mobile": null, "contact_landline": null, "email": null, "barangay": "Banguit", "district": null, "municity": "Cabatuan", "province": "Iloilo", "facebook": null, "url": null, "entry fee": null, "open time": null, "closing time": null }, "geometry": { "type": "Point", "coordinates": [ 122.49335, 10.87641 ] } },
{ "type": "Feature", "properties": { "name": "JAREX FULL SUBLIMATION", "category": "Economy", "type": "Media", "address": "VG35+W3 Cabatuan, 5031 Iloilo", "contact_mobile": 9454538577, "contact_landline": null, "email": null, "barangay": "Tiring", "district": null, "municity": "Cabatuan", "province": "Iloilo", "facebook": null, "url": null, "entry fee": null, "open time": "09:30:00", "closing time": "17:00:00" }, "geometry": { "type": "Point", "coordinates": [ 122.50774, 10.85476 ] } },
{ "type": "Feature", "properties": { "name": "Sustiguer Rice mill", "category": "Economy", "type": "Agriculture", "address": "VG9G+MF6, Jaro, Cabatuan, Iloilo", "contact_mobile": null, "contact_landline": null, "email": null, "barangay": "Cadoldolan", "district": null, "municity": "Cabatuan", "province": "Iloilo", "facebook": null, "url": null, "entry fee": null, "open time": null, "closing time": null }, "geometry": { "type": "Point", "coordinates": [ 122.52617, 10.86916 ] } },
{ "type": "Feature", "properties": { "name": "SVDP AGRIVET SUPPLY", "category": "Economy", "type": "Agriculture", "address": "VF8X+7QV, Old Iloilo - Capiz Rd, Cabatuan, Iloilo", "contact_mobile": 9454831654, "contact_landline": null, "email": "joesitmacadagum121383@gmail.com", "barangay": "Tabucan", "district": null, "municity": "Cabatuan", "province": "Iloilo", "facebook": "https://www.facebook.com/SVDPAgrivetSupply", "url": null, "entry fee": null, "open time": null, "closing time": null }, "geometry": { "type": "Point", "coordinates": [ 122.49944, 10.86575 ] } },
{ "type": "Feature", "properties": { "name": "AQUABLUE OCEANPURIFIED WATER REFILLING STATION Powered by AQUA SURE", "category": "Economy", "type": "Utilities", "address": "VG92+XW Bliss, Cabatuan, 5031 Iloilo", "contact_mobile": 9199519251, "contact_landline": null, "email": null, "barangay": "Pungtod", "district": null, "municity": "Cabatuan", "province": "Iloilo", "facebook": null, "url": null, "entry fee": null, "open time": "07:00:00", "closing time": "17:00:00" }, "geometry": { "type": "Point", "coordinates": [ 122.50231, 10.8699 ] } },
{ "type": "Feature", "properties": { "name": "E.O.M Bokbok Stand Cabatuan Public Market", "category": "Economy", "type": "Agriculture", "address": "Zone 3, VFHJ+CRQ Cabatuan Public Market, Cabatuan, Iloilo", "contact_mobile": null, "contact_landline": null, "email": null, "barangay": "Poblacion", "district": null, "municity": "Cabatuan", "province": "Iloilo", "facebook": null, "url": null, "entry fee": null, "open time": "08:00:00", "closing time": "17:00:00" }, "geometry": { "type": "Point", "coordinates": [ 122.48246, 10.87867 ] } },
{ "type": "Feature", "properties": { "name": "K&M Rice and Feeds Store", "category": "Economy", "type": "Agriculture", "address": "VFHM+59G, Rizal Ilaya Cabatuan, Iloilo", "contact_mobile": 9612730395, "contact_landline": null, "email": null, "barangay": "Poblacion", "district": null, "municity": "Cabatuan", "province": "Iloilo", "facebook": null, "url": null, "entry fee": null, "open time": "06:30:00", "closing time": "17:30:00" }, "geometry": { "type": "Point", "coordinates": [ 122.4834, 10.87799 ] } },
{ "type": "Feature", "properties": { "name": "Prints by Zypher", "category": "Economy", "type": "Media", "address": "VFHM+P7Q Mijares Bldg, Magallon Street, Cabatuan, Iloilo", "contact_mobile": 9464525596, "contact_landline": null, "email": "zypherprints@gmail.com", "barangay": "Poblacion", "district": null, "municity": "Cabatuan", "province": "Iloilo", "facebook": "https://web.facebook.com/printsbyzypher/photos/?_rdc=1&_rdr", "url": null, "entry fee": null, "open time": "08:00:00", "closing time": "17:00:00" }, "geometry": { "type": "Point", "coordinates": [ 122.48321, 10.87934 ] } },
{ "type": "Feature", "properties": { "name": "Ellel Print And Photo Copy Cargo Logistic", "category": "Economy", "type": "Media", "address": "VFJM+23F, Confesor Dr, Cabatuan, Iloilo", "contact_mobile": null, "contact_landline": null, "email": null, "barangay": "Poblacion", "district": null, "municity": "Cabatuan", "province": "Iloilo", "facebook": null, "url": null, "entry fee": null, "open time": null, "closing time": null }, "geometry": { "type": "Point", "coordinates": [ 122.4827, 10.88009 ] } },
{ "type": "Feature", "properties": { "name": "Lakeview Waterplus Refilling Station", "category": "Economy", "type": "Utilities", "address": "VFMP+6F Mijares Building, Old Iloilo - Capiz Rd, Cabatuan, Iloilo", "contact_mobile": 9664290326, "contact_landline": null, "email": null, "barangay": "Ayaman", "district": null, "municity": "Cabatuan", "province": "Iloilo", "facebook": "https://web.facebook.com/lakeview.waterplus.2024/", "url": null, "entry fee": null, "open time": "07:00:00", "closing time": "17:00:00" }, "geometry": { "type": "Point", "coordinates": [ 122.48613, 10.88304 ] } },
{ "type": "Feature", "properties": { "name": "Nemdar Agricultural Supply", "category": "Economy", "type": "Agriculture", "address": "VFHJ+GP Cabatuan Apostle's Cooperative, 15 Rizal Ilawod St, Cabatuan, Iloilo", "contact_mobile": null, "contact_landline": null, "email": null, "barangay": "Poblacion", "district": null, "municity": "Cabatuan", "province": "Iloilo", "facebook": null, "url": null, "entry fee": null, "open time": null, "closing time": null }, "geometry": { "type": "Point", "coordinates": [ 122.48179, 10.87888 ] } },
{ "type": "Feature", "properties": { "name": "Fultank corporation cabatuan branch", "category": "Economy", "type": "Utilities", "address": "VFGM+XJ6, Cabatuan, Iloilo", "contact_mobile": null, "contact_landline": null, "email": null, "barangay": "Poblacion", "district": null, "municity": "Cabatuan", "province": "Iloilo", "facebook": null, "url": null, "entry fee": null, "open time": null, "closing time": null }, "geometry": { "type": "Point", "coordinates": [ 122.48403, 10.87742 ] } },
{ "type": "Feature", "properties": { "name": "Gazlite Cabatuan", "category": "Economy", "type": "Utilities", "address": "VFMP+GG Iloilo City, 5031 Iloilo", "contact_mobile": 9186486413, "contact_landline": null, "email": null, "barangay": "Ayaman", "district": null, "municity": "Cabatuan", "province": "Iloilo", "facebook": "https://web.facebook.com/p/Cabanatuan-Gaz-lite-100063959682931/?_rdc=1&_rdr", "url": null, "entry fee": null, "open time": "09:00:00", "closing time": "19:00:00" }, "geometry": { "type": "Point", "coordinates": [ 122.48631, 10.88386 ] } },
{ "type": "Feature", "properties": { "name": "Fiesta Gas", "category": "Economy", "type": "Utilities", "address": "VFHJ+6R9, Rizal Ilawod St, Cabatuan, Iloilo", "contact_mobile": 9479963935, "contact_landline": null, "email": null, "barangay": "Poblacion", "district": null, "municity": "Cabatuan", "province": "Iloilo", "facebook": "https://web.facebook.com/fiestagasfulltank/photos/d41d8cd9/675874025244551/?_rdc=1&_rdr", "url": null, "entry fee": null, "open time": null, "closing time": null }, "geometry": { "type": "Point", "coordinates": [ 122.48212, 10.87802 ] } },
{ "type": "Feature", "properties": { "name": "Ngny Agri Products And Supply", "category": "Economy", "type": "Agriculture", "address": "VFHM+R7W, Confesor Dr, Cabatuan, Iloilo", "contact_mobile": null, "contact_landline": null, "email": null, "barangay": "Poblacion", "district": null, "municity": "Cabatuan", "province": "Iloilo", "facebook": null, "url": null, "entry fee": null, "open time": null, "closing time": null }, "geometry": { "type": "Point", "coordinates": [ 122.48321, 10.87961 ] } },
{ "type": "Feature", "properties": { "name": "Gonzales Agri Supply 2", "category": "Economy", "type": "Agriculture", "address": "VFJJ+555, PC Barracks Rd, Cabatuan, Iloilo", "contact_mobile": null, "contact_landline": null, "email": null, "barangay": "Poblacion", "district": null, "municity": "Guimaras", "province": "Iloilo", "facebook": null, "url": null, "entry fee": null, "open time": null, "closing time": null }, "geometry": { "type": "Point", "coordinates": [ 122.48044, 10.88036 ] } },
{ "type": "Feature", "properties": { "name": "Nahum's Agrivet Supply", "category": "Economy", "type": "Agriculture", "address": "VFP5+2X Cabatuan, 5031 Iloilo", "contact_mobile": 9213648392, "contact_landline": null, "email": null, "barangay": "Bacan", "district": null, "municity": "Cabatuan", "province": "Iloilo", "facebook": "https://www.facebook.com/profile.php?id=100066363559142", "url": null, "entry fee": null, "open time": "06:00:00", "closing time": "18:00:00" }, "geometry": { "type": "Point", "coordinates": [ 122.45996, 10.88511 ] } },
{ "type": "Feature", "properties": { "name": "ARGE Printshop", "category": "Economy", "type": "Media", "address": "VFP6+66 Cabatuan, Iloilo", "contact_mobile": 9178596645, "contact_landline": null, "email": "argeprintshop@gmail.com", "barangay": "Bacan", "district": null, "municity": "Cabatuan", "province": "Iloilo", "facebook": "https://web.facebook.com/argeprintshop/?_rdc=1&_rdr", "url": null, "entry fee": null, "open time": "09:00:00", "closing time": "17:00:00" }, "geometry": { "type": "Point", "coordinates": [ 122.46051, 10.8856 ] } },
{ "type": "Feature", "properties": { "name": "3J Advertising Services", "category": "Economy", "type": "Media", "address": "VFP7+36J, Cabatuan, Iloilo", "contact_mobile": 9467085894, "contact_landline": null, "email": "3j_ads2024@gmail.com", "barangay": "Bacan", "district": null, "municity": "Cabatuan", "province": "Iloilo", "facebook": "https://www.facebook.com/3j.ads", "url": null, "entry fee": null, "open time": "08:00:00", "closing time": "19:00:00" }, "geometry": { "type": "Point", "coordinates": [ 122.46301, 10.88523 ] } },
{ "type": "Feature", "properties": { "name": "Onyok Construction And Supply", "category": "Economy", "type": "Construction", "address": "RGX8+CXX, Old Iloilo - Capiz Rd, Cabatuan, Iloilo", "contact_mobile": null, "contact_landline": null, "email": null, "barangay": "Talanghauan", "district": null, "municity": "Cabatuan", "province": "Iloilo", "facebook": null, "url": null, "entry fee": null, "open time": null, "closing time": null }, "geometry": { "type": "Point", "coordinates": [ 122.51747, 10.84862 ] } }
]
}
