{
"type": "FeatureCollection",
"name": "ECONOMY_OTON_POIs_Insights",
"crs": { "type": "name", "properties": { "name": "urn:ogc:def:crs:OGC:1.3:CRS84" } },
"features": [
{ "type": "Feature", "properties": { "name": "KKV'S WATER REFILLING STATION", "category": "Economy", "type": "Utilities", "address": "PFQX+44 Abilay Norte Oton, Iloilo, 5020 Iloilo", "contact_mobile": 9124701217, "contact_landline": null, "email": null, "barangay": "Abilay Norte", "district": null, "municity": "Oton", "province": "Iloilo", "facebook": null, "url": null, "entry fee": null, "open time": "07:00", "closing time": "18:00" }, "geometry": { "type": "Point", "coordinates": [ 122.4978, 10.73789 ] } },
{ "type": "Feature", "properties": { "name": "Tres-Fuerzas Co.", "category": "Economy", "type": "Construction", "address": "QF2Q+VJP Brgy, Santa Barbara Road, Oton, 5020 Iloilo", "contact_mobile": 9778833323, "contact_landline": null, "email": null, "barangay": "Abilay Norte", "district": null, "municity": "Oton", "province": "Iloilo", "facebook": null, "url": null, "entry fee": null, "open time": "08:00", "closing time": "17:00" }, "geometry": { "type": "Point", "coordinates": [ 122.48909, 10.75227 ] } },
{ "type": "Feature", "properties": { "name": "Master Furniture", "category": "Economy", "type": "Manufacturing", "address": "PGW2+W7 Block 4 Lot 7, Savannah Glen, E2, Oton, 5020 Iloilo", "contact_mobile": 9088848505, "contact_landline": null, "email": null, "barangay": "Abilay Norte", "district": null, "municity": "Oton", "province": "Iloilo", "facebook": null, "url": null, "entry fee": null, "open time": "Open 24 hours", "closing time": "Open 24 hours" }, "geometry": { "type": "Point", "coordinates": [ 122.50067, 10.74731 ] } },
{ "type": "Feature", "properties": { "name": "Luxcent Welding Craft", "category": "Economy", "type": "Construction", "address": "PFRV+GX Oton, Iloilo", "contact_mobile": 9086774426, "contact_landline": null, "email": null, "barangay": "Abilay Norte", "district": null, "municity": "Oton", "province": "Iloilo", "facebook": "https://www.facebook.com/profile.php?id=61555694342709&mibextid=ZbWKwL", "url": null, "entry fee": null, "open time": "08:00", "closing time": "17:00" }, "geometry": { "type": "Point", "coordinates": [ 122.49495, 10.74137 ] } },
{ "type": "Feature", "properties": { "name": "KKV'S Water Refilling Station", "category": "Economy", "type": "Utilities", "address": "PGW2+C5X, Oton, Iloilo", "contact_mobile": null, "contact_landline": null, "email": null, "barangay": "Abilay Norte", "district": null, "municity": "Oton", "province": "Iloilo", "facebook": "https://web.facebook.com/people/KKVS-Purified-Refilling-station/61568494374639/?_rdc=1&_rdr", "url": null, "entry fee": null, "open time": null, "closing time": null }, "geometry": { "type": "Point", "coordinates": [ 122.5005, 10.74612 ] } },
{ "type": "Feature", "properties": { "name": "Brightsky Solar Experts", "category": "Economy", "type": "Utilities", "address": "PGX3+C5 Block 1 Lot 6, Savannah Glen C, Oton, 5020 Iloilo", "contact_mobile": 9614864290, "contact_landline": null, "email": null, "barangay": "Abilay Norte", "district": null, "municity": "Oton", "province": "Iloilo", "facebook": null, "url": "http://www.brightsky.ph/", "entry fee": null, "open time": "08:00", "closing time": "17:00" }, "geometry": { "type": "Point", "coordinates": [ 122.50298, 10.74854 ] } },
{ "type": "Feature", "properties": { "name": "oton hulo and native manok", "category": "Economy", "type": "Agriculture", "address": "PF8X+HM Iloilo City, 5020 Iloilo", "contact_mobile": null, "contact_landline": null, "email": null, "barangay": "Abilay Sur", "district": null, "municity": "Oton", "province": "Iloilo", "facebook": "https://www.facebook.com/profile.php?id=100082477824777", "url": null, "entry fee": null, "open time": null, "closing time": null }, "geometry": { "type": "Point", "coordinates": [ 122.49919, 10.7165 ] } },
{ "type": "Feature", "properties": { "name": "ANBVCorp. Concrete Pavers Maker - ILOILO BRANCH", "category": "Economy", "type": "Construction", "address": "PF8X+GR R1 Extension, Oton, 5000 Iloilo", "contact_mobile": null, "contact_landline": null, "email": null, "barangay": "Abilay Sur", "district": null, "municity": "Oton", "province": "Iloilo", "facebook": "https://www.facebook.com/ANBVCorp/", "url": null, "entry fee": null, "open time": "00:00", "closing time": "00:00" }, "geometry": { "type": "Point", "coordinates": [ 122.49955, 10.71637 ] } },
{ "type": "Feature", "properties": { "name": "Ocala Silver Spring Purified Water Refilling Station", "category": "Economy", "type": "Utilities", "address": "MFMV+H4 Brgy. Alegre, Oton, Iloilo City, 5020 Iloilo", "contact_mobile": 9196353281, "contact_landline": null, "email": null, "barangay": "Alegre", "district": null, "municity": "Oton", "province": "Iloilo", "facebook": null, "url": null, "entry fee": null, "open time": "08:00", "closing time": "19:00" }, "geometry": { "type": "Point", "coordinates": [ 122.49275, 10.68404 ] } },
{ "type": "Feature", "properties": { "name": "LifeBank – A Rural Bank", "category": "Economy", "type": "Finance", "address": "MFPW+CF JP Jose P Laurel St, Villa Arevalo District, Oton, 5020 Iloilo", "contact_mobile": null, "contact_landline": 335108501, "email": null, "barangay": "Alegre", "district": null, "municity": "Oton", "province": "Iloilo", "facebook": null, "url": "http://lifebankrb.com.ph/", "entry fee": null, "open time": null, "closing time": null }, "geometry": { "type": "Point", "coordinates": [ 122.49619, 10.68614 ] } },
{ "type": "Feature", "properties": { "name": "JM CONSTRUCTION SUPPLY", "category": "Economy", "type": "Construction", "address": "MFQQ+MR3, Oton, Iloilo", "contact_mobile": null, "contact_landline": null, "email": null, "barangay": "Alegre", "district": null, "municity": "Oton", "province": "Iloilo", "facebook": null, "url": null, "entry fee": null, "open time": null, "closing time": null }, "geometry": { "type": "Point", "coordinates": [ 122.48953, 10.68922 ] } },
{ "type": "Feature", "properties": { "name": "Turris Eburnea Construction", "category": "Economy", "type": "Construction", "address": "MFQR+74 Kauswagan Village, Blk 5 Lt 13, Oton, Iloilo", "contact_mobile": 9087956062, "contact_landline": null, "email": "turriseburneaconstruction@gmail.com", "barangay": "Alegre", "district": null, "municity": "Oton", "province": "Iloilo", "facebook": "https://web.facebook.com/TurrisEburneaConstruction/?_rdc=1&_rdr", "url": null, "entry fee": null, "open time": null, "closing time": null }, "geometry": { "type": "Point", "coordinates": [ 122.49036, 10.68824 ] } },
{ "type": "Feature", "properties": { "name": "Ocala Silver Spring Purified Water Refilling Station", "category": "Economy", "type": "Utilities", "address": "MFMV+H4 Brgy. Alegre, Oton, Iloilo City, 5020 Iloilo", "contact_mobile": 9196353281, "contact_landline": null, "email": null, "barangay": "Alegre", "district": null, "municity": "Oton", "province": "Iloilo", "facebook": null, "url": null, "entry fee": null, "open time": "08:00", "closing time": "19:00" }, "geometry": { "type": "Point", "coordinates": [ 122.49279, 10.68394 ] } },
{ "type": "Feature", "properties": { "name": "JRM Water Refilling Station, Oton, Iloilo", "category": "Economy", "type": "Utilities", "address": "PCQG+F3R, Oton, Iloilo", "contact_mobile": null, "contact_landline": null, "email": null, "barangay": "Batuan Ilaya", "district": null, "municity": "Oton", "province": "Iloilo", "facebook": null, "url": null, "entry fee": null, "open time": null, "closing time": null }, "geometry": { "type": "Point", "coordinates": [ 122.42609, 10.73877 ] } },
{ "type": "Feature", "properties": { "name": "LDL FARM OTON", "category": "Economy", "type": "Agriculture", "address": "PCJP+CF Oton, Iloilo", "contact_mobile": 9193361160, "contact_landline": null, "email": null, "barangay": "Batuan Ilaya", "district": null, "municity": "Oton", "province": "Iloilo", "facebook": null, "url": null, "entry fee": null, "open time": "07:00", "closing time": "20:00" }, "geometry": { "type": "Point", "coordinates": [ 122.4362, 10.73102 ] } },
{ "type": "Feature", "properties": { "name": "WRD Store", "category": "Economy", "type": "Agriculture", "address": "PCRJ+2PW, Unnamed Road, Oton, Iloilo", "contact_mobile": null, "contact_landline": null, "email": null, "barangay": "Batuan Ilaya", "district": null, "municity": "Oton", "province": "Iloilo", "facebook": null, "url": null, "entry fee": null, "open time": "07:00", "closing time": "20:00" }, "geometry": { "type": "Point", "coordinates": [ 122.43181, 10.74012 ] } },
{ "type": "Feature", "properties": { "name": "Octavio Rice Mill", "category": "Economy", "type": "Agriculture", "address": "MCVR+8PC, Sitio San Isidro brgy, Oton", "contact_mobile": 9174508232, "contact_landline": null, "email": null, "barangay": "Botong", "district": null, "municity": "Oton", "province": "Iloilo", "facebook": null, "url": null, "entry fee": null, "open time": "07:00", "closing time": "16:30" }, "geometry": { "type": "Point", "coordinates": [ 122.44187, 10.69368 ] } },
{ "type": "Feature", "properties": { "name": "EGGcetera", "category": "Economy", "type": "Agriculture", "address": "MCVQ+Q7 Oton, 5020 Iloilo", "contact_mobile": null, "contact_landline": null, "email": null, "barangay": "Botong", "district": null, "municity": "Oton", "province": "Iloilo", "facebook": "https://www.facebook.com/fresheggcetera", "url": null, "entry fee": null, "open time": "Open 24 hours", "closing time": "Open 24 hours" }, "geometry": { "type": "Point", "coordinates": [ 122.43816, 10.69471 ] } },
{ "type": "Feature", "properties": { "name": "Marlende Printing Press", "category": "Economy", "type": "Media", "address": "MCQV+HC9, Oton, Iloilo", "contact_mobile": 9129234942, "contact_landline": null, "email": "deanohenz@gmail.com", "barangay": "Botong", "district": null, "municity": "Oton", "province": "Iloilo", "facebook": "https://www.facebook.com/profile.php?id=61557668927670&mibextid=ZbWKwL", "url": null, "entry fee": null, "open time": "08:00", "closing time": "17:00" }, "geometry": { "type": "Point", "coordinates": [ 122.4436, 10.6889 ] } },
{ "type": "Feature", "properties": { "name": "Cavite United Rural Bank, Corporation OTON", "category": "Economy", "type": "Finance", "address": "MFWC+FGG, CM Recto, Burgos St, Poblacion, Oton, 5020 Iloilo", "contact_mobile": null, "contact_landline": 335100036, "email": null, "barangay": "Buray", "district": null, "municity": "Oton", "province": "Iloilo", "facebook": null, "url": "http://curb.com.ph/", "entry fee": null, "open time": "09:00", "closing time": "16:30" }, "geometry": { "type": "Point", "coordinates": [ 122.47116, 10.6968 ] } },
{ "type": "Feature", "properties": { "name": "Servinisio Construction OPC", "category": "Economy", "type": "Construction", "address": "PF28+4QC, Oton, Iloilo", "contact_mobile": 9178870043, "contact_landline": null, "email": "sconstruction.supply75@gmail.com", "barangay": "Buray", "district": null, "municity": "Oton", "province": "Iloilo", "facebook": "https://web.facebook.com/profile.php?id=61571575029310", "url": null, "entry fee": null, "open time": null, "closing time": null }, "geometry": { "type": "Point", "coordinates": [ 122.46689, 10.70031 ] } },
{ "type": "Feature", "properties": { "name": "Shorepoint Construction Supply", "category": "Economy", "type": "Construction", "address": "PF65+7QF, Oton, 5020 Iloilo", "contact_mobile": 9476486930, "contact_landline": null, "email": null, "barangay": "Buray", "district": null, "municity": "Oton", "province": "Iloilo", "facebook": "https://web.facebook.com/Shorepoint072820/?_rdc=1&_rdr", "url": null, "entry fee": null, "open time": null, "closing time": null }, "geometry": { "type": "Point", "coordinates": [ 122.45945, 10.7107 ] } },
{ "type": "Feature", "properties": { "name": "Cateras Hardware & Construction Supply", "category": "Economy", "type": "Construction", "address": "MCPG+FQP, Oton, Iloilo", "contact_mobile": null, "contact_landline": null, "email": null, "barangay": "Cabanbanan", "district": null, "municity": "Oton", "province": "Iloilo", "facebook": null, "url": null, "entry fee": null, "open time": null, "closing time": null }, "geometry": { "type": "Point", "coordinates": [ 122.42698, 10.68621 ] } },
{ "type": "Feature", "properties": { "name": "Cefekur Garments", "category": "Economy", "type": "Manufacturing", "address": "MCMG+5PF, Oton Brgy. Cabanbanan Oton Iloilo, Oton", "contact_mobile": null, "contact_landline": 335108290, "email": null, "barangay": "Cabanbanan", "district": null, "municity": "Oton", "province": "Iloilo", "facebook": "https://www.facebook.com/cefekur", "url": null, "entry fee": null, "open time": "09:00", "closing time": "17:00" }, "geometry": { "type": "Point", "coordinates": [ 122.42673, 10.6832 ] } },
{ "type": "Feature", "properties": { "name": "Hacienda", "category": "Economy", "type": "Agriculture", "address": "MCPH+858, Oton, Iloilo", "contact_mobile": null, "contact_landline": null, "email": null, "barangay": "Cabanbanan", "district": null, "municity": "Oton", "province": "Iloilo", "facebook": null, "url": null, "entry fee": null, "open time": null, "closing time": null }, "geometry": { "type": "Point", "coordinates": [ 122.42791, 10.6859 ] } },
{ "type": "Feature", "properties": { "name": "J.E.M AGRI SUPPLY AND MONICS SARI-SARI STORE", "category": "Economy", "type": "Agriculture", "address": "MCPG+9QH, Oton, Iloilo", "contact_mobile": 9466816004, "contact_landline": null, "email": null, "barangay": "Cabanbanan", "district": null, "municity": "Oton", "province": "Iloilo", "facebook": null, "url": null, "entry fee": null, "open time": "08:00", "closing time": "17:00" }, "geometry": { "type": "Point", "coordinates": [ 122.42698, 10.68598 ] } },
{ "type": "Feature", "properties": { "name": "F. Gurrea Construction, Inc. (Motorpool)", "category": "Economy", "type": "Construction", "address": "QF4R+77 Brgy, Oton, 5020 Iloilo", "contact_mobile": 9176303536, "contact_landline": 333212505, "email": "info@fgciph.com", "barangay": "Caboloan Norte", "district": null, "municity": "Oton", "province": "Iloilo", "facebook": "https://web.facebook.com/fgurreagroup/?_rdc=1&_rdr", "url": "http://www.fgciph.com/", "entry fee": null, "open time": "07:00", "closing time": "17:00" }, "geometry": { "type": "Point", "coordinates": [ 122.49065, 10.75572 ] } },
{ "type": "Feature", "properties": { "name": "Lauriano's Printing", "category": "Economy", "type": "Media", "address": "QF39+3QC Caboloan Norte, Oton, Iloilo", "contact_mobile": null, "contact_landline": null, "email": null, "barangay": "Caboloan Norte", "district": null, "municity": "Oton", "province": "Iloilo", "facebook": null, "url": null, "entry fee": null, "open time": null, "closing time": null }, "geometry": { "type": "Point", "coordinates": [ 122.4694, 10.75267 ] } },
{ "type": "Feature", "properties": { "name": "Triple J's Integrated Farm", "category": "Economy", "type": "Agriculture", "address": "PFQJ+XH Oton, 5020 Iloilo", "contact_mobile": 9192769464, "contact_landline": null, "email": null, "barangay": "Caboloan Sur", "district": null, "municity": "Oton", "province": "Iloilo", "facebook": "https://www.facebook.com/profile.php?id=100083556842827", "url": null, "entry fee": null, "open time": "08:00", "closing time": "18:00" }, "geometry": { "type": "Point", "coordinates": [ 122.48142, 10.73998 ] } },
{ "type": "Feature", "properties": { "name": "MNM Poultry Farm", "category": "Economy", "type": "Agriculture", "address": "PFQM+9QW, Oton, Iloilo", "contact_mobile": null, "contact_landline": null, "email": null, "barangay": "Caboloan Sur", "district": null, "municity": "Oton", "province": "Iloilo", "facebook": null, "url": null, "entry fee": null, "open time": null, "closing time": null }, "geometry": { "type": "Point", "coordinates": [ 122.48444, 10.73851 ] } },
{ "type": "Feature", "properties": { "name": "RRJ AGRI SUPPLY MARKETING", "category": "Economy", "type": "Agriculture", "address": "PFWH+8C Brgy, Oton, 5020 Iloilo", "contact_mobile": null, "contact_landline": null, "email": null, "barangay": "Caboloan Sur", "district": null, "municity": "Oton", "province": "Iloilo", "facebook": null, "url": null, "entry fee": null, "open time": null, "closing time": null }, "geometry": { "type": "Point", "coordinates": [ 122.47858, 10.7458 ] } },
{ "type": "Feature", "properties": { "name": "Buk-an's Food Manufacturing Plant", "category": "Economy", "type": "Manufacturing", "address": "PG33+R9, Oton, Iloilo", "contact_mobile": 9560425127, "contact_landline": null, "email": null, "barangay": "Cagbang", "district": null, "municity": "Iloilo City", "province": "Iloilo", "facebook": "https://www.facebook.com/BukansSince2009", "url": null, "entry fee": null, "open time": "07:30", "closing time": "17:00" }, "geometry": { "type": "Point", "coordinates": [ 122.5027, 10.70898 ] } },
{ "type": "Feature", "properties": { "name": "ARSD CONSTRUCTION CORP.", "category": "Economy", "type": "Construction", "address": "MGP6+QF Figueroa St, Villa Arevalo District, Iloilo City, 5000 Iloilo", "contact_mobile": null, "contact_landline": 333377347, "email": null, "barangay": "Cagbang", "district": null, "municity": "Iloilo City", "province": "Iloilo", "facebook": "http://www.facebook.com/ARSD-Construction-CORP-209345412436224/", "url": null, "entry fee": null, "open time": "08:30", "closing time": "17:30" }, "geometry": { "type": "Point", "coordinates": [ 122.51121, 10.69352 ] } },
{ "type": "Feature", "properties": { "name": "R.Flores hardware", "category": "Economy", "type": "Construction", "address": "MGX2+CG8, Pakiad Rd, Oton, Iloilo", "contact_mobile": null, "contact_landline": null, "email": null, "barangay": "Cagbang", "district": null, "municity": "Oton", "province": "Iloilo", "facebook": null, "url": null, "entry fee": null, "open time": null, "closing time": null }, "geometry": { "type": "Point", "coordinates": [ 122.50132, 10.69859 ] } },
{ "type": "Feature", "properties": { "name": "Anbeco Enterprises", "category": "Economy", "type": "Construction", "address": "PG23+MMC, Pakiad Rd, Oton, Iloilo", "contact_mobile": null, "contact_landline": 335011541, "email": null, "barangay": "Cagbang", "district": null, "municity": "Oton", "province": "Iloilo", "facebook": "https://www.facebook.com/profile.php?id=61564438251343", "url": null, "entry fee": null, "open time": "08:30", "closing time": "17:00" }, "geometry": { "type": "Point", "coordinates": [ 122.50419, 10.70185 ] } },
{ "type": "Feature", "properties": { "name": "M.Orada Steelworks", "category": "Economy", "type": "Construction", "address": "MGX3+F5 Zone 6 CCF Village, Oton, 5020 Iloilo", "contact_mobile": 9197865872, "contact_landline": null, "email": null, "barangay": "Cagbang", "district": null, "municity": "Oton", "province": "Iloilo", "facebook": null, "url": null, "entry fee": null, "open time": null, "closing time": null }, "geometry": { "type": "Point", "coordinates": [ 122.5029, 10.69871 ] } },
{ "type": "Feature", "properties": { "name": "Everpure Water Refilling Station", "category": "Economy", "type": "Utilities", "address": "PG23+MMC, Pakiad Rd, Oton, Iloilo", "contact_mobile": null, "contact_landline": null, "email": null, "barangay": "Cagbang", "district": null, "municity": "Oton", "province": "Iloilo", "facebook": null, "url": null, "entry fee": null, "open time": null, "closing time": null }, "geometry": { "type": "Point", "coordinates": [ 122.50415, 10.7017 ] } },
{ "type": "Feature", "properties": { "name": "Escarian", "category": "Economy", "type": "Agriculture", "address": "PC7Q+FHX, Oton, Iloilo", "contact_mobile": null, "contact_landline": null, "email": null, "barangay": "Calam-isan", "district": null, "municity": "Oton", "province": "Iloilo", "facebook": null, "url": null, "entry fee": null, "open time": null, "closing time": null }, "geometry": { "type": "Point", "coordinates": [ 122.43897, 10.71383 ] } },
{ "type": "Feature", "properties": { "name": "Micro-Asia Construction Company", "category": "Economy", "type": "Construction", "address": "PFPP+H4J, Oton, Iloilo", "contact_mobile": null, "contact_landline": null, "email": null, "barangay": "Mambog", "district": null, "municity": "Oton", "province": "Iloilo", "facebook": null, "url": null, "entry fee": null, "open time": "Open 24 hours", "closing time": "Open 24 hours" }, "geometry": { "type": "Point", "coordinates": [ 122.48526, 10.73648 ] } },
{ "type": "Feature", "properties": { "name": "Aqua Joy'ce Water Refilling Station", "category": "Economy", "type": "Utilities", "address": "PG45+6H ZONE 1, BRGY, Oton, 5020 Iloilo", "contact_mobile": 9173081554, "contact_landline": null, "email": "subongpablitojr06@gmail.com", "barangay": "Pakiad", "district": null, "municity": "Oton", "province": "Iloilo", "facebook": "https://web.facebook.com/aquajoyce.water/?_rdc=1&_rdr", "url": null, "entry fee": null, "open time": "08:00", "closing time": "18:00" }, "geometry": { "type": "Point", "coordinates": [ 122.50889, 10.70565 ] } },
{ "type": "Feature", "properties": { "name": "Sheianmae Hardware & Construction Supply", "category": "Economy", "type": "Construction", "address": "PG66+5P Oton, 5020 Iloilo", "contact_mobile": 9177990409, "contact_landline": null, "email": null, "barangay": "Pakiad", "district": null, "municity": "Oton", "province": "Iloilo", "facebook": "https://www.facebook.com/share/14ZsLbnEC5/", "url": null, "entry fee": null, "open time": "08:00", "closing time": "17:00" }, "geometry": { "type": "Point", "coordinates": [ 122.51182, 10.71042 ] } },
{ "type": "Feature", "properties": { "name": "GRAFICA XPRESSION ADVERTISING", "category": "Economy", "type": "Media", "address": "PG35+XF Zone 1, Barangay, Iloilo City, 5020 Iloilo", "contact_mobile": 9669073856, "contact_landline": null, "email": "graficaxpression2020@gmail.com", "barangay": "Pakiad", "district": null, "municity": "Iloilo City", "province": "Iloilo", "facebook": "https://web.facebook.com/p/Grafica-Xpression-100064301434221/?_rdc=1&_rdr", "url": null, "entry fee": null, "open time": "09:00", "closing time": "17:00" }, "geometry": { "type": "Point", "coordinates": [ 122.50871, 10.70494 ] } },
{ "type": "Feature", "properties": { "name": "EDC ARCHITECTURE", "category": "Economy", "type": "Construction", "address": "PG79+GF Brgy, C1 Iloilo Circumferential Rd 1, Oton, 5020 Iloilo", "contact_mobile": null, "contact_landline": 333378173, "email": null, "barangay": "Pakiad", "district": null, "municity": "Oton", "province": "Iloilo", "facebook": "https://www.facebook.com/EDCArch", "url": null, "entry fee": null, "open time": "09:00", "closing time": "16:30" }, "geometry": { "type": "Point", "coordinates": [ 122.51866, 10.71392 ] } },
{ "type": "Feature", "properties": { "name": "Mikay's bahay kubo maker and native products", "category": "Economy", "type": "Construction", "address": "PG99+P6 Iloilo City, 5020 Iloilo", "contact_mobile": 9052406217, "contact_landline": null, "email": "michael_rob86@yahoo.com", "barangay": "Pakiad", "district": null, "municity": "Iloilo City", "province": "Iloilo", "facebook": "https://www.facebook.com/profile.php?id=100064217255408&mibextid=ZbWKwL", "url": null, "entry fee": null, "open time": "07:00", "closing time": "18:00" }, "geometry": { "type": "Point", "coordinates": [ 122.51804, 10.71937 ] } },
{ "type": "Feature", "properties": { "name": "Warlito's Bukbukan Shop", "category": "Economy", "type": "Agriculture", "address": "MFQH+V2 Bonifacio St, Oton, Iloilo", "contact_mobile": 9464600466, "contact_landline": null, "email": null, "barangay": "Poblacion East", "district": null, "municity": "Oton", "province": "Iloilo", "facebook": null, "url": null, "entry fee": null, "open time": "06:30", "closing time": "17:00" }, "geometry": { "type": "Point", "coordinates": [ 122.4776, 10.68968 ] } },
{ "type": "Feature", "properties": { "name": "SIAMPC", "category": "Economy", "type": "Agriculture", "address": "MFRH+43 Oton, Iloilo", "contact_mobile": null, "contact_landline": 333366905, "email": "siampcfiloilo@yahoo.com", "barangay": "Poblacion East", "district": null, "municity": "Oton", "province": "Iloilo", "facebook": "https://web.facebook.com/SIAMPCoop/?_rdc=1&_rdr", "url": null, "entry fee": null, "open time": "08:00", "closing time": "17:00" }, "geometry": { "type": "Point", "coordinates": [ 122.47764, 10.69029 ] } },
{ "type": "Feature", "properties": { "name": "Pompee Water Refilling Station", "category": "Economy", "type": "Utilities", "address": "MFRJ+Q68, Paterno St, Oton, 5020 Iloilo", "contact_mobile": 9465923280, "contact_landline": null, "email": null, "barangay": "Poblacion North", "district": null, "municity": "Oton", "province": "Iloilo", "facebook": null, "url": null, "entry fee": null, "open time": "09:00", "closing time": "17:30" }, "geometry": { "type": "Point", "coordinates": [ 122.48056, 10.69197 ] } },
{ "type": "Feature", "properties": { "name": "Racso's Bank Inc. -Oton", "category": "Economy", "type": "Finance", "address": "MFRH+G2Q, Oton, Iloilo", "contact_mobile": null, "contact_landline": null, "email": null, "barangay": "Poblacion South", "district": null, "municity": "Oton", "province": "Iloilo", "facebook": null, "url": null, "entry fee": null, "open time": null, "closing time": null }, "geometry": { "type": "Point", "coordinates": [ 122.4776, 10.69134 ] } },
{ "type": "Feature", "properties": { "name": "Palawan Pawnshop - Oton, Iloilo", "category": "Economy", "type": "Finance", "address": "MFRG+7X Oton Public Market, Bonifacio Street, Oton, 5020, Iloilo", "contact_mobile": null, "contact_landline": 333351730, "email": null, "barangay": "Poblacion South", "district": null, "municity": "Oton", "province": "Iloilo", "facebook": null, "url": null, "entry fee": null, "open time": null, "closing time": null }, "geometry": { "type": "Point", "coordinates": [ 122.47749, 10.69065 ] } },
{ "type": "Feature", "properties": { "name": "Streos Printing & Supplies", "category": "Economy", "type": "Media", "address": "MFRG+9WC, Poblacion South, Oton, Iloilo", "contact_mobile": null, "contact_landline": null, "email": null, "barangay": "Poblacion South", "district": null, "municity": "Oton", "province": "Iloilo", "facebook": null, "url": null, "entry fee": null, "open time": null, "closing time": null }, "geometry": { "type": "Point", "coordinates": [ 122.47727, 10.69106 ] } },
{ "type": "Feature", "properties": { "name": "Ecosprint Tarpaulin Printing", "category": "Economy", "type": "Media", "address": "MFRH+J34, Bonifacio St, Oton, Iloilo", "contact_mobile": 9674737995, "contact_landline": null, "email": "ecosaverprint@gmail.com", "barangay": "Poblacion South", "district": null, "municity": "Oton", "province": "Iloilo", "facebook": "https://web.facebook.com/p/ECOSPRINT-100054658920129/?_rdc=1&_rdr", "url": null, "entry fee": null, "open time": null, "closing time": null }, "geometry": { "type": "Point", "coordinates": [ 122.47772, 10.69151 ] } },
{ "type": "Feature", "properties": { "name": "K-FRED WATER REFILLING STATION", "category": "Economy", "type": "Utilities", "address": "J.C. Zulueta St, Oton, Iloilo", "contact_mobile": 9091576863, "contact_landline": null, "email": null, "barangay": "Poblacion South", "district": null, "municity": "Oton", "province": "Iloilo", "facebook": null, "url": null, "entry fee": null, "open time": null, "closing time": null }, "geometry": { "type": "Point", "coordinates": [ 122.47133, 10.69138 ] } },
{ "type": "Feature", "properties": { "name": "Estrella’s LPG shop", "category": "Economy", "type": "Utilities", "address": "MFRC+F3 J.C. Zulueta St, Oton, 5020 Iloilo", "contact_mobile": 9666895494, "contact_landline": null, "email": null, "barangay": "Poblacion South", "district": null, "municity": "Oton", "province": "Iloilo", "facebook": null, "url": null, "entry fee": null, "open time": "08:00", "closing time": "17:00" }, "geometry": { "type": "Point", "coordinates": [ 122.47022, 10.69133 ] } },
{ "type": "Feature", "properties": { "name": "Cebuana Lhuillier Pawnshop - Oton", "category": "Economy", "type": "Finance", "address": "MFRG+GQ J.C. Zulueta, cor Mabini St, Oton, 5020 Iloilo", "contact_mobile": null, "contact_landline": null, "email": null, "barangay": "Poblacion South", "district": null, "municity": "Oton", "province": "Iloilo", "facebook": "https://www.facebook.com/cebuanalhuillierpawnshop", "url": "https://www.cebuanalhuillier.com/", "entry fee": null, "open time": "07:00", "closing time": "19:00" }, "geometry": { "type": "Point", "coordinates": [ 122.47693, 10.69133 ] } },
{ "type": "Feature", "properties": { "name": "Producer's Bank", "category": "Economy", "type": "Finance", "address": "MFRG+HJ3, Oton, Iloilo", "contact_mobile": null, "contact_landline": null, "email": null, "barangay": "Poblacion South", "district": null, "municity": "Oton", "province": "Iloilo", "facebook": null, "url": null, "entry fee": null, "open time": "08:00", "closing time": "17:00" }, "geometry": { "type": "Point", "coordinates": [ 122.47653, 10.69137 ] } },
{ "type": "Feature", "properties": { "name": "RCBC BRANCH - OTON ILOILO", "category": "Economy", "type": "Finance", "address": "MFRG+CG Madr&Sons Arcade, J.C. Zulueta St, Oton, Iloilo", "contact_mobile": null, "contact_landline": 333360306, "email": null, "barangay": "Poblacion South", "district": null, "municity": "Oton", "province": "Iloilo", "facebook": "https://www.facebook.com/RCBCGroup", "url": "https://www.rcbc.com/", "entry fee": null, "open time": "09:00", "closing time": "16:00" }, "geometry": { "type": "Point", "coordinates": [ 122.47638, 10.69109 ] } },
{ "type": "Feature", "properties": { "name": "First Imperial Business Bank", "category": "Economy", "type": "Finance", "address": "MFRG+CCM, Oton Arcade, J.C. Zulueta St, Oton, 5020 Iloilo", "contact_mobile": 9176530046, "contact_landline": null, "email": "fibbmktg@imperialbank.net", "barangay": "Poblacion South", "district": null, "municity": "Oton", "province": "Iloilo", "facebook": "https://www.facebook.com/FirstImperialBB", "url": null, "entry fee": null, "open time": null, "closing time": null }, "geometry": { "type": "Point", "coordinates": [ 122.47604, 10.69109 ] } },
{ "type": "Feature", "properties": { "name": "Michel J. Lhuillier Financial Services", "category": "Economy", "type": "Finance", "address": "MFRF+M8P, F. C. Zulueta Street, Oton, 5020 Iloilo", "contact_mobile": null, "contact_landline": 332332030, "email": null, "barangay": "Poblacion South", "district": null, "municity": "Oton", "province": "Iloilo", "facebook": null, "url": null, "entry fee": null, "open time": null, "closing time": null }, "geometry": { "type": "Point", "coordinates": [ 122.47331, 10.6917 ] } },
{ "type": "Feature", "properties": { "name": "Rafi Micro-Finance", "category": "Economy", "type": "Finance", "address": "MFR9+XWQ, Benedicto St, Oton, Iloilo", "contact_mobile": null, "contact_landline": null, "email": null, "barangay": "Poblacion South", "district": null, "municity": "Oton", "province": "Iloilo", "facebook": null, "url": null, "entry fee": null, "open time": null, "closing time": null }, "geometry": { "type": "Point", "coordinates": [ 122.46985, 10.69249 ] } },
{ "type": "Feature", "properties": { "name": "Metrobank Iloilo - Oton", "category": "Economy", "type": "Finance", "address": "MFR9+GQ Gaisano Capital Oton, JC Zulueta Street, cor Benedicto St, Oton, 6025", "contact_mobile": null, "contact_landline": 23351018, "email": null, "barangay": "Poblacion South", "district": null, "municity": "Oton", "province": "Iloilo", "facebook": "https://www.facebook.com/metrobank", "url": "https://metrobank.com.ph/", "entry fee": null, "open time": "09:00", "closing time": "16:00" }, "geometry": { "type": "Point", "coordinates": [ 122.46943, 10.69151 ] } },
{ "type": "Feature", "properties": { "name": "Western Union - Farmers Traders Rural Bank", "category": "Economy", "type": "Finance", "address": "MFRC+GH J.C Zulueta Street (near Public Market), Poblacion South, Oton, 5020, Iloilo", "contact_mobile": null, "contact_landline": 333358915, "email": null, "barangay": "Poblacion South", "district": null, "municity": "Oton", "province": "Iloilo", "facebook": "https://www.facebook.com/WesternUnion", "url": "http://www.westernunion.com.ph/", "entry fee": null, "open time": null, "closing time": null }, "geometry": { "type": "Point", "coordinates": [ 122.47144, 10.69138 ] } },
{ "type": "Feature", "properties": { "name": "RD Pawnshop, Inc.-Oton Branch", "category": "Economy", "type": "Finance", "address": "MFRG+CM J.C Zulueta Street, Oton, 5020 Iloilo", "contact_mobile": null, "contact_landline": 335108204, "email": null, "barangay": "Poblacion South", "district": null, "municity": "Oton", "province": "Iloilo", "facebook": "https://www.facebook.com/rdpawnshopincorporated", "url": "rdpawnshop.com.ph", "entry fee": null, "open time": null, "closing time": null }, "geometry": { "type": "Point", "coordinates": [ 122.47674, 10.69118 ] } },
{ "type": "Feature", "properties": { "name": "Cebuana Lhuillier Pawnshop - Oto", "category": "Economy", "type": "Finance", "address": "MFRG+GQ J.C. Zulueta, cor Mabini St, Oton, 5020 Iloilo", "contact_mobile": 9469566014, "contact_landline": null, "email": "cebuanacares@pjlhuillier.com", "barangay": "Poblacion South", "district": null, "municity": "Oton", "province": "Iloilo", "facebook": "https://www.facebook.com/cebuanalhuillierpawnshop", "url": "https://www.cebuanalhuillier.com/", "entry fee": null, "open time": "07:00", "closing time": "19:00" }, "geometry": { "type": "Point", "coordinates": [ 122.47694, 10.69133 ] } },
{ "type": "Feature", "properties": { "name": "M. Lhuillier - Oton", "category": "Economy", "type": "Finance", "address": "MFRC+GH7, J.C. Zulueta St, Oton, Iloilo", "contact_mobile": null, "contact_landline": 333370389, "email": null, "barangay": "Poblacion South", "district": null, "municity": "Oton", "province": "Iloilo", "facebook": "https://www.facebook.com/mlhuillier.official", "url": "mlhuillier.com", "entry fee": null, "open time": null, "closing time": null }, "geometry": { "type": "Point", "coordinates": [ 122.47141, 10.69143 ] } },
{ "type": "Feature", "properties": { "name": "Sunrise Remittance", "category": "Economy", "type": "Finance", "address": "MFRF+M79, Cebuana Lhuillier, JC Zulueta Street, Oton, Iloilo City", "contact_mobile": null, "contact_landline": 333371087, "email": "sunriseremittanceofficial@gmail.com", "barangay": "Poblacion South", "district": null, "municity": "Oton", "province": "Iloilo", "facebook": "https://www.facebook.com/sunriseremittance", "url": null, "entry fee": null, "open time": null, "closing time": null }, "geometry": { "type": "Point", "coordinates": [ 122.47327, 10.6918 ] } },
{ "type": "Feature", "properties": { "name": "MoneyGram", "category": "Economy", "type": "Finance", "address": "MFR9+6P Oton Cockfighting Arena, J.C. Zulueta St, Oton, 5020 Iloilo", "contact_mobile": 9167196072, "contact_landline": null, "email": null, "barangay": "Poblacion South", "district": null, "municity": "Oton", "province": "Iloilo", "facebook": "https://www.facebook.com/moneygram", "url": null, "entry fee": null, "open time": "08:00", "closing time": "18:00" }, "geometry": { "type": "Point", "coordinates": [ 122.46934, 10.69063 ] } },
{ "type": "Feature", "properties": { "name": "C Gold Constructions & Hardware", "category": "Economy", "type": "Construction", "address": "MFRF+GJ8, Oton, Iloilo", "contact_mobile": null, "contact_landline": 333369290, "email": null, "barangay": "Poblacion South", "district": null, "municity": "Oton", "province": "Iloilo", "facebook": null, "url": null, "entry fee": null, "open time": "07:00", "closing time": "17:00" }, "geometry": { "type": "Point", "coordinates": [ 122.47408, 10.69129 ] } },
{ "type": "Feature", "properties": { "name": "Iloilo Rattans and Fibers", "category": "Economy", "type": "Manufacturing", "address": "MFV9+5W Benedicto st. Oton iloilo Benedicto St oton, Iloilo City, 5020 Iloilo", "contact_mobile": 9056639834, "contact_landline": null, "email": null, "barangay": "Poblacion South", "district": null, "municity": "Oton", "province": "Iloilo", "facebook": "https://www.facebook.com/profile.php?id=61561366631208", "url": null, "entry fee": null, "open time": "08:00", "closing time": "19:30" }, "geometry": { "type": "Point", "coordinates": [ 122.46978, 10.69298 ] } },
{ "type": "Feature", "properties": { "name": "Escalera Advertising services", "category": "Economy", "type": "Media", "address": "MFQC+XH9, Oton, Iloilo", "contact_mobile": 9612889649, "contact_landline": null, "email": "eb.advertising20@gmail.com", "barangay": "Poblacion South", "district": null, "municity": "Oton", "province": "Iloilo", "facebook": "https://web.facebook.com/EBDECALS2K20/?_rdc=1&_rdr", "url": null, "entry fee": null, "open time": "00:00", "closing time": "00:00" }, "geometry": { "type": "Point", "coordinates": [ 122.47148, 10.68992 ] } },
{ "type": "Feature", "properties": { "name": "Full Tank Lpg Distribution Center Oton Branch", "category": "Economy", "type": "Utilities", "address": "MFRG+F2 Oton, Iloilo", "contact_mobile": 9976037993, "contact_landline": null, "email": "fulltanklpg@yahoo.com", "barangay": "Poblacion South", "district": null, "municity": "Oton", "province": "Iloilo", "facebook": "https://web.facebook.com/fulltankgasul/?_rdc=1&_rdr", "url": null, "entry fee": null, "open time": null, "closing time": null }, "geometry": { "type": "Point", "coordinates": [ 122.47507, 10.69123 ] } },
{ "type": "Feature", "properties": { "name": "Joben Rice Mill", "category": "Economy", "type": "Agriculture", "address": "MFWC+8RQ, C.M. Recto Street, Oton, Iloilo City, 5000 Iloilo", "contact_mobile": null, "contact_landline": 333379345, "email": null, "barangay": "Poblacion West", "district": null, "municity": "Oton", "province": "Iloilo", "facebook": null, "url": null, "entry fee": null, "open time": null, "closing time": null }, "geometry": { "type": "Point", "coordinates": [ 122.47209, 10.69589 ] } },
{ "type": "Feature", "properties": { "name": "Rural Bank of Oton Incorporated", "category": "Economy", "type": "Finance", "address": "MFRG+VWF, Mabini St, Oton, 5020 Iloilo", "contact_mobile": null, "contact_landline": 333013026, "email": null, "barangay": "Poblacion West", "district": null, "municity": "Oton", "province": "Iloilo", "facebook": null, "url": "http://www.bsp.gov.ph/", "entry fee": null, "open time": null, "closing time": null }, "geometry": { "type": "Point", "coordinates": [ 122.4773, 10.69239 ] } },
{ "type": "Feature", "properties": { "name": "VDTech CONSTRUCTIONS, INC", "category": "Economy", "type": "Construction", "address": "MFVC+J8C, Benedicto St, Oton, Iloilo", "contact_mobile": 9985562339, "contact_landline": null, "email": null, "barangay": "Poblacion West", "district": null, "municity": "Oton", "province": "Iloilo", "facebook": null, "url": "http://www.vdtech.ph/", "entry fee": null, "open time": "08:00", "closing time": "05:00" }, "geometry": { "type": "Point", "coordinates": [ 122.47078, 10.69407 ] } },
{ "type": "Feature", "properties": { "name": "X SQUARED BUILDERS", "category": "Economy", "type": "Construction", "address": "MFVC+P8 POBLACION WEST, Oton, 5000 Iloilo", "contact_mobile": 9171599868, "contact_landline": null, "email": null, "barangay": "Poblacion West", "district": null, "municity": "Oton", "province": "Iloilo", "facebook": "https://web.facebook.com/profile.php?id=61562486469002", "url": null, "entry fee": null, "open time": "00:00", "closing time": "00:00" }, "geometry": { "type": "Point", "coordinates": [ 122.47079, 10.69431 ] } },
{ "type": "Feature", "properties": { "name": "City Signs Production", "category": "Economy", "type": "Media", "address": "MFVC+J8 Benedicto St, Oton, 5020 Iloilo", "contact_mobile": 9985562339, "contact_landline": null, "email": null, "barangay": "Poblacion West", "district": null, "municity": "Oton", "province": "Iloilo", "facebook": null, "url": "https://www.innovatechadvertising.com/", "entry fee": null, "open time": "08:00", "closing time": "17:00" }, "geometry": { "type": "Point", "coordinates": [ 122.47078, 10.69406 ] } },
{ "type": "Feature", "properties": { "name": "Polygon Construction & Dev't. PHL Corp.", "category": "Economy", "type": "Construction", "address": "PGH7+XW Oton, Iloilo", "contact_mobile": 9988630308, "contact_landline": null, "email": null, "barangay": "Polo Maestra Bita", "district": null, "municity": "Oton", "province": "Iloilo", "facebook": null, "url": null, "entry fee": null, "open time": "08:00", "closing time": "17:00" }, "geometry": { "type": "Point", "coordinates": [ 122.51487, 10.7301 ] } },
{ "type": "Feature", "properties": { "name": "TLF Construction Corp.", "category": "Economy", "type": "Construction", "address": "PGH8+P9 Iloilo Circumferential Rd 1 Oton, Oton, Iloilo", "contact_mobile": 9778039016, "contact_landline": null, "email": null, "barangay": "Polo Maestra Bita", "district": null, "municity": "Oton", "province": "Iloilo", "facebook": null, "url": null, "entry fee": null, "open time": null, "closing time": null }, "geometry": { "type": "Point", "coordinates": [ 122.51594, 10.72937 ] } },
{ "type": "Feature", "properties": { "name": "SCMIX Builders Inc.", "category": "Economy", "type": "Construction", "address": "PGJ6+XV Polo Maestra Bita, Oton, Iloilo", "contact_mobile": null, "contact_landline": 333236159, "email": null, "barangay": "Polo Maestra Bita", "district": null, "municity": "Oton", "province": "Iloilo", "facebook": null, "url": null, "entry fee": null, "open time": "Open 24 hours", "closing time": "Open 24 hours" }, "geometry": { "type": "Point", "coordinates": [ 122.51223, 10.7325 ] } },
{ "type": "Feature", "properties": { "name": "Red Onyx Construction & Dev. Phil. Corp.", "category": "Economy", "type": "Construction", "address": "PGH8+P54, Iloilo Circumferential Rd 1, Oton, Iloilo", "contact_mobile": null, "contact_landline": null, "email": "ferd73ph@gmail.com", "barangay": "Polo Maestra Bita", "district": null, "municity": "Oton", "province": "Iloilo", "facebook": "https://web.facebook.com/redonyx2017/?_rdc=1&_rdr", "url": null, "entry fee": null, "open time": null, "closing time": null }, "geometry": { "type": "Point", "coordinates": [ 122.51549, 10.72925 ] } },
{ "type": "Feature", "properties": { "name": "Mrct Sand & Gravel Rock Crusher Plant", "category": "Economy", "type": "Construction", "address": "PGJ7+V9H, Oton, Iloilo", "contact_mobile": 9611195050, "contact_landline": null, "email": null, "barangay": "Polo Maestra Bita", "district": null, "municity": "Oton", "province": "Iloilo", "facebook": null, "url": null, "entry fee": null, "open time": null, "closing time": null }, "geometry": { "type": "Point", "coordinates": [ 122.51347, 10.7322 ] } },
{ "type": "Feature", "properties": { "name": "Fl Advertising", "category": "Economy", "type": "Media", "address": "PGJ7+PV9, Iloilo Circumferential Rd 1, Oton, Iloilo", "contact_mobile": null, "contact_landline": null, "email": null, "barangay": "Polo Maestra Bita", "district": null, "municity": "Oton", "province": "Iloilo", "facebook": null, "url": null, "entry fee": null, "open time": null, "closing time": null }, "geometry": { "type": "Point", "coordinates": [ 122.51473, 10.73178 ] } },
{ "type": "Feature", "properties": { "name": "Emhive Digital Marketing Services", "category": "Economy", "type": "Media", "address": "MFVP+79 Oton, 5020 Iloilo", "contact_mobile": 9461715466, "contact_landline": null, "email": null, "barangay": "San Antonio", "district": null, "municity": "Oton", "province": "Iloilo", "facebook": null, "url": "https://www.merianboron.com/", "entry fee": null, "open time": "00:00", "closing time": "00:00" }, "geometry": { "type": "Point", "coordinates": [ 122.48596, 10.69316 ] } },
{ "type": "Feature", "properties": { "name": "Iloilo Printing ang Advertising Services", "category": "Economy", "type": "Media", "address": "Iloilo, Oton", "contact_mobile": 9850608429, "contact_landline": null, "email": "dsignersweb@gmail.com", "barangay": "San Antonio", "district": null, "municity": "Oton", "province": "Iloilo", "facebook": "https://web.facebook.com/IloiloAdvertisingServices/?_rdc=1&_rdr", "url": null, "entry fee": null, "open time": "08:00", "closing time": "18:00" }, "geometry": { "type": "Point", "coordinates": [ 122.48266, 10.69367 ] } },
{ "type": "Feature", "properties": { "name": "Aquashot Water Refilling Station", "category": "Economy", "type": "Utilities", "address": "MFVV+4CV, Oton, Iloilo", "contact_mobile": 9176811002, "contact_landline": null, "email": null, "barangay": "San Nicolas", "district": null, "municity": "Oton", "province": "Iloilo", "facebook": null, "url": null, "entry fee": null, "open time": null, "closing time": null }, "geometry": { "type": "Point", "coordinates": [ 122.49354, 10.69287 ] } },
{ "type": "Feature", "properties": { "name": "Western Union - Palawan Pawnshop - Bonifacio Street", "category": "Economy", "type": "Finance", "address": "PFC4+JC Bonifacio Street, Oton Public Market, Oton, 5020, Iloilo", "contact_mobile": null, "contact_landline": 333351730, "email": null, "barangay": "Santa Rita", "district": null, "municity": "Oton", "province": "Iloilo", "facebook": "https://www.facebook.com/WesternUnion", "url": "http://www.westernunion.com.ph/", "entry fee": null, "open time": null, "closing time": null }, "geometry": { "type": "Point", "coordinates": [ 122.456, 10.72169 ] } },
{ "type": "Feature", "properties": { "name": "LTC Ricemill", "category": "Economy", "type": "Agriculture", "address": "PFFJ+57 Brgy, Oton, 5020 Iloilo", "contact_mobile": 9297677446, "contact_landline": null, "email": null, "barangay": "Tagbac Sur", "district": null, "municity": "Oton", "province": "Iloilo", "facebook": "http://facebook.com/ltcricemill", "url": null, "entry fee": null, "open time": "07:00", "closing time": "17:30" }, "geometry": { "type": "Point", "coordinates": [ 122.48073, 10.72288 ] } },
{ "type": "Feature", "properties": { "name": "Silla’s Rice Milling", "category": "Economy", "type": "Agriculture", "address": "PF9H+R7 Tagbac Sur, Oton, 5020 Iloilo", "contact_mobile": 9691015352, "contact_landline": null, "email": null, "barangay": "Tagbac Sur", "district": null, "municity": "Oton", "province": "Iloilo", "facebook": null, "url": null, "entry fee": null, "open time": "07:00", "closing time": "17:00" }, "geometry": { "type": "Point", "coordinates": [ 122.47817, 10.71963 ] } },
{ "type": "Feature", "properties": { "name": "Rcj Ursua Construction Supply", "category": "Economy", "type": "Construction", "address": "PF8H+QV4, Oton - San Jose-Santa Barbara Rd, Oton, Iloilo", "contact_mobile": null, "contact_landline": null, "email": "rcjursuaconstructionsupply@gmail.com", "barangay": "Tagbac Sur", "district": null, "municity": "Oton", "province": "Iloilo", "facebook": "https://web.facebook.com/people/RCJ-Ursua-Construction-Supply/61552760773872/?_rdc=1&_rdr", "url": null, "entry fee": null, "open time": null, "closing time": null }, "geometry": { "type": "Point", "coordinates": [ 122.47975, 10.71687 ] } },
{ "type": "Feature", "properties": { "name": "H farm", "category": "Economy", "type": "Agriculture", "address": "PF9J+FM Brgy, Oton, 5020 Iloilo", "contact_mobile": 9610610162, "contact_landline": null, "email": null, "barangay": "Tagbac Sur", "district": null, "municity": "Oton", "province": "Iloilo", "facebook": null, "url": null, "entry fee": null, "open time": "09:00", "closing time": "17:00" }, "geometry": { "type": "Point", "coordinates": [ 122.48171, 10.71873 ] } },
{ "type": "Feature", "properties": { "name": "AN business ventures corporation", "category": "Economy", "type": "Construction", "address": "PFCJ+7F3, Oton - San Jose-Santa Barbara Rd, Oton, Iloilo", "contact_mobile": null, "contact_landline": null, "email": null, "barangay": "Tagbac Sur", "district": null, "municity": "Oton", "province": "Iloilo", "facebook": null, "url": null, "entry fee": null, "open time": "08:00", "closing time": "17:30" }, "geometry": { "type": "Point", "coordinates": [ 122.48127, 10.72072 ] } },
{ "type": "Feature", "properties": { "name": "QUENCH-O PURIFIED DRINKING WATER", "category": "Economy", "type": "Utilities", "address": "MFV6+V5 SITIO BARAS, Oton, Iloilo", "contact_mobile": 9266142404, "contact_landline": null, "email": null, "barangay": "Trapiche", "district": null, "municity": "Oton", "province": "Iloilo", "facebook": "https://www.facebook.com/profile.php?id=100086541138989", "url": null, "entry fee": null, "open time": "07:00", "closing time": "17:00" }, "geometry": { "type": "Point", "coordinates": [ 122.46046, 10.69478 ] } },
{ "type": "Feature", "properties": { "name": "D&L RiceMill", "category": "Economy", "type": "Agriculture", "address": "PC2X+HH2, NIA Rd, Oton, Iloilo", "contact_mobile": null, "contact_landline": null, "email": null, "barangay": "Trapiche", "district": null, "municity": "Oton", "province": "Iloilo", "facebook": null, "url": null, "entry fee": null, "open time": "08:00", "closing time": "16:30" }, "geometry": { "type": "Point", "coordinates": [ 122.4489, 10.70142 ] } },
{ "type": "Feature", "properties": { "name": "3M INCUBATOR DESIGN FABRICATION AND MAINTENANCE", "category": "Economy", "type": "Agriculture", "address": "MFR3+C4 Barangay Road, Oton, 5020 Iloilo", "contact_mobile": 9814856057, "contact_landline": null, "email": null, "barangay": "Trapiche", "district": null, "municity": "Oton", "province": "Iloilo", "facebook": "https://www.facebook.com/reinhard.cabalonga.56?mibextid=nW3QTL", "url": null, "entry fee": null, "open time": null, "closing time": null }, "geometry": { "type": "Point", "coordinates": [ 122.45277, 10.69121 ] } },
{ "type": "Feature", "properties": { "name": "Elegant Home Furniture Shop", "category": "Economy", "type": "Manufacturing", "address": "PF9J+X85, Oton, Iloilo", "contact_mobile": 9382605298, "contact_landline": null, "email": "eleganthomefurnitureshop@gmail.com", "barangay": "Tuburan", "district": null, "municity": "Oton", "province": "Iloilo", "facebook": "https://www.facebook.com/eleganthomefurnitureshop", "url": null, "entry fee": null, "open time": "08:00", "closing time": "17:00" }, "geometry": { "type": "Point", "coordinates": [ 122.48293, 10.72352 ] } }
]
}
