{
"type": "FeatureCollection",
"name": "DRRM_LEGANES_Critical_Facilities_Insights",
"crs": { "type": "name", "properties": { "name": "urn:ogc:def:crs:OGC:1.3:CRS84" } },
"features": [
{ "type": "Feature", "properties": { "name": "Lapayon Brgy. Hall", "category": "Critical Facilities", "type": "Government", "address": "RH2C+Q63, Leganes, Iloilo", "contact_mobile": null, "contact_landline": null, "email": null, "barangay": "Lapayon", "district": null, "municity": "Leganes", "province": "Iloilo", "facebook": null, "url": null, "logo": null }, "geometry": { "type": "Point", "coordinates": [ 122.570548, 10.801888 ] } },
{ "type": "Feature", "properties": { "name": "Globe Tower", "category": "Critical Facilities", "type": "Telecommunication", "address": "QHVC+939, Santa Barbara - Leganes Rd, Leganes, Iloilo", "contact_mobile": null, "contact_landline": null, "email": null, "barangay": "Lapayon", "district": null, "municity": "Leganes", "province": "Iloilo", "facebook": null, "url": null, "logo": null }, "geometry": { "type": "Point", "coordinates": [ 122.570232, 10.793425 ] } },
{ "type": "Feature", "properties": { "name": "RNT Water Distribution Services", "category": "Critical Facilities", "type": "Water Supply and Distribution", "address": "QHQM+4FP, Hulong Guihaman Way, Leganes, Iloilo", "contact_mobile": null, "contact_landline": null, "email": null, "barangay": "San Vicente", "district": null, "municity": "Leganes", "province": "Iloilo", "facebook": null, "url": null, "logo": null }, "geometry": { "type": "Point", "coordinates": [ 122.581274, 10.787169 ] } },
{ "type": "Feature", "properties": { "name": "Apple Fresh Fish Market Tatak Carles", "category": "Critical Facilities", "type": "Public Market", "address": "QHRG+7X5, Santa Barbara - Leganes Rd, Leganes, Iloilo", "contact_mobile": "0956 042 8983", "contact_landline": null, "email": null, "barangay": "San Vicente", "district": null, "municity": "Leganes", "province": "Iloilo", "facebook": null, "url": null, "logo": null }, "geometry": { "type": "Point", "coordinates": [ 122.577487, 10.79064 ] } },
{ "type": "Feature", "properties": { "name": "God of Glory Christian Church Leganes", "category": "Critical Facilities", "type": "Faith-Based", "address": "QHQJ+RM7, Leganes, Iloilo", "contact_mobile": null, "contact_landline": null, "email": null, "barangay": "San Vicente", "district": null, "municity": "Leganes", "province": "Iloilo", "facebook": null, "url": null, "logo": null }, "geometry": { "type": "Point", "coordinates": [ 122.58168, 10.789534 ] } },
{ "type": "Feature", "properties": { "name": "Barangay Guihaman Tanod Outpost", "category": "Critical Facilities", "type": "Emergency Response", "address": "QHHP+V3V, Jaro, Leganes, Iloilo", "contact_mobile": null, "contact_landline": null, "email": null, "barangay": "Guihaman", "district": null, "municity": "Leganes", "province": "Iloilo", "facebook": null, "url": null, "logo": null }, "geometry": { "type": "Point", "coordinates": [ 122.584876, 10.779759 ] } },
{ "type": "Feature", "properties": { "name": "Leganes Baptist Academy", "category": "Critical Facilities", "type": "Education", "address": "Leganes Baptist Academy, National Highway, Buntatala, B5 L15 Villa Amelia Subdivision, Leganes, 5003, Iloilo", "contact_mobile": "0919 870 1594", "contact_landline": null, "email": null, "barangay": "Guihaman", "district": null, "municity": "Leganes", "province": "Iloilo", "facebook": null, "url": null, "logo": null }, "geometry": { "type": "Point", "coordinates": [ 122.586222, 10.781477 ] } },
{ "type": "Feature", "properties": { "name": "First Baptist Church Of Leganes", "category": "Critical Facilities", "type": "Faith-Based", "address": "QHJP+WFG, National Hwy, Brgy Guihaman Leganes, Iloilo City, 5003 Iloilo", "contact_mobile": null, "contact_landline": null, "email": null, "barangay": "Guihaman", "district": null, "municity": "Leganes", "province": "Iloilo", "facebook": null, "url": null, "logo": null }, "geometry": { "type": "Point", "coordinates": [ 122.586215, 10.782322 ] } },
{ "type": "Feature", "properties": { "name": "Brgy Poblacion Leganes", "category": "Critical Facilities", "type": "Government", "address": "QHPP+GPR, Valencia St, Poblacion, Leganes, 5003 Iloilo", "contact_mobile": "0948 111 3797", "contact_landline": null, "email": null, "barangay": "Poblacion", "district": null, "municity": "Leganes", "province": "Iloilo", "facebook": null, "url": null, "logo": null }, "geometry": { "type": "Point", "coordinates": [ 122.586761, 10.786364 ] } },
{ "type": "Feature", "properties": { "name": "Leganes MDRRMO", "category": "Critical Facilities", "type": "Emergency Response", "address": "QHPP+GPR, Espino St, Poblacion, Leganes, Iloilo", "contact_mobile": null, "contact_landline": null, "email": null, "barangay": "Poblacion", "district": null, "municity": "Leganes", "province": "Iloilo", "facebook": null, "url": null, "logo": null }, "geometry": { "type": "Point", "coordinates": [ 122.586761, 10.786364 ] } },
{ "type": "Feature", "properties": { "name": "TSK Leganes Fundamental Baptist Church", "category": "Critical Facilities", "type": "Faith-Based", "address": "MG Jardeleza, Subdivision, Poblacion, Leganes, Iloilo", "contact_mobile": null, "contact_landline": null, "email": null, "barangay": "Poblacion", "district": null, "municity": "Leganes", "province": "Iloilo", "facebook": null, "url": null, "logo": null }, "geometry": { "type": "Point", "coordinates": [ 122.58517, 10.785784 ] } },
{ "type": "Feature", "properties": { "name": "The Church of Jesus Christ of Latter-day Saints", "category": "Critical Facilities", "type": "Faith-Based", "address": "Quintin Salas Street, Barangay Poblacion, Leganes, 5003 Iloilo", "contact_mobile": "0981 495 4493", "contact_landline": null, "email": null, "barangay": "Poblacion", "district": null, "municity": "Leganes", "province": "Iloilo", "facebook": null, "url": "https://local.churchofjesuschrist.org/en/ph/leganes/quintin-salas-street?utm_source=gmb&utm_medium=yext&y_source=1_NjcwODE4MzItNzE1LWxvY2F0aW9uLndlYnNpdGU%3D", "logo": null }, "geometry": { "type": "Point", "coordinates": [ 122.588097, 10.786748 ] } },
{ "type": "Feature", "properties": { "name": "Mayor's Office", "category": "Critical Facilities", "type": "Government", "address": "Leganes Town Hall, 5003 Hilado St, Leganes, Iloilo", "contact_mobile": null, "contact_landline": "(033) 329 6622", "email": null, "barangay": "Poblacion", "district": null, "municity": "Leganes", "province": "Iloilo", "facebook": null, "url": null, "logo": null }, "geometry": { "type": "Point", "coordinates": [ 122.590153, 10.785145 ] } },
{ "type": "Feature", "properties": { "name": "Municipal Treasurer'S Office", "category": "Critical Facilities", "type": "Government", "address": "Leganes Town Hall, 5003 Hilado St, Leganes, Iloilo", "contact_mobile": null, "contact_landline": "(033) 329 6622", "email": null, "barangay": "Poblacion", "district": null, "municity": "Leganes", "province": "Iloilo", "facebook": null, "url": null, "logo": null }, "geometry": { "type": "Point", "coordinates": [ 122.590153, 10.785145 ] } },
{ "type": "Feature", "properties": { "name": "MSWD-Leganes", "category": "Critical Facilities", "type": "Government", "address": "Leganes Town Hall, 5003 Hilado St, Leganes, Iloilo", "contact_mobile": null, "contact_landline": "(033) 315 5277", "email": null, "barangay": "Poblacion", "district": null, "municity": "Leganes", "province": "Iloilo", "facebook": null, "url": null, "logo": null }, "geometry": { "type": "Point", "coordinates": [ 122.590037, 10.784971 ] } },
{ "type": "Feature", "properties": { "name": "Municipal Agriculture", "category": "Critical Facilities", "type": "Government", "address": "QHMQ+PRR, Leganes, Iloilo", "contact_mobile": null, "contact_landline": null, "email": null, "barangay": "Poblacion", "district": null, "municity": "Leganes", "province": "Iloilo", "facebook": null, "url": null, "logo": null }, "geometry": { "type": "Point", "coordinates": [ 122.589508, 10.784357 ] } },
{ "type": "Feature", "properties": { "name": "Office of the Executive Secretary", "category": "Critical Facilities", "type": "Government", "address": "Leganes Town Hall, Hilado St, Leganes, 5003 Iloilo", "contact_mobile": null, "contact_landline": "(033) 329 6622", "email": null, "barangay": "Poblacion", "district": null, "municity": "Leganes", "province": "Iloilo", "facebook": null, "url": null, "logo": null }, "geometry": { "type": "Point", "coordinates": [ 122.590153, 10.785145 ] } },
{ "type": "Feature", "properties": { "name": "Municipality of Leganes Senior Citizen Office", "category": "Critical Facilities", "type": "Government", "address": "QHPR+83H, Leganes, Iloilo", "contact_mobile": null, "contact_landline": null, "email": null, "barangay": "Poblacion", "district": null, "municity": "Leganes", "province": "Iloilo", "facebook": null, "url": null, "logo": null }, "geometry": { "type": "Point", "coordinates": [ 122.59022, 10.785806 ] } },
{ "type": "Feature", "properties": { "name": "Leganes Town Hall", "category": "Critical Facilities", "type": "Government", "address": "5003 Hilado St, Leganes, Iloil", "contact_mobile": null, "contact_landline": null, "email": null, "barangay": "Poblacion", "district": null, "municity": "Leganes", "province": "Iloilo", "facebook": null, "url": "https://leganes.gov.ph/", "logo": null }, "geometry": { "type": "Point", "coordinates": [ 122.590116, 10.785093 ] } },
{ "type": "Feature", "properties": { "name": "Poblacion Barangay Hall", "category": "Critical Facilities", "type": "Government", "address": "QHMQ+JVM, Rizal St, Leganes, Iloilo", "contact_mobile": null, "contact_landline": null, "email": null, "barangay": "Poblacion", "district": null, "municity": "Leganes", "province": "Iloilo", "facebook": null, "url": null, "logo": null }, "geometry": { "type": "Point", "coordinates": [ 122.589662, 10.784096 ] } },
{ "type": "Feature", "properties": { "name": "Brgy. Poblacion Tanod Outpost", "category": "Critical Facilities", "type": "Emergency Response", "address": "QHPQ+HPM, Hilado St, Leganes, Iloilo", "contact_mobile": null, "contact_landline": null, "email": null, "barangay": "Poblacion", "district": null, "municity": "Leganes", "province": "Iloilo", "facebook": null, "url": null, "logo": null }, "geometry": { "type": "Point", "coordinates": [ 122.589296, 10.786451 ] } },
{ "type": "Feature", "properties": { "name": "Leganes Police Station", "category": "Critical Facilities", "type": "Emergency Response", "address": "Leganes Town Hall, 5003 Hilado St, Leganes, Iloilo", "contact_mobile": null, "contact_landline": null, "email": null, "barangay": "Poblacion", "district": null, "municity": "Leganes", "province": "Iloilo", "facebook": null, "url": null, "logo": null }, "geometry": { "type": "Point", "coordinates": [ 122.589007, 10.786092 ] } },
{ "type": "Feature", "properties": { "name": "Leganes Fire Station", "category": "Critical Facilities", "type": "Emergency Response", "address": "QHMQ+PX5, Hilado St, Leganes, 5003 Iloilo", "contact_mobile": null, "contact_landline": "(033) 524 8101", "email": null, "barangay": "Poblacion", "district": null, "municity": "Leganes", "province": "Iloilo", "facebook": null, "url": null, "logo": null }, "geometry": { "type": "Point", "coordinates": [ 122.589993, 10.784275 ] } },
{ "type": "Feature", "properties": { "name": "Leganes Evacuation Center", "category": "Critical Facilities", "type": "Emergency Response", "address": "QHPR+673, Hilado St, Leganes, Iloilo", "contact_mobile": null, "contact_landline": null, "email": null, "barangay": "Poblacion", "district": null, "municity": "Leganes", "province": "Iloilo", "facebook": null, "url": null, "logo": null }, "geometry": { "type": "Point", "coordinates": [ 122.590663, 10.785507 ] } },
{ "type": "Feature", "properties": { "name": "Leganes Central Elementary School", "category": "Critical Facilities", "type": "Education", "address": "QHQQ+7X6 Leganes Central Elementary School, Poblacion, Leganes, 5003 Iloilo", "contact_mobile": null, "contact_landline": "(033) 524 0411", "email": "116477@deped.gov.ph", "barangay": "Poblacion", "district": null, "municity": "Leganes", "province": "Iloilo", "facebook": "https://www.facebook.com/p/Leganes-Central-Elementary-School-100064013586810/", "url": null, "logo": "https://drive.google.com/uc?export=view&id=1hpm_X4ycOQRwLnQFGIPVZckYof98fPfE" }, "geometry": { "type": "Point", "coordinates": [ 122.589888, 10.788157 ] } },
{ "type": "Feature", "properties": { "name": "St. Vincent Ferrer Parochial School", "category": "Critical Facilities", "type": "Education", "address": "QHPR+88M St. Vincent Ferrer Parochial School, Espinos St, Brgy. Poblacion, Leganes, 5000 Iloilo", "contact_mobile": "0927 819 2924", "contact_landline": null, "email": "stvincentferrerparochialschool@gmail.com", "barangay": "Poblacion", "district": null, "municity": "Leganes", "province": "Iloilo", "facebook": "https://www.facebook.com/profile.php?id=100065189101485", "url": null, "logo": "https://drive.google.com/uc?export=view&id=1Z_DAdqUF2XXXqrgSAaPzgmdhGeR3psPx" }, "geometry": { "type": "Point", "coordinates": [ 122.590786, 10.785834 ] } },
{ "type": "Feature", "properties": { "name": "Leganes Day Care Center", "category": "Critical Facilities", "type": "Education", "address": "QHMQ+QPQ Leganes Day Care Center, Rizal St, Leganes, Iloilo", "contact_mobile": null, "contact_landline": null, "email": null, "barangay": "Poblacion", "district": null, "municity": "Leganes", "province": "Iloilo", "facebook": null, "url": null, "logo": null }, "geometry": { "type": "Point", "coordinates": [ 122.589355, 10.784454 ] } },
{ "type": "Feature", "properties": { "name": "Archdiocesan Shrine Of Saint Vincent Ferrer", "category": "Critical Facilities", "type": "Faith-Based", "address": "4 Hilado St, Leganes, Iloilo", "contact_mobile": null, "contact_landline": "(033) 329 7893", "email": null, "barangay": "Poblacion", "district": null, "municity": "Leganes", "province": "Iloilo", "facebook": null, "url": null, "logo": null }, "geometry": { "type": "Point", "coordinates": [ 122.590175, 10.786199 ] } },
{ "type": "Feature", "properties": { "name": "Leganes Town Plaza", "category": "Critical Facilities", "type": "Parks and Open Space", "address": "QHPQ+4H2, Jaro, Leganes, Iloilo", "contact_mobile": null, "contact_landline": null, "email": null, "barangay": "Poblacion", "district": null, "municity": "Leganes", "province": "Iloilo", "facebook": null, "url": null, "logo": null }, "geometry": { "type": "Point", "coordinates": [ 122.588879, 10.785257 ] } },
{ "type": "Feature", "properties": { "name": "Cari Minor Brgy. Multi-Purpose Hall and Basketball Court", "category": "Critical Facilities", "type": "Multipurpose Hall", "address": "QJR2+XC6, Leganes, Iloilo", "contact_mobile": null, "contact_landline": null, "email": null, "barangay": "Cari Minor", "district": null, "municity": "Leganes", "province": "Iloilo", "facebook": null, "url": null, "logo": null }, "geometry": { "type": "Point", "coordinates": [ 122.601024, 10.792404 ] } },
{ "type": "Feature", "properties": { "name": "Iglesia Ni Cristo - Lokal ng Leganes [Iloilo South]", "category": "Critical Facilities", "type": "Faith-Based", "address": "QHMV+92R, Jaro, Leganes, Iloilo", "contact_mobile": null, "contact_landline": null, "email": null, "barangay": "Guinobatan", "district": null, "municity": "Leganes", "province": "Iloilo", "facebook": null, "url": null, "logo": null }, "geometry": { "type": "Point", "coordinates": [ 122.59253, 10.783484 ] } },
{ "type": "Feature", "properties": { "name": "Barangay Guinobatan Multi-Purpose Hall", "category": "Critical Facilities", "type": "Multipurpose Hall", "address": "QHMX+QQ9, Brgy, Brgy. Guinobatan, Leganes, Iloilo City, 5003 Iloilo", "contact_mobile": null, "contact_landline": null, "email": null, "barangay": "Guinobatan", "district": null, "municity": "Leganes", "province": "Iloilo", "facebook": null, "url": null, "logo": null }, "geometry": { "type": "Point", "coordinates": [ 122.599491, 10.784417 ] } },
{ "type": "Feature", "properties": { "name": "Hosanna Presbyterian Bible College", "category": "Critical Facilities", "type": "Education", "address": "Brgy Proper Road, Leganes, 5003 Iloilo", "contact_mobile": null, "contact_landline": null, "email": null, "barangay": "Guinobatan", "district": null, "municity": "Leganes", "province": "Iloilo", "facebook": null, "url": null, "logo": null }, "geometry": { "type": "Point", "coordinates": [ 122.600822, 10.785029 ] } },
{ "type": "Feature", "properties": { "name": "Leganes National High School", "category": "Critical Facilities", "type": "Education", "address": "QHJV+QQ7 LEGANES NATIONAL HIGH SCHOOL, Leganes, Iloilo", "contact_mobile": null, "contact_landline": "(033) 524 0538", "email": "302520@deped.gov.ph", "barangay": "Guinobatan", "district": null, "municity": "Leganes", "province": "Iloilo", "facebook": "https://www.facebook.com/LeganesNationalHighSchoolOfficialPage", "url": "https://leganesnhs.wordpress.com/", "logo": "https://drive.google.com/uc?export=view&id=1UZtJqx5o7R02_RHJ2iJz_RXz2yESNdsg" }, "geometry": { "type": "Point", "coordinates": [ 122.594436, 10.781923 ] } },
{ "type": "Feature", "properties": { "name": "Napnud Elementary School", "category": "Critical Facilities", "type": "Education", "address": "QJG3+QFM Napnud Elementary School, Coastal Road, Leganes, Iloilo", "contact_mobile": null, "contact_landline": null, "email": "116479napn@gmail.com", "barangay": "Napnud", "district": null, "municity": "Leganes", "province": "Iloilo", "facebook": "https://www.facebook.com/116479napn/", "url": null, "logo": "https://drive.google.com/uc?export=view&id=17USK2AjXUk3rsNUba8F-SXqAdZO1kXgF" }, "geometry": { "type": "Point", "coordinates": [ 122.603687, 10.77696 ] } },
{ "type": "Feature", "properties": { "name": "Whitehaven Gardens Leganes Site", "category": "Critical Facilities", "type": "Parks and Open Space", "address": "Calle Progreso, Leganes, Iloilo", "contact_mobile": "0923 685 1936", "contact_landline": null, "email": null, "barangay": "Napnud", "district": null, "municity": "Leganes", "province": "Iloilo", "facebook": null, "url": "https://whitehavengardens.com/", "logo": null }, "geometry": { "type": "Point", "coordinates": [ 122.600316, 10.777443 ] } },
{ "type": "Feature", "properties": { "name": "St. Vincent College of Science and Technology", "category": "Critical Facilities", "type": "Education", "address": "QHXV+MXR Iloilo R4 Rd, Leganes, Iloilo", "contact_mobile": null, "contact_landline": null, "email": "svconline2020@gmail.com", "barangay": "Cagamutan Norte", "district": null, "municity": "Leganes", "province": "Iloilo", "facebook": "https://www.facebook.com/SVCleganes/", "url": null, "logo": "https://drive.google.com/uc?export=view&id=1TGwnKEhTa-XJaSQXgZ2kPyWIuf599eJR" }, "geometry": { "type": "Point", "coordinates": [ 122.594901, 10.799228 ] } },
{ "type": "Feature", "properties": { "name": "Cagamutan Norte Leganes Iloilo", "category": "Critical Facilities", "type": "Government", "address": "RJ62+J95,Barangay Hall, Jaro, Leganes, Iloilo", "contact_mobile": null, "contact_landline": null, "email": null, "barangay": "Cagamutan Norte", "district": null, "municity": "Leganes", "province": "Iloilo", "facebook": null, "url": null, "logo": null }, "geometry": { "type": "Point", "coordinates": [ 122.600975, 10.811515 ] } },
{ "type": "Feature", "properties": { "name": "Cagamutan Norte Elementary School", "category": "Critical Facilities", "type": "Education", "address": "RJ62+WH8 Cagamutan Norte Elementary School, Iloilo R4 Rd, Leganes, Iloilo", "contact_mobile": "0917 323 3407", "contact_landline": null, "email": "116470@deped.gov.ph", "barangay": "Cagamutan Norte", "district": null, "municity": "Leganes", "province": "Iloilo", "facebook": "https://www.facebook.com/people/Cagamutan-Elementary-School/61559833517712/", "url": null, "logo": "https://drive.google.com/uc?export=view&id=1Jhd270mTs1yXHOKp0yNDlRP1wpNC-OzS" }, "geometry": { "type": "Point", "coordinates": [ 122.601448, 10.812287 ] } },
{ "type": "Feature", "properties": { "name": "Brgy. M.V. Hechanova Day Care Center", "category": "Critical Facilities", "type": "Education", "address": "Brgy M.V. Hechanova Day Care Center, Brgy, Leganes, Iloilo City, 5003 Iloilo", "contact_mobile": null, "contact_landline": null, "email": null, "barangay": "M.V. Hechanova", "district": null, "municity": "Iloilo City", "province": "Iloilo", "facebook": null, "url": null, "logo": null }, "geometry": { "type": "Point", "coordinates": [ 122.603946, 10.770857 ] } },
{ "type": "Feature", "properties": { "name": "Camangay Barangay Hall Leganes", "category": "Critical Facilities", "type": "Government", "address": "QH6V+RQF, Coastal Road, Jaro, Leganes, 5000 Iloilo", "contact_mobile": null, "contact_landline": null, "email": null, "barangay": "Camangay", "district": null, "municity": "Leganes", "province": "Iloilo", "facebook": null, "url": null, "logo": null }, "geometry": { "type": "Point", "coordinates": [ 122.594437, 10.762068 ] } },
{ "type": "Feature", "properties": { "name": "Buntatala Barangay Hall", "category": "Critical Facilities", "type": "Government", "address": "QHGM+JV Buntatala Barangay Hall, Leganes, Iloilo", "contact_mobile": null, "contact_landline": null, "email": null, "barangay": "Buntatala", "district": null, "municity": "Iloilo City", "province": "Iloilo", "facebook": null, "url": null, "logo": null }, "geometry": { "type": "Point", "coordinates": [ 122.584714, 10.776551 ] } },
{ "type": "Feature", "properties": { "name": "Gua-An Multi-Purpose Hall", "category": "Critical Facilities", "type": "Multipurpose Hall", "address": "QJJ7+JV3, Coastal Rd, Leganes, Iloilo", "contact_mobile": null, "contact_landline": null, "email": null, "barangay": "Gua-an", "district": null, "municity": "Leganes", "province": "Iloilo", "facebook": null, "url": null, "logo": null }, "geometry": { "type": "Point", "coordinates": [ 122.614665, 10.781508 ] } },
{ "type": "Feature", "properties": { "name": "Guintas Elementary School", "category": "Critical Facilities", "type": "Education", "address": "QH8V+94W Guintas Elementary School, Jaro, Leganes, Iloilo", "contact_mobile": "0948 949 0229", "contact_landline": null, "email": "116475@deped.gov.ph", "barangay": "Guintas", "district": null, "municity": "Leganes", "province": "Iloilo", "facebook": "https://www.facebook.com/guintaselementaryschool/", "url": null, "logo": null }, "geometry": { "type": "Point", "coordinates": [ 122.592836, 10.765979 ] } },
{ "type": "Feature", "properties": { "name": "Leganes Vision Church", "category": "Critical Facilities", "type": "Faith-Based", "address": "QJW5+978, Leganes, Iloilo", "contact_mobile": null, "contact_landline": null, "email": null, "barangay": "Cari Mayor", "district": null, "municity": "Leganes", "province": "Iloilo", "facebook": null, "url": null, "logo": null }, "geometry": { "type": "Point", "coordinates": [ 122.60819, 10.795915 ] } },
{ "type": "Feature", "properties": { "name": "BLCA Multi-Purpose Hall", "category": "Critical Facilities", "type": "Multipurpose Hall", "address": "QJW5+PC6, Leganes, Iloilo", "contact_mobile": null, "contact_landline": null, "email": null, "barangay": "Cari Mayor", "district": null, "municity": "Leganes", "province": "Iloilo", "facebook": null, "url": null, "logo": null }, "geometry": { "type": "Point", "coordinates": [ 122.608505, 10.79678 ] } }
]
}
