{
"type": "FeatureCollection",
"name": "DRRM_SANTA_BARBARA_Critical_Facilities_Insights",
"crs": { "type": "name", "properties": { "name": "urn:ogc:def:crs:OGC:1.3:CRS84" } },
"features": [
{ "type": "Feature", "properties": { "name": "Tugas Elementary School", "category": "Critical Facilities", "type": "Education", "address": "VG7G+8JJ Tugas Elementary School, Santa Barbara, Iloilo", "contact_mobile": null, "contact_landline": null, "email": null, "barangay": "Tugas", "district": null, "municity": "Santa Barbara", "province": "Iloilo", "facebook": "https://www.facebook.com/tugas.elementaryschool/", "url": null, "logo": "https://drive.google.com/uc?export=view&id=1e--szjjxH2l2N8T1nEen1HmFjWoSLpA5" }, "geometry": { "type": "Point", "coordinates": [ 122.526518, 10.863334 ] } },
{ "type": "Feature", "properties": { "name": "Buayahon Barangay Hall", "category": "Critical Facilities", "type": "Government", "address": "VG7R+745, Santa Barbara, Iloilo", "contact_mobile": null, "contact_landline": null, "email": null, "barangay": "Buayahon", "district": null, "municity": "Santa Barbara", "province": "Iloilo", "facebook": null, "url": null, "logo": null }, "geometry": { "type": "Point", "coordinates": [ 122.540355, 10.863132 ] } },
{ "type": "Feature", "properties": { "name": "St. Bernard Novitiate", "category": "Critical Facilities", "type": "Faith-Based", "address": "VH54+8W4, Santa Barbara - New Lucena Rd, Santa Barbara, Iloilo", "contact_mobile": null, "contact_landline": null, "email": null, "barangay": "Daga", "district": null, "municity": "Santa Barbara", "province": "Iloilo", "facebook": null, "url": "https://fsspx.asia/en/list-sspx-chapels-1", "logo": null }, "geometry": { "type": "Point", "coordinates": [ 122.557327, 10.858273 ] } },
{ "type": "Feature", "properties": { "name": "Angels Paradise Memorial Park", "category": "Critical Facilities", "type": "Parks and Open Space", "address": "VH28+WJV, Santa Barbara, Iloilo", "contact_mobile": null, "contact_landline": null, "email": null, "barangay": "Daga", "district": null, "municity": "Santa Barbara", "province": "Iloilo", "facebook": null, "url": null, "logo": null }, "geometry": { "type": "Point", "coordinates": [ 122.56655, 10.852363 ] } },
{ "type": "Feature", "properties": { "name": "Guno Uncovered Court & DayCare Center", "category": "Critical Facilities", "type": "Education", "address": "RGQQ+WWJ Guno Uncovered Court & DayCare Center, Santa Barbara, Iloilo", "contact_mobile": null, "contact_landline": null, "email": null, "barangay": "Guno", "district": null, "municity": "Santa Barbara", "province": "Iloilo", "facebook": null, "url": null, "logo": null }, "geometry": { "type": "Point", "coordinates": [ 122.539764, 10.839849 ] } },
{ "type": "Feature", "properties": { "name": "House of Prayer Community Church Christian Fellowship Inc.", "category": "Critical Facilities", "type": "Faith-Based", "address": "RGHQ+V73 Santa Barbara, Merlo Street, Santa Barbara, Iloilo", "contact_mobile": "0910 407 2309", "contact_landline": null, "email": null, "barangay": "Poblacion", "district": null, "municity": "Santa Barbara", "province": "Iloilo", "facebook": null, "url": null, "logo": null }, "geometry": { "type": "Point", "coordinates": [ 122.538186, 10.829639 ] } },
{ "type": "Feature", "properties": { "name": "Cabugao Norte", "category": "Critical Facilities", "type": "Government", "address": "RG2R+FXF, Santa Barbara Barangay Hall, Santa Barbara, 5002 Iloilo", "contact_mobile": null, "contact_landline": "(033) 523 9732", "email": null, "barangay": "Cabugao Norte", "district": null, "municity": "Santa Barbara", "province": "Iloilo", "facebook": null, "url": null, "logo": null }, "geometry": { "type": "Point", "coordinates": [ 122.542418, 10.801178 ] } },
{ "type": "Feature", "properties": { "name": "Sacred Heart Church", "category": "Critical Facilities", "type": "Faith-Based", "address": "RG7G+73G, Santa Barbara, Iloilo", "contact_mobile": null, "contact_landline": null, "email": null, "barangay": "Inangayan", "district": null, "municity": "Santa Barbara", "province": "Iloilo", "facebook": null, "url": null, "logo": null }, "geometry": { "type": "Point", "coordinates": [ 122.525189, 10.8132 ] } },
{ "type": "Feature", "properties": { "name": "Barangay Hall Zone 1", "category": "Critical Facilities", "type": "Government", "address": "Brgy Arroyo Street, Santa Barbara, Iloilo City, 5002 Iloilo", "contact_mobile": null, "contact_landline": null, "email": null, "barangay": "Poblacion", "district": null, "municity": "Santa Barbara", "province": "Iloilo", "facebook": null, "url": null, "logo": null }, "geometry": { "type": "Point", "coordinates": [ 122.530299, 10.825855 ] } },
{ "type": "Feature", "properties": { "name": "Santa Barbara National Comprehensive High School - Senior High School", "category": "Critical Facilities", "type": "Education", "address": "RGFJ+85J Santa Barbara National Comprehensive High School - Senior High School, Roosevelt Street, Santa Barbara, Iloilo", "contact_mobile": null, "contact_landline": "(033) 523 7507", "email": null, "barangay": "Poblacion", "district": null, "municity": "Santa Barbara", "province": "Iloilo", "facebook": "https://www.facebook.com/p/Santa-Barbara-National-Comprehensive-High-School-S-B-N-C-H-S-100083075723278/", "url": null, "logo": "https://drive.google.com/uc?export=view&id=1pJpHAYJH572VTI6aGNaEaONsVtPGAiyn" }, "geometry": { "type": "Point", "coordinates": [ 122.530387, 10.823327 ] } },
{ "type": "Feature", "properties": { "name": "Iloilo Golf and Country Club", "category": "Critical Facilities", "type": "Parks and Open Space", "address": "Santa Barbara, 5002 Iloilo", "contact_mobile": null, "contact_landline": null, "email": "ilogolf1907@gmail.com", "barangay": "San Sebastian", "district": null, "municity": "Santa Barbara", "province": "Iloilo", "facebook": null, "url": null, "logo": "https://drive.google.com/uc?export=view&id=1x8TdjIFMhVkI6ZzrKywImGnGJUHzNE8S" }, "geometry": { "type": "Point", "coordinates": [ 122.523625, 10.821571 ] } },
{ "type": "Feature", "properties": { "name": "Faith Center Church", "category": "Critical Facilities", "type": "Faith-Based", "address": "QGP4+RX2, Santa Barbara, Iloilo", "contact_mobile": null, "contact_landline": null, "email": null, "barangay": "Tagsing", "district": null, "municity": "Santa Barbara", "province": "Iloilo", "facebook": null, "url": null, "logo": null }, "geometry": { "type": "Point", "coordinates": [ 122.507388, 10.787023 ] } },
{ "type": "Feature", "properties": { "name": "Buyo Barangay Hall", "category": "Critical Facilities", "type": "Government", "address": "QGJ3+8M3, Santa Barbara, Iloilo", "contact_mobile": "0918 345 8543", "contact_landline": null, "email": null, "barangay": "Buyo", "district": null, "municity": "Santa Barbara", "province": "Iloilo", "facebook": null, "url": null, "logo": null }, "geometry": { "type": "Point", "coordinates": [ 122.504163, 10.780764 ] } },
{ "type": "Feature", "properties": { "name": "Balabag-Jibao-an Elementary School", "category": "Critical Facilities", "type": "Education", "address": "Balabag-Jibao-an Elementary School, Oton - San Jose-Santa Barbara Rd, Santa Barbara, Iloilo", "contact_mobile": null, "contact_landline": null, "email": null, "barangay": "Jibao-an", "district": null, "municity": "Santa Barbara", "province": "Iloilo", "facebook": "https://www.facebook.com/balabagjibaoan.elementaryschool/", "url": null, "logo": "https://drive.google.com/uc?export=view&id=1oU75_nGuetKMnXq6nw3zpfLnWDXIRMaf" }, "geometry": { "type": "Point", "coordinates": [ 122.50323, 10.776135 ] } },
{ "type": "Feature", "properties": { "name": "Our Lady of Fatima Parish Church", "category": "Critical Facilities", "type": "Faith-Based", "address": "QGJ3+FVP, Oton - San Jose-Santa Barbara Rd, Santa Barbara, Iloilo", "contact_mobile": null, "contact_landline": null, "email": null, "barangay": "Buyo", "district": null, "municity": "Santa Barbara", "province": "Iloilo", "facebook": null, "url": null, "logo": null }, "geometry": { "type": "Point", "coordinates": [ 122.504699, 10.781223 ] } },
{ "type": "Feature", "properties": { "name": "St Joseph The Worker Church", "category": "Critical Facilities", "type": "Faith-Based", "address": "QGF5+Q2J, Santa Barbara, Iloilo", "contact_mobile": null, "contact_landline": null, "email": null, "barangay": "Balabag", "district": null, "municity": "Santa Barbara", "province": "Iloilo", "facebook": null, "url": null, "logo": null }, "geometry": { "type": "Point", "coordinates": [ 122.50751, 10.774466 ] } },
{ "type": "Feature", "properties": { "name": "Brgy. Balabag, Sta. Barbara, Iloilo Barangay Hall", "category": "Critical Facilities", "type": "Government", "address": "QGC6+X9G, Santa Barbara, Iloilo", "contact_mobile": null, "contact_landline": null, "email": null, "barangay": "Balabag", "district": null, "municity": "Santa Barbara", "province": "Iloilo", "facebook": null, "url": null, "logo": null }, "geometry": { "type": "Point", "coordinates": [ 122.510958, 10.772426 ] } },
{ "type": "Feature", "properties": { "name": "Church", "category": "Critical Facilities", "type": "Faith-Based", "address": "RGJ5+285 Church, Sitio.Tabay, Brgy.Cadagmayan Norte, Sta.Barbara, Iloilo City, 5002 Iloilo", "contact_mobile": null, "contact_landline": null, "email": null, "barangay": "Cadagmayan Norte", "district": null, "municity": "Santa Barbara", "province": "Iloilo", "facebook": null, "url": null, "logo": null }, "geometry": { "type": "Point", "coordinates": [ 122.508352, 10.830008 ] } },
{ "type": "Feature", "properties": { "name": "Camambugan Multi-Purpose Building", "category": "Critical Facilities", "type": "Multipurpose Hall", "address": "RGP7+MFW, Santa Barbara, Iloilo", "contact_mobile": null, "contact_landline": null, "email": null, "barangay": "Camambugan", "district": null, "municity": "Santa Barbara", "province": "Iloilo", "facebook": null, "url": null, "logo": null }, "geometry": { "type": "Point", "coordinates": [ 122.5137, 10.836734 ] } },
{ "type": "Feature", "properties": { "name": "Metro Iloilo Bulk Water Supply Corporation", "category": "Critical Facilities", "type": "Water Supply and Distribution", "address": "RGW9+PF5, MIWD Water Treatment Plant Compound, Brgy., Talanghauan, Sta. Barbara, Iloilo City", "contact_mobile": null, "contact_landline": "(033) 885 2537", "email": null, "barangay": "Talanghauan", "district": null, "municity": "Santa Barbara", "province": "Iloilo", "facebook": null, "url": "https://metropacificwater.com/metro-iloilo-bulk-water-supply-corporation-mib/", "logo": null }, "geometry": { "type": "Point", "coordinates": [ 122.518737, 10.846755 ] } },
{ "type": "Feature", "properties": { "name": "Tigtig Brgy. Hall", "category": "Critical Facilities", "type": "Government", "address": "RHF6+5HF, Santa Barbara, Iloilo, Santa Barbara, Iloilo", "contact_mobile": null, "contact_landline": null, "email": null, "barangay": "Tigtig", "district": null, "municity": "Santa Barbara", "province": "Iloilo", "facebook": null, "url": null, "logo": null }, "geometry": { "type": "Point", "coordinates": [ 122.561419, 10.822936 ] } },
{ "type": "Feature", "properties": { "name": "DPWH Iloilo 4th District Engineering Office", "category": "Critical Facilities", "type": "Government", "address": "RG6J+R92, Santa Barbara, 5002 Iloilo", "contact_mobile": null, "contact_landline": "(033) 523 4557", "email": null, "barangay": "Bolong Este", "district": null, "municity": "Santa Barbara", "province": "Iloilo", "facebook": null, "url": "https://www.dpwh.gov.ph/dpwh/", "logo": null }, "geometry": { "type": "Point", "coordinates": [ 122.530877, 10.812007 ] } },
{ "type": "Feature", "properties": { "name": "Department of Health Regional Office VI", "category": "Critical Facilities", "type": "Government", "address": "RG7J+46G, Jaro, Santa Barbara, Iloilo", "contact_mobile": null, "contact_landline": null, "email": null, "barangay": "Bolong Oeste", "district": null, "municity": "Santa Barbara", "province": "Iloilo", "facebook": "https://www.facebook.com/DOHWesternVisayasCHD/?_rdc=2&_rdr#", "url": "https://bit.ly/igdohwvchd", "logo": null }, "geometry": { "type": "Point", "coordinates": [ 122.530593, 10.812807 ] } },
{ "type": "Feature", "properties": { "name": "DOH", "category": "Critical Facilities", "type": "Government", "address": "RG7J+V5C, Brgy, Santa Barbara, Iloilo", "contact_mobile": null, "contact_landline": null, "email": null, "barangay": "Bolong Oeste", "district": null, "municity": "Santa Barbara", "province": "Iloilo", "facebook": null, "url": null, "logo": null }, "geometry": { "type": "Point", "coordinates": [ 122.5304, 10.814678 ] } },
{ "type": "Feature", "properties": { "name": "Barangay Hall Zone 6", "category": "Critical Facilities", "type": "Government", "address": "RG9R+26W, Arroyo Street, Santa Barbara, Iloilo", "contact_mobile": null, "contact_landline": null, "email": null, "barangay": "Poblacion", "district": null, "municity": "Santa Barbara", "province": "Iloilo", "facebook": null, "url": null, "logo": null }, "geometry": { "type": "Point", "coordinates": [ 122.540567, 10.817612 ] } },
{ "type": "Feature", "properties": { "name": "Solid Rock Baptist School of Sta. Barbara", "category": "Critical Facilities", "type": "Education", "address": "RG8M+WRP Solid Rock Baptist School Of Sta. Barbara, Marietta Homes, Santa Barbara, Iloilo", "contact_mobile": "0929 563 2832", "contact_landline": null, "email": null, "barangay": "Bolong Oeste", "district": null, "municity": "Santa Barbara", "province": "Iloilo", "facebook": "https://www.facebook.com/people/Solid-Rock-Baptist-School-of-Santa-Barbara-Incorporated/100064322405111/", "url": null, "logo": "https://drive.google.com/uc?export=view&id=1haMX8DjykGk3za0VSnaisiZAdlYyvvVw" }, "geometry": { "type": "Point", "coordinates": [ 122.53459, 10.817336 ] } },
{ "type": "Feature", "properties": { "name": "Sta. Barbara Public Market", "category": "Critical Facilities", "type": "Public Market", "address": "RGCM+JWF Montinola Street, Jaro, Santa Barbara, Iloilo", "contact_mobile": null, "contact_landline": null, "email": null, "barangay": "Poblacion", "district": null, "municity": "Santa Barbara", "province": "Iloilo", "facebook": null, "url": null, "logo": null }, "geometry": { "type": "Point", "coordinates": [ 122.534798, 10.821569 ] } },
{ "type": "Feature", "properties": { "name": "MCGI Sta. Barbara", "category": "Critical Facilities", "type": "Faith-Based", "address": "RGCQ+RCG, Taft Street, Santa Barbara, Iloilo", "contact_mobile": "0910 618 6503", "contact_landline": null, "email": null, "barangay": "Poblacion", "district": null, "municity": "Santa Barbara", "province": "Iloilo", "facebook": null, "url": null, "logo": null }, "geometry": { "type": "Point", "coordinates": [ 122.538671, 10.822061 ] } },
{ "type": "Feature", "properties": { "name": "Bethlehem Community Church-Sta. Barbara", "category": "Critical Facilities", "type": "Faith-Based", "address": "RG8R+W7G, Santa Barbara, Iloilo", "contact_mobile": null, "contact_landline": null, "email": null, "barangay": "Poblacion", "district": null, "municity": "Santa Barbara", "province": "Iloilo", "facebook": null, "url": null, "logo": null }, "geometry": { "type": "Point", "coordinates": [ 122.540717, 10.81731 ] } },
{ "type": "Feature", "properties": { "name": "Fundamental Baptist Church", "category": "Critical Facilities", "type": "Faith-Based", "address": "RG8M+XRF, Santa Barbara, Iloilo", "contact_mobile": null, "contact_landline": null, "email": null, "barangay": "Bolong Oeste", "district": null, "municity": "Santa Barbara", "province": "Iloilo", "facebook": null, "url": null, "logo": null }, "geometry": { "type": "Point", "coordinates": [ 122.534561, 10.81743 ] } },
{ "type": "Feature", "properties": { "name": "Healing Garden", "category": "Critical Facilities", "type": "Parks and Open Space", "address": "RG7R+GJ6, Jaro, Santa Barbara, Iloilo", "contact_mobile": null, "contact_landline": null, "email": null, "barangay": "Agutayan", "district": null, "municity": "Santa Barbara", "province": "Iloilo", "facebook": null, "url": null, "logo": null }, "geometry": { "type": "Point", "coordinates": [ 122.541517, 10.813792 ] } },
{ "type": "Feature", "properties": { "name": "Santa Barbara Municipal Hall", "category": "Critical Facilities", "type": "Government", "address": "RGGJ+XGR, Santa Barbara, Iloilo", "contact_mobile": null, "contact_landline": null, "email": null, "barangay": "Poblacion", "district": null, "municity": "Santa Barbara", "province": "Iloilo", "facebook": null, "url": null, "logo": null }, "geometry": { "type": "Point", "coordinates": [ 122.531252, 10.827484 ] } },
{ "type": "Feature", "properties": { "name": "Municipal Agriculture Office", "category": "Critical Facilities", "type": "Government", "address": "RGGJ+WF8, Santa Barbara Municipal Hall, Rizal Street, Santa Barbara, Iloilo City, 5002", "contact_mobile": null, "contact_landline": "(033) 523 9099", "email": null, "barangay": "Poblacion", "district": null, "municity": "Santa Barbara", "province": "Iloilo", "facebook": null, "url": null, "logo": null }, "geometry": { "type": "Point", "coordinates": [ 122.531203, 10.827276 ] } },
{ "type": "Feature", "properties": { "name": "Sta. Barbara Municipal Police Station", "category": "Critical Facilities", "type": "Emergency Response", "address": "RGGJ+QGC, Bermejo Street, Santa Barbara, Iloilo", "contact_mobile": "0998 598 6233", "contact_landline": null, "email": null, "barangay": "Poblacion", "district": null, "municity": "Santa Barbara", "province": "Iloilo", "facebook": null, "url": null, "logo": null }, "geometry": { "type": "Point", "coordinates": [ 122.531272, 10.826935 ] } },
{ "type": "Feature", "properties": { "name": "Mayor's Office", "category": "Critical Facilities", "type": "Government", "address": "RGHJ+2GH, Santa Barbara Municipal Hall, Rizal Street, Santa Barbara, Iloilo City, 5002", "contact_mobile": null, "contact_landline": "(033) 523 8000", "email": null, "barangay": "Poblacion", "district": null, "municity": "Santa Barbara", "province": "Iloilo", "facebook": null, "url": null, "logo": null }, "geometry": { "type": "Point", "coordinates": [ 122.531359, 10.827571 ] } },
{ "type": "Feature", "properties": { "name": "Hall Of Justice", "category": "Critical Facilities", "type": "Government", "address": "13th Municipal Circuit Trial Court, Santa Barbara, 5002 Iloilo", "contact_mobile": null, "contact_landline": "(033) 523 8724", "email": null, "barangay": "Poblacion", "district": null, "municity": "Santa Barbara", "province": "Iloilo", "facebook": null, "url": null, "logo": null }, "geometry": { "type": "Point", "coordinates": [ 122.531197, 10.827775 ] } },
{ "type": "Feature", "properties": { "name": "Municipal Assesor's Office", "category": "Critical Facilities", "type": "Government", "address": "RGGJ+VC9, Santa Barbara Municipal Hall, Rizal Street, Santa Barbara, Iloilo City, 5002", "contact_mobile": null, "contact_landline": "(033) 523 9062", "email": null, "barangay": "Poblacion", "district": null, "municity": "Santa Barbara", "province": "Iloilo", "facebook": null, "url": null, "logo": null }, "geometry": { "type": "Point", "coordinates": [ 122.531121, 10.827168 ] } },
{ "type": "Feature", "properties": { "name": "Barangay Hall Brgy. Zone -Iv Poblacion", "category": "Critical Facilities", "type": "Government", "address": "RGGM+X5C, Brgy, Poblacion, Santa Barbara, 5002 Iloilo", "contact_mobile": null, "contact_landline": null, "email": null, "barangay": "Poblacion", "district": null, "municity": "Santa Barbara", "province": "Iloilo", "facebook": null, "url": null, "logo": null }, "geometry": { "type": "Point", "coordinates": [ 122.532903, 10.827434 ] } },
{ "type": "Feature", "properties": { "name": "Sta. Barbara Fire Station", "category": "Critical Facilities", "type": "Emergency Response", "address": "RGGJ+WF2, Delgado Street, Santa Barbara, Iloilo", "contact_mobile": null, "contact_landline": "(033) 335 0834", "email": null, "barangay": "Poblacion", "district": null, "municity": "Santa Barbara", "province": "Iloilo", "facebook": null, "url": null, "logo": null }, "geometry": { "type": "Point", "coordinates": [ 122.531142, 10.827273 ] } },
{ "type": "Feature", "properties": { "name": "MDRRMO - Santa Barabara Alerto Fire and Rescue", "category": "Critical Facilities", "type": "Emergency Response", "address": "RGGM+C8M, Bermejo Street, Santa Barbara, 5002 Iloilo", "contact_mobile": null, "contact_landline": null, "email": null, "barangay": "Poblacion", "district": null, "municity": "Santa Barbara", "province": "Iloilo", "facebook": null, "url": null, "logo": null }, "geometry": { "type": "Point", "coordinates": [ 122.533288, 10.826099 ] } },
{ "type": "Feature", "properties": { "name": "Tanod Outpost", "category": "Critical Facilities", "type": "Government", "address": "RGGM+X5J, Rodriguez St, Sta. Barbara, Iloilo City, 5002 Iloilo", "contact_mobile": null, "contact_landline": null, "email": null, "barangay": "Poblacion", "district": null, "municity": "Santa Barbara", "province": "Iloilo", "facebook": null, "url": null, "logo": null }, "geometry": { "type": "Point", "coordinates": [ 122.532877, 10.82746 ] } },
{ "type": "Feature", "properties": { "name": "Santa Barbara Central School", "category": "Critical Facilities", "type": "Education", "address": "RGFJ+89C Santa Barbara Central School, Jaro, Santa Barbara, Iloilo", "contact_mobile": null, "contact_landline": null, "email": null, "barangay": "Poblacion", "district": null, "municity": "Santa Barbara", "province": "Iloilo", "facebook": null, "url": null, "logo": null }, "geometry": { "type": "Point", "coordinates": [ 122.530879, 10.82332 ] } },
{ "type": "Feature", "properties": { "name": "Scuola Bamibini Dei Santa Barbara Inc.", "category": "Critical Facilities", "type": "Education", "address": "RGFM+XVM SCUOLA BAMBINI DEI SANTA BARBARA INC., Taft Street, Santa Barbara, Iloilo", "contact_mobile": null, "contact_landline": "(033) 523 7621", "email": "casabambini09@yahoo.com", "barangay": "Poblacion", "district": null, "municity": "Santa Barbara", "province": "Iloilo", "facebook": "https://www.facebook.com/CasaBambiniSoaring/", "url": null, "logo": null }, "geometry": { "type": "Point", "coordinates": [ 122.534684, 10.824962 ] } },
{ "type": "Feature", "properties": { "name": "Globe Telecom Cellsite", "category": "Critical Facilities", "type": "Telecommunication", "address": "084 Rizal St, Santa Barbara, Iloilo", "contact_mobile": null, "contact_landline": null, "email": null, "barangay": "Gen. Martin T. Delgado", "district": null, "municity": "Santa Barbara", "province": "Iloilo", "facebook": null, "url": null, "logo": null }, "geometry": { "type": "Point", "coordinates": [ 122.529813, 10.832021 ] } },
{ "type": "Feature", "properties": { "name": "Santa Barbara Parish Church", "category": "Critical Facilities", "type": "Faith-Based", "address": "RGHJ+3R9, Rizal St, Santa Barbara, Iloilo", "contact_mobile": null, "contact_landline": "(033) 523 7928", "email": null, "barangay": "Poblacion", "district": null, "municity": "Santa Barbara", "province": "Iloilo", "facebook": null, "url": null, "logo": null }, "geometry": { "type": "Point", "coordinates": [ 122.532101, 10.82766 ] } },
{ "type": "Feature", "properties": { "name": "Apostolic Jesus Name Church Santa Barbara", "category": "Critical Facilities", "type": "Faith-Based", "address": "RGGJ+7R4, Roosevelt Street, Sta. Barbara, Iloilo City, 5002 Iloilo", "contact_mobile": null, "contact_landline": null, "email": null, "barangay": "Poblacion", "district": null, "municity": "Santa Barbara", "province": "Iloilo", "facebook": null, "url": null, "logo": null }, "geometry": { "type": "Point", "coordinates": [ 122.53208, 10.82565 ] } },
{ "type": "Feature", "properties": { "name": "Santa Barbara Baptish Church", "category": "Critical Facilities", "type": "Faith-Based", "address": "RGFP+56J, Montinola Street, Santa Barbara, Iloilo", "contact_mobile": null, "contact_landline": null, "email": null, "barangay": "Poblacion", "district": null, "municity": "Santa Barbara", "province": "Iloilo", "facebook": null, "url": null, "logo": null }, "geometry": { "type": "Point", "coordinates": [ 122.5355, 10.822961 ] } },
{ "type": "Feature", "properties": { "name": "Sta. Barbara Victory Plaza", "category": "Critical Facilities", "type": "Parks and Open Space", "address": "RGGJ+PRG, Santa Barbara, Iloilo City, 5002 Iloilo", "contact_mobile": null, "contact_landline": null, "email": null, "barangay": "Poblacion", "district": null, "municity": "Santa Barbara", "province": "Iloilo", "facebook": null, "url": null, "logo": null }, "geometry": { "type": "Point", "coordinates": [ 122.532082, 10.826823 ] } },
{ "type": "Feature", "properties": { "name": "Whitehaven Gardens Santa Barbara Site", "category": "Critical Facilities", "type": "Parks and Open Space", "address": "Kahilwayan Ave, Santa Barbara, Iloilo", "contact_mobile": "0998 537 4491", "contact_landline": null, "email": null, "barangay": "Duyanduyan", "district": null, "municity": "Santa Barbara", "province": "Iloilo", "facebook": null, "url": "https://whitehavengardens.com/", "logo": null }, "geometry": { "type": "Point", "coordinates": [ 122.525756, 10.829457 ] } },
{ "type": "Feature", "properties": { "name": "Panay Broadband", "category": "Critical Facilities", "type": "Telecommunication", "address": "Lot 9-10, Block 7, Panay Broadband, Paseo de Santa Barbara, Subdivision, Santa Barbara, 5002 Iloilo", "contact_mobile": "0919 066 5448", "contact_landline": null, "email": null, "barangay": "Gen. Martin T. Delgado", "district": null, "municity": "Santa Barbara", "province": "Iloilo", "facebook": null, "url": "http://www.panaybroadband.com.ph/", "logo": null }, "geometry": { "type": "Point", "coordinates": [ 122.527168, 10.831661 ] } }
]
}
