{
"type": "FeatureCollection",
"name": "DRRM_SAN_MIGUEL_Critical_Facilities_Insights",
"crs": { "type": "name", "properties": { "name": "urn:ogc:def:crs:OGC:1.3:CRS84" } },
"features": [
{ "type": "Feature", "properties": { "name": "Municipal Hall San Miguel", "category": "Critical Facilities", "type": "Government", "address": "Municipal Hall, Sales St, San Miguel, 5025 Iloilo", "contact_mobile": null, "contact_landline": null, "email": null, "barangay": "Barangay 1", "district": null, "municity": "San Miguel", "province": "Iloilo", "facebook": null, "url": null, "logo": null }, "geometry": { "type": "Point", "coordinates": [ 122.465791, 10.781561 ] } },
{ "type": "Feature", "properties": { "name": "SB Secretary Office - Municipality Of San Miguel", "category": "Critical Facilities", "type": "Government", "address": "QFJ7+8XC, San Miguel Municipal Hall, Sales St, San Miguel, 5025 Iloilo", "contact_mobile": null, "contact_landline": "(033) 331 0869", "email": null, "barangay": "Barangay 1", "district": null, "municity": "San Miguel", "province": "Iloilo", "facebook": null, "url": null, "logo": null }, "geometry": { "type": "Point", "coordinates": [ 122.464795, 10.780667 ] } },
{ "type": "Feature", "properties": { "name": "Civil Registrar Office - Municipality Of San Miguel", "category": "Critical Facilities", "type": "Government", "address": "San Miguel Municipal Hall, Sales St, San Miguel, 5025 Iloilo", "contact_mobile": "0939 300 1262", "contact_landline": null, "email": null, "barangay": "Barangay 1", "district": null, "municity": "San Miguel", "province": "Iloilo", "facebook": null, "url": null, "logo": null }, "geometry": { "type": "Point", "coordinates": [ 122.46496, 10.780788 ] } },
{ "type": "Feature", "properties": { "name": "Treasurer's Office - Municipality Of San Miguel, San Miguel Municipal Hall", "category": "Critical Facilities", "type": "Government", "address": "QFJ7+8XC, Sales St, San Miguel, 5025 Iloilo", "contact_mobile": null, "contact_landline": "(033) 331 0607", "email": null, "barangay": "Barangay 1", "district": null, "municity": "San Miguel", "province": "Iloilo", "facebook": null, "url": null, "logo": null }, "geometry": { "type": "Point", "coordinates": [ 122.46496, 10.780788 ] } },
{ "type": "Feature", "properties": { "name": "Budget Office - Municipality Of San Miguel", "category": "Critical Facilities", "type": "Government", "address": "QFJ7+8XC, San Miguel Municipal Hall, Sales St, San Miguel, 5025 Iloilo", "contact_mobile": null, "contact_landline": "(033) 331 0735", "email": null, "barangay": "Barangay 1", "district": null, "municity": "San Miguel", "province": "Iloilo", "facebook": null, "url": null, "logo": null }, "geometry": { "type": "Point", "coordinates": [ 122.46475, 10.780891 ] } },
{ "type": "Feature", "properties": { "name": "San Miguel Municipal Police Station", "category": "Critical Facilities", "type": "Emergency Response", "address": "San Miguel Municipal Hall, San Miguel - Cabatuan Rd, San Miguel, 5025 Iloilo", "contact_mobile": null, "contact_landline": "(033) 331 0699", "email": null, "barangay": "Barangay 1", "district": null, "municity": "San Miguel", "province": "Iloilo", "facebook": null, "url": null, "logo": null }, "geometry": { "type": "Point", "coordinates": [ 122.464964, 10.780585 ] } },
{ "type": "Feature", "properties": { "name": "Assessor Office - Municipality Of San Miguel", "category": "Critical Facilities", "type": "Government", "address": "QFJ7+8XC, San Miguel Municipal Hall, Sales St, San Miguel, 5025 Iloilo", "contact_mobile": null, "contact_landline": "(033) 331 0758", "email": null, "barangay": "Barangay 1", "district": null, "municity": "San Miguel", "province": "Iloilo", "facebook": null, "url": null, "logo": null }, "geometry": { "type": "Point", "coordinates": [ 122.46496, 10.780788 ] } },
{ "type": "Feature", "properties": { "name": "Environment And Natural Resources - Municipality Of San Miguel", "category": "Critical Facilities", "type": "Government", "address": "QFJ7+8XC, San Miguel Municipal Hall, Sales St, San Miguel, 5025 Iloilo", "contact_mobile": null, "contact_landline": "(033) 331 0797", "email": null, "barangay": "Barangay 1", "district": null, "municity": "San Miguel", "province": "Iloilo", "facebook": null, "url": null, "logo": null }, "geometry": { "type": "Point", "coordinates": [ 122.46496, 10.780788 ] } },
{ "type": "Feature", "properties": { "name": "Accounting Office - Municipality Of San Miguel", "category": "Critical Facilities", "type": "Government", "address": "QFJ7+8XC, San Miguel Municipal Hall, Sales St, San Miguel, 5025 Iloilo", "contact_mobile": null, "contact_landline": "(033) 331 0172", "email": null, "barangay": "Barangay 1", "district": null, "municity": "San Miguel", "province": "Iloilo", "facebook": null, "url": null, "logo": null }, "geometry": { "type": "Point", "coordinates": [ 122.46496, 10.780788 ] } },
{ "type": "Feature", "properties": { "name": "Municipal Hall San Miguel", "category": "Critical Facilities", "type": "Multipurpose Hall", "address": "Municipal Hall, Sales St, San Miguel, 5025 Iloilo", "contact_mobile": null, "contact_landline": null, "email": null, "barangay": "Barangay 1", "district": null, "municity": "San Miguel", "province": "Iloilo", "facebook": null, "url": null, "logo": null }, "geometry": { "type": "Point", "coordinates": [ 122.465791, 10.781561 ] } },
{ "type": "Feature", "properties": { "name": "San Miguel Central Elementary School", "category": "Critical Facilities", "type": "Education", "address": "QFH9+J29 San Miguel Central Elementary School, San Miguel, Iloilo", "contact_mobile": null, "contact_landline": null, "email": null, "barangay": "Barangay 1", "district": null, "municity": "San Miguel", "province": "Iloilo", "facebook": null, "url": null, "logo": null }, "geometry": { "type": "Point", "coordinates": [ 122.46761, 10.779035 ] } },
{ "type": "Feature", "properties": { "name": "Emmanuel Christian Church", "category": "Critical Facilities", "type": "Faith-Based", "address": "QFCG+C2, San Miguel, Iloilo", "contact_mobile": null, "contact_landline": null, "email": null, "barangay": "Barangay 1", "district": null, "municity": "San Miguel", "province": "Iloilo", "facebook": null, "url": null, "logo": null }, "geometry": { "type": "Point", "coordinates": [ 122.475011, 10.771072 ] } },
{ "type": "Feature", "properties": { "name": "San Miguel Plaza", "category": "Critical Facilities", "type": "Parks and Open Space", "address": "QFJ8+H7V, San Miguel, Iloilo", "contact_mobile": null, "contact_landline": null, "email": null, "barangay": "Barangay 1", "district": null, "municity": "San Miguel", "province": "Iloilo", "facebook": null, "url": null, "logo": null }, "geometry": { "type": "Point", "coordinates": [ 122.465667, 10.781487 ] } },
{ "type": "Feature", "properties": { "name": "Brgy. 10 RV Sanchez St. Barangay Hall", "category": "Critical Facilities", "type": "Government", "address": "QFF6+4RR, San Miguel, Iloilo", "contact_mobile": null, "contact_landline": null, "email": null, "barangay": "Barangay 10", "district": null, "municity": "San Miguel", "province": "Iloilo", "facebook": null, "url": null, "logo": null }, "geometry": { "type": "Point", "coordinates": [ 122.462023, 10.772869 ] } },
{ "type": "Feature", "properties": { "name": "Shepherd's Way Christian Academy", "category": "Critical Facilities", "type": "Education", "address": "Shepherd's Way Christian Academy, R.V. Sanchez, Barangay 10, San Miguel, Iloilo", "contact_mobile": "0956 552 0457", "contact_landline": null, "email": null, "barangay": "Barangay 10", "district": null, "municity": "San Miguel", "province": "Iloilo", "facebook": "https://www.facebook.com/Shepherdsway.officialschoolpage/", "url": null, "logo": null }, "geometry": { "type": "Point", "coordinates": [ 122.461128, 10.773887 ] } },
{ "type": "Feature", "properties": { "name": "Leonora S. Salapantan National High School", "category": "Critical Facilities", "type": "Education", "address": "QFC6+R3C Leonora S. Salapantan National High School, RV Sanchez St, Poblacion, San Miguel, 5025 Iloilo", "contact_mobile": null, "contact_landline": "(033) 331 0881", "email": "302516@deped.gov.ph", "barangay": "Barangay 10", "district": null, "municity": "San Miguel", "province": "Iloilo", "facebook": "https://www.facebook.com/lssnhsofficial/", "url": "http://www.lssnhs.com/", "logo": "https://drive.google.com/uc?export=view&id=1dXAI8UF5XZEtK1FTGfNnoHt-bR-S5Aln" }, "geometry": { "type": "Point", "coordinates": [ 122.460126, 10.772063 ] } },
{ "type": "Feature", "properties": { "name": "San Miguel Christian Church", "category": "Critical Facilities", "type": "Faith-Based", "address": "QFF6+GCR, RV Sanchez St, San Miguel, Iloilo", "contact_mobile": "0946 339 8310", "contact_landline": null, "email": null, "barangay": "Barangay 10", "district": null, "municity": "San Miguel", "province": "Iloilo", "facebook": null, "url": null, "logo": null }, "geometry": { "type": "Point", "coordinates": [ 122.461018, 10.77387 ] } },
{ "type": "Feature", "properties": { "name": "St. Michael the Archangel Parish", "category": "Critical Facilities", "type": "Faith-Based", "address": "QFJ8+8G2, Sales St, San Miguel, 5025 Iloilo", "contact_mobile": null, "contact_landline": null, "email": null, "barangay": "Barangay 11", "district": null, "municity": "San Miguel", "province": "Iloilo", "facebook": null, "url": null, "logo": null }, "geometry": { "type": "Point", "coordinates": [ 122.466277, 10.780775 ] } },
{ "type": "Feature", "properties": { "name": "Brgy. Hall (Brgy. 13, Sta. Rita-Saclauso Sts.)", "category": "Critical Facilities", "type": "Government", "address": "QFG6+WP3, Santa Rita St, San Miguel, Iloilo", "contact_mobile": null, "contact_landline": null, "email": null, "barangay": "Barangay 13", "district": null, "municity": "San Miguel", "province": "Iloilo", "facebook": null, "url": null, "logo": null }, "geometry": { "type": "Point", "coordinates": [ 122.46181, 10.777252 ] } },
{ "type": "Feature", "properties": { "name": "Christian Bible Baptist Church", "category": "Critical Facilities", "type": "Faith-Based", "address": "QFG6+J6Q, San Miguel, Iloilo", "contact_mobile": null, "contact_landline": null, "email": null, "barangay": "Barangay 13", "district": null, "municity": "San Miguel", "province": "Iloilo", "facebook": null, "url": null, "logo": null }, "geometry": { "type": "Point", "coordinates": [ 122.460624, 10.776596 ] } },
{ "type": "Feature", "properties": { "name": "Barangay 14 Mutli-Purpose Hall", "category": "Critical Facilities", "type": "Multipurpose Hall", "address": "QFJ7+7G7, Iloilo City - Aleosan Rd, San Miguel, Iloilo", "contact_mobile": null, "contact_landline": null, "email": null, "barangay": "Barangay 14", "district": null, "municity": "San Miguel", "province": "Iloilo", "facebook": null, "url": null, "logo": null }, "geometry": { "type": "Point", "coordinates": [ 122.463784, 10.780651 ] } },
{ "type": "Feature", "properties": { "name": "The Integrated Academy School System Inc. San Miguel Ext.", "category": "Critical Facilities", "type": "Education", "address": "QFH5+CP3 The Integrated Academy School System Inc. San Miguel Ext., San Miguel, Iloilo", "contact_mobile": "0981 583 5789 / 0995 801 8940", "contact_landline": null, "email": "tiass.sanmiguel@gmail.com", "barangay": "Barangay 15", "district": null, "municity": "San Miguel", "province": "Iloilo", "facebook": "https://www.facebook.com/tiasanmigueliloilo/", "url": null, "logo": null }, "geometry": { "type": "Point", "coordinates": [ 122.459282, 10.77851 ] } },
{ "type": "Feature", "properties": { "name": "World Empire of Sphinx Temple & Krusancti Church of Divine Nature Inc", "category": "Critical Facilities", "type": "Faith-Based", "address": "QFMC+387, Sto. Rosario St, San Miguel, Iloilo", "contact_mobile": null, "contact_landline": null, "email": null, "barangay": "Barangay 2", "district": null, "municity": "San Miguel", "province": "Iloilo", "facebook": null, "url": null, "logo": null }, "geometry": { "type": "Point", "coordinates": [ 122.470808, 10.782655 ] } },
{ "type": "Feature", "properties": { "name": "Barangay 4 Hall", "category": "Critical Facilities", "type": "Government", "address": "QFJF+5RJ, Suarez St, San Miguel, Iloilo", "contact_mobile": null, "contact_landline": null, "email": null, "barangay": "Barangay 4", "district": null, "municity": "San Miguel", "province": "Iloilo", "facebook": null, "url": null, "logo": null }, "geometry": { "type": "Point", "coordinates": [ 122.474513, 10.780451 ] } },
{ "type": "Feature", "properties": { "name": "San Miguel Seventh-day Adventist Church", "category": "Critical Facilities", "type": "Faith-Based", "address": "QFJC+4XW, Suarez St, San Miguel, Iloilo", "contact_mobile": null, "contact_landline": null, "email": null, "barangay": "Barangay 4", "district": null, "municity": "San Miguel", "province": "Iloilo", "facebook": null, "url": "https://adventist.org/", "logo": null }, "geometry": { "type": "Point", "coordinates": [ 122.47246, 10.780363 ] } },
{ "type": "Feature", "properties": { "name": "Full Gospel Christian Assembly", "category": "Critical Facilities", "type": "Faith-Based", "address": "San Roque St, Pob, San Miguel, Iloilo", "contact_mobile": "0909 687 6000", "contact_landline": null, "email": null, "barangay": "Barangay 8", "district": null, "municity": "San Miguel", "province": "Iloilo", "facebook": null, "url": null, "logo": null }, "geometry": { "type": "Point", "coordinates": [ 122.466942, 10.780946 ] } },
{ "type": "Feature", "properties": { "name": "San Miguel Public Market", "category": "Critical Facilities", "type": "Public Market", "address": "QFQ9+257, Provincial Road, San Miguel, Iloilo", "contact_mobile": null, "contact_landline": null, "email": null, "barangay": "Barangay 8", "district": null, "municity": "San Miguel", "province": "Iloilo", "facebook": null, "url": null, "logo": null }, "geometry": { "type": "Point", "coordinates": [ 122.46909, 10.787073 ] } },
{ "type": "Feature", "properties": { "name": "Fire Station Office - Municipality Of San Miguel", "category": "Critical Facilities", "type": "Emergency Response", "address": "San Miguel Municipal Hall, Sales St, San Miguel, 5025 Iloilo", "contact_mobile": "0929 885 6375", "contact_landline": null, "email": null, "barangay": "Barangay 8", "district": null, "municity": "San Miguel", "province": "Iloilo", "facebook": null, "url": null, "logo": null }, "geometry": { "type": "Point", "coordinates": [ 122.468258, 10.786934 ] } },
{ "type": "Feature", "properties": { "name": "Barangay 9 Multi-Purpose Hall", "category": "Critical Facilities", "type": "Multipurpose Hall", "address": "QFJ8+R7R, San Miguel, Iloilo", "contact_mobile": null, "contact_landline": null, "email": null, "barangay": "Barangay 9", "district": null, "municity": "San Miguel", "province": "Iloilo", "facebook": null, "url": null, "logo": null }, "geometry": { "type": "Point", "coordinates": [ 122.465784, 10.782491 ] } },
{ "type": "Feature", "properties": { "name": "Consolacion Elementary School", "category": "Critical Facilities", "type": "Education", "address": "RF5F+PXQ Consolacion Elementary School, San Miguel, Iloilo", "contact_mobile": null, "contact_landline": null, "email": null, "barangay": "Consolacion", "district": null, "municity": "San Miguel", "province": "Iloilo", "facebook": "https://www.facebook.com/ces.consolacionelemschol.5", "url": null, "logo": null }, "geometry": { "type": "Point", "coordinates": [ 122.474992, 10.809343 ] } },
{ "type": "Feature", "properties": { "name": "Community of Love Church", "category": "Critical Facilities", "type": "Faith-Based", "address": "RF4H+G32, Sitio banglid Barangay, San Miguel, Iloilo", "contact_mobile": null, "contact_landline": null, "email": null, "barangay": "Consolacion", "district": null, "municity": "San Miguel", "province": "Iloilo", "facebook": null, "url": null, "logo": null }, "geometry": { "type": "Point", "coordinates": [ 122.477644, 10.80627 ] } },
{ "type": "Feature", "properties": { "name": "Sitio Banglid Catholic Chapel", "category": "Critical Facilities", "type": "Faith-Based", "address": "RF4H+J24, San Miguel, Iloilo", "contact_mobile": null, "contact_landline": null, "email": null, "barangay": "Consolacion", "district": null, "municity": "San Miguel", "province": "Iloilo", "facebook": null, "url": null, "logo": null }, "geometry": { "type": "Point", "coordinates": [ 122.477498, 10.806684 ] } },
{ "type": "Feature", "properties": { "name": "Evacuation Center", "category": "Critical Facilities", "type": "Emergency Response", "address": "QFG4+J4H, Igtambo, San Miguel, Iloilo", "contact_mobile": null, "contact_landline": null, "email": null, "barangay": "Igtambo", "district": null, "municity": "San Miguel", "province": "Iloilo", "facebook": null, "url": null, "logo": null }, "geometry": { "type": "Point", "coordinates": [ 122.455371, 10.776568 ] } },
{ "type": "Feature", "properties": { "name": "Igtambo Elementary School", "category": "Critical Facilities", "type": "Education", "address": "QFG4+VCR Igtambo Elementary School, Igtambo, San Miguel, Iloilo", "contact_mobile": "0910 661 4251", "contact_landline": null, "email": null, "barangay": "Igtambo", "district": null, "municity": "San Miguel", "province": "Iloilo", "facebook": null, "url": null, "logo": null }, "geometry": { "type": "Point", "coordinates": [ 122.456021, 10.777227 ] } },
{ "type": "Feature", "properties": { "name": "Lumina Iloilo Covered Court", "category": "Critical Facilities", "type": "Multipurpose Hall", "address": "QF4X+Q2V, San Miguel, Iloilo", "contact_mobile": null, "contact_landline": null, "email": null, "barangay": "San Jose", "district": null, "municity": "San Miguel", "province": "Iloilo", "facebook": null, "url": null, "logo": null }, "geometry": { "type": "Point", "coordinates": [ 122.497561, 10.756993 ] } },
{ "type": "Feature", "properties": { "name": "San Jose Barangay Day Care Center (San Miguel)", "category": "Critical Facilities", "type": "Education", "address": "San Jose Barangay Day Care Center, 5025 Oton - San Jose-Santa Barbara Rd, San Miguel, Iloilo", "contact_mobile": null, "contact_landline": null, "email": null, "barangay": "San Jose", "district": null, "municity": "San Miguel", "province": "Iloilo", "facebook": null, "url": null, "logo": null }, "geometry": { "type": "Point", "coordinates": [ 122.496851, 10.76138 ] } },
{ "type": "Feature", "properties": { "name": "Golden Haven Memorial Park - Iloilo", "category": "Critical Facilities", "type": "Parks and Open Space", "address": "Iloilo City - Aleosan Rd, San Miguel, 5025 Iloilo", "contact_mobile": "0999 887 2928", "contact_landline": null, "email": null, "barangay": "San Jose", "district": null, "municity": "San Miguel", "province": "Iloilo", "facebook": null, "url": "https://www.goldenhaven.com.ph/", "logo": null }, "geometry": { "type": "Point", "coordinates": [ 122.490185, 10.766805 ] } },
{ "type": "Feature", "properties": { "name": "Iloilo Memorials", "category": "Critical Facilities", "type": "Parks and Open Space", "address": "San Jose, San Miguel, Iloilo, 5025 Iloilo", "contact_mobile": "0917 655 3081", "contact_landline": null, "email": null, "barangay": "San Jose", "district": null, "municity": "San Miguel", "province": "Iloilo", "facebook": null, "url": null, "logo": null }, "geometry": { "type": "Point", "coordinates": [ 122.48913, 10.766896 ] } },
{ "type": "Feature", "properties": { "name": "Brgy. Sta. Cruz Tanod Outpost", "category": "Critical Facilities", "type": "Emergency Response", "address": "QFQ5+P95 Barangay Hall, San Miguel, Iloilo", "contact_mobile": null, "contact_landline": null, "email": null, "barangay": "Santa Cruz", "district": null, "municity": "San Miguel", "province": "Iloilo", "facebook": null, "url": null, "logo": null }, "geometry": { "type": "Point", "coordinates": [ 122.458495, 10.789275 ] } },
{ "type": "Feature", "properties": { "name": "Sta. Cruz Elementary School", "category": "Critical Facilities", "type": "Education", "address": "QFR5+483 Sta. Cruz Elementary School, Sta. Cruz, San Miguel, Iloilo, San Miguel", "contact_mobile": "0918 406 5712", "contact_landline": null, "email": null, "barangay": "Santa Cruz", "district": null, "municity": "San Miguel", "province": "Iloilo", "facebook": null, "url": null, "logo": null }, "geometry": { "type": "Point", "coordinates": [ 122.458296, 10.790257 ] } },
{ "type": "Feature", "properties": { "name": "San Miguel Reformed Baptist Church", "category": "Critical Facilities", "type": "Faith-Based", "address": "QFPH+H2, San Miguel, Iloilo", "contact_mobile": null, "contact_landline": null, "email": null, "barangay": "Santo Niño", "district": null, "municity": "San Miguel", "province": "Iloilo", "facebook": null, "url": null, "logo": null }, "geometry": { "type": "Point", "coordinates": [ 122.477593, 10.786483 ] } },
{ "type": "Feature", "properties": { "name": "Church of Christ - Sto. Niño", "category": "Critical Facilities", "type": "Faith-Based", "address": "QFMR+6V3, San Miguel, Hacienda, San Miguel, Iloilo", "contact_mobile": null, "contact_landline": null, "email": null, "barangay": "Santo Niño", "district": null, "municity": "San Miguel", "province": "Iloilo", "facebook": null, "url": null, "logo": null }, "geometry": { "type": "Point", "coordinates": [ 122.492164, 10.783 ] } }
]
}
