{
"type": "FeatureCollection",
"name": "DRRM_OTON_Critical_Facilities_Insights",
"crs": { "type": "name", "properties": { "name": "urn:ogc:def:crs:OGC:1.3:CRS84" } },
"features": [
{ "type": "Feature", "properties": { "name": "Abilay Norte Barangay Hall", "category": "Critical Facilities", "type": "Government", "address": "PFWR+3Q9, Oton, Iloilo", "email": null, "contact_mobile": null, "contact_landline": null, "barangay": "Abilay Norte", "district": null, "municity": "Oton", "facebook": null, "url": null, "province": "Iloilo", "logo": null }, "geometry": { "type": "Point", "coordinates": [ 122.491987, 10.745151 ] } },
{ "type": "Feature", "properties": { "name": "Barangay Abilay Norte Day Care Center", "category": "Critical Facilities", "type": "Education", "address": "Barangay Abilay Norte Day care center, Oton, Iloilo", "email": null, "contact_mobile": null, "contact_landline": null, "barangay": "Abilay Norte", "district": null, "municity": "Oton", "facebook": null, "url": null, "province": "Iloilo", "logo": null }, "geometry": { "type": "Point", "coordinates": [ 122.493259, 10.742882 ] } },
{ "type": "Feature", "properties": { "name": "Abilay Sur Barangay Hall", "category": "Critical Facilities", "type": "Government", "address": "PFFV+QH4, National Road, Abilay Sur, Oton, 5020", "email": null, "contact_mobile": "0916 493 8870", "contact_landline": null, "barangay": "Abilay Sur", "district": null, "municity": "Oton", "facebook": null, "url": null, "province": "Iloilo", "logo": null }, "geometry": { "type": "Point", "coordinates": [ 122.493941, 10.724384 ] } },
{ "type": "Feature", "properties": { "name": "Barangay Alegre Multi-Purpose Hall", "category": "Critical Facilities", "type": "Multipurpose Hall", "address": "MFPV+GGV, Jose P Laurel St, Oton, Iloilo", "email": null, "contact_mobile": null, "contact_landline": null, "barangay": "Alegre", "district": null, "municity": "Oton", "facebook": null, "url": null, "province": "Iloilo", "logo": null }, "geometry": { "type": "Point", "coordinates": [ 122.493799, 10.686373 ] } },
{ "type": "Feature", "properties": { "name": "Botong Barangay Hall", "category": "Critical Facilities", "type": "Government", "address": "MCPQ+3CJ, National Road, Botong, Oton, 5020 Iloilo", "email": null, "contact_mobile": null, "contact_landline": "(033) 338 4182", "barangay": "Botong", "district": null, "municity": "Oton", "facebook": null, "url": null, "province": "Iloilo", "logo": null }, "geometry": { "type": "Point", "coordinates": [ 122.438526, 10.68521 ] } },
{ "type": "Feature", "properties": { "name": "Botong Oton Seventh Day Adventist Church", "category": "Critical Facilities", "type": "Faith-Based", "address": "MCPV+RVR, Oton, Iloilo", "email": null, "contact_mobile": null, "contact_landline": null, "barangay": "Botong", "district": null, "municity": "Oton", "facebook": null, "url": null, "province": "Iloilo", "logo": null }, "geometry": { "type": "Point", "coordinates": [ 122.44465, 10.687106 ] } },
{ "type": "Feature", "properties": { "name": "Buray Barangay Hall", "category": "Critical Facilities", "type": "Government", "address": "PF46+WC9, National Road, Oton, 5020 Iloilo", "email": null, "contact_mobile": null, "contact_landline": "(033) 510 8013", "barangay": "Buray", "district": null, "municity": "Oton", "facebook": null, "url": null, "province": "Iloilo", "logo": null }, "geometry": { "type": "Point", "coordinates": [ 122.461099, 10.707286 ] } },
{ "type": "Feature", "properties": { "name": "Sped Headstart School", "category": "Critical Facilities", "type": "Education", "address": "Sped Headstart School, Blk 28 Lot 3, Florvel Homes Subd, Oton, Iloilo", "email": null, "contact_mobile": null, "contact_landline": "(033) 333 0084", "barangay": "Buray", "district": null, "municity": "Oton", "facebook": "https://www.facebook.com/spedheadstartschool/", "url": null, "province": "Iloilo", "logo": null }, "geometry": { "type": "Point", "coordinates": [ 122.467734, 10.703149 ] } },
{ "type": "Feature", "properties": { "name": "Buray Day Care Center", "category": "Critical Facilities", "type": "Education", "address": "PF46+V9X Buray Day Care Center, Oton - Alimodian Rd, Oton, Iloilo", "email": null, "contact_mobile": null, "contact_landline": null, "barangay": "Buray", "district": null, "municity": "Oton", "facebook": null, "url": null, "province": "Iloilo", "logo": null }, "geometry": { "type": "Point", "coordinates": [ 122.460999, 10.707234 ] } },
{ "type": "Feature", "properties": { "name": "Materials Recovery Facility", "category": "Critical Facilities", "type": "Solid Waste", "address": "PF37+2X Oton, Iloilo", "email": null, "contact_mobile": null, "contact_landline": null, "barangay": "Buray", "district": null, "municity": "Oton", "facebook": null, "url": null, "province": "Iloilo", "logo": null }, "geometry": { "type": "Point", "coordinates": [ 122.464886, 10.702559 ] } },
{ "type": "Feature", "properties": { "name": "God of Glory Christian Church (GGCC Oton)", "category": "Critical Facilities", "type": "Faith-Based", "address": "MFWH+45R, By-Pass Road, Oton, 5020 Iloilo", "email": "GGCCOTON1992@gmail.com", "contact_mobile": "0919 533 9767", "contact_landline": null, "barangay": "Buray", "district": null, "municity": "Oton", "facebook": "https://www.facebook.com/GGCCOTON1992", "url": "https://sites.google.com/view/GGCCOTON1992", "province": "Iloilo", "logo": "https://drive.google.com/uc?export=view&id=1mx--tw8pwkQD4Kj9V754w6ZxGRBzzWPp" }, "geometry": { "type": "Point", "coordinates": [ 122.477895, 10.695363 ] } },
{ "type": "Feature", "properties": { "name": "Oton PNP Compac Station", "category": "Critical Facilities", "type": "Emergency Response", "address": "MCMM+P6M, Oton, Iloilo", "email": null, "contact_mobile": null, "contact_landline": null, "barangay": "Cabanbanan", "district": null, "municity": "Oton", "facebook": null, "url": null, "province": "Iloilo", "logo": null }, "geometry": { "type": "Point", "coordinates": [ 122.433036, 10.684346 ] } },
{ "type": "Feature", "properties": { "name": "Cabolo-an Norte Brgy. Hall", "category": "Critical Facilities", "type": "Government", "address": "QF3G+CGQ, Oton, Iloilo", "email": null, "contact_mobile": null, "contact_landline": null, "barangay": "Caboloan Norte", "district": null, "municity": "Oton", "facebook": null, "url": null, "province": "Iloilo", "logo": null }, "geometry": { "type": "Point", "coordinates": [ 122.476353, 10.753586 ] } },
{ "type": "Feature", "properties": { "name": "Cabuloan Norte Day Care Center Iloilo City", "category": "Critical Facilities", "type": "Education", "address": "QF5C+MVW Cabuloan Norte Day Care Center Iloilo City, Oton, Iloilo", "email": null, "contact_mobile": null, "contact_landline": null, "barangay": "Caboloan Norte", "district": null, "municity": "Oton", "facebook": null, "url": null, "province": "Iloilo", "logo": null }, "geometry": { "type": "Point", "coordinates": [ 122.472199, 10.759248 ] } },
{ "type": "Feature", "properties": { "name": "Cadinglian Barangay Hall", "category": "Critical Facilities", "type": "Government", "address": "PCQQ+G7V, National Road, Cadinglian, Oton, 5020 Iloilo", "email": null, "contact_mobile": "0915 808 7544", "contact_landline": null, "barangay": "Cadinglian", "district": null, "municity": "Oton", "facebook": null, "url": null, "province": "Iloilo", "logo": null }, "geometry": { "type": "Point", "coordinates": [ 122.438172, 10.738864 ] } },
{ "type": "Feature", "properties": { "name": "Galang Barangay Hall", "category": "Critical Facilities", "type": "Government", "address": "PCGW+237, National Road, Galang, Oton, 5020 Iloilo", "email": null, "contact_mobile": "0929 386 9708", "contact_landline": null, "barangay": "Galang", "district": null, "municity": "Oton", "facebook": null, "url": null, "province": "Iloilo", "logo": null }, "geometry": { "type": "Point", "coordinates": [ 122.445182, 10.725038 ] } },
{ "type": "Feature", "properties": { "name": "Galang-Salngan Elementary School", "category": "Critical Facilities", "type": "Education", "address": "PCFV+PRW Galang-Salngan Elementary School, Galang-Salngan, Oton, 5020 Iloilo", "email": null, "contact_mobile": "0998 282 8923", "contact_landline": null, "barangay": "Galang", "district": null, "municity": "Oton", "facebook": "https://www.facebook.com/p/Galang-Salngan-Elementary-School-100063962622482/", "url": null, "province": "Iloilo", "logo": "https://drive.google.com/uc?export=view&id=1-nK6aRtJfFE7lD21fUqowa7sbpAqST9s" }, "geometry": { "type": "Point", "coordinates": [ 122.444563, 10.724357 ] } },
{ "type": "Feature", "properties": { "name": "Caboloan Norte Multi-Purpose Hall", "category": "Critical Facilities", "type": "Multipurpose Hall", "address": "Oton-San Miguel Rd, Oton, Iloilo", "email": null, "contact_mobile": null, "contact_landline": null, "barangay": "Lambuyao", "district": null, "municity": "Oton", "facebook": null, "url": null, "province": "Iloilo", "logo": null }, "geometry": { "type": "Point", "coordinates": [ 122.493754, 10.714108 ] } },
{ "type": "Feature", "properties": { "name": "San Isidro Labrador Church", "category": "Critical Facilities", "type": "Faith-Based", "address": "PFMP+73V Oton - San Jose-Santa Barbara Rd, Oton, Iloilo", "email": null, "contact_mobile": null, "contact_landline": null, "barangay": "Mambog", "district": null, "municity": "Oton", "facebook": null, "url": null, "province": "Iloilo", "logo": null }, "geometry": { "type": "Point", "coordinates": [ 122.485167, 10.733248 ] } },
{ "type": "Feature", "properties": { "name": "Oton Command Center", "category": "Critical Facilities", "type": "Government", "address": "MFRH+F5X, Bonifacio St, Oton, Iloilo", "email": null, "contact_mobile": null, "contact_landline": null, "barangay": "Poblacion East", "district": null, "municity": "Oton", "facebook": null, "url": null, "province": "Iloilo", "logo": null }, "geometry": { "type": "Point", "coordinates": [ 122.477981, 10.691249 ] } },
{ "type": "Feature", "properties": { "name": "Oton Central Elementary School", "category": "Critical Facilities", "type": "Education", "address": "MFRH+RH2 Oton Central Elementary School, Iloilo - Antique Rd S, Oton, 5020 Iloilo", "email": null, "contact_mobile": null, "contact_landline": null, "barangay": "Poblacion East", "district": null, "municity": "Oton", "facebook": "https://www.facebook.com/otoncentrales/", "url": null, "province": "Iloilo", "logo": "https://drive.google.com/uc?export=view&id=11VY_uKBINpcKbP724UCGjDIv4_RyN_gY" }, "geometry": { "type": "Point", "coordinates": [ 122.478889, 10.692023 ] } },
{ "type": "Feature", "properties": { "name": "Lighthouse Foursquare Gospel Church", "category": "Critical Facilities", "type": "Faith-Based", "address": "MFQJ+G6P, Lopez-Jaena St, Oton, Iloilo", "email": null, "contact_mobile": null, "contact_landline": null, "barangay": "Poblacion East", "district": null, "municity": "Oton", "facebook": null, "url": null, "province": "Iloilo", "logo": null }, "geometry": { "type": "Point", "coordinates": [ 122.480586, 10.688843 ] } },
{ "type": "Feature", "properties": { "name": "Brgy.Poblacion North Tanod Outpost", "category": "Critical Facilities", "type": "Emergency Response", "address": "MFRJ+MG7, Paterno St, Oton, Iloilo", "email": null, "contact_mobile": null, "contact_landline": null, "barangay": "Poblacion North", "district": null, "municity": "Oton", "facebook": null, "url": null, "province": "Iloilo", "logo": null }, "geometry": { "type": "Point", "coordinates": [ 122.4813, 10.691671 ] } },
{ "type": "Feature", "properties": { "name": "Oton National High School", "category": "Critical Facilities", "type": "Education", "address": "MFRJ+JP2 Oton National High School, Jose P Laurel St, Oton, Iloilo", "email": "302542@deped.gov.ph", "contact_mobile": null, "contact_landline": "(033) 336 2315", "barangay": "Poblacion North", "district": null, "municity": "Oton", "facebook": "https://www.facebook.com/otonnhsofficial/", "url": null, "province": "Iloilo", "logo": "https://drive.google.com/uc?export=view&id=1N4-MBBx7IOp3TeAeKYY3SGMDg11DZP6T" }, "geometry": { "type": "Point", "coordinates": [ 122.481778, 10.691514 ] } },
{ "type": "Feature", "properties": { "name": "Inter-Faith Christian Academy, Inc", "category": "Critical Facilities", "type": "Education", "address": "MFRJ+XMG Inter-Faith Christian Academy, Inc., Oton, Iloilo", "email": "elgadian24@gmail.com", "contact_mobile": "0970 228 9200", "contact_landline": null, "barangay": "Poblacion North", "district": null, "municity": "Oton", "facebook": "https://www.facebook.com/people/Inter-Faith-Christian-Academy-Inc-ICONS/61551878466073/?_rdr", "url": null, "province": "Iloilo", "logo": "https://drive.google.com/uc?export=view&id=1sq_toKm062gz1wka-M15pkJ2yL-9gE6G" }, "geometry": { "type": "Point", "coordinates": [ 122.481716, 10.692438 ] } },
{ "type": "Feature", "properties": { "name": "United Pentecostal Church Oton, Iloilo (Official)", "category": "Critical Facilities", "type": "Faith-Based", "address": "MFRM+66 Paterno St, Oton, Iloilo", "email": null, "contact_mobile": "0907 540 0789", "contact_landline": null, "barangay": "Poblacion North", "district": null, "municity": "Oton", "facebook": null, "url": null, "province": "Iloilo", "logo": null }, "geometry": { "type": "Point", "coordinates": [ 122.483035, 10.690612 ] } },
{ "type": "Feature", "properties": { "name": "Christian Bible Baptist Church", "category": "Critical Facilities", "type": "Faith-Based", "address": "MFVJ+3F7, Oton, Iloilo", "email": null, "contact_mobile": null, "contact_landline": null, "barangay": "Poblacion North", "district": null, "municity": "Oton", "facebook": null, "url": null, "province": "Iloilo", "logo": null }, "geometry": { "type": "Point", "coordinates": [ 122.481173, 10.692674 ] } },
{ "type": "Feature", "properties": { "name": "Oton Public Market", "category": "Critical Facilities", "type": "Public Market", "address": "Bonifacio, 5020 Mabini St, Oton, Iloilo", "email": null, "contact_mobile": null, "contact_landline": null, "barangay": "Poblacion South", "district": null, "municity": "Oton", "facebook": null, "url": null, "province": "Iloilo", "logo": null }, "geometry": { "type": "Point", "coordinates": [ 122.477261, 10.69087 ] } },
{ "type": "Feature", "properties": { "name": "Barangay Multi-Purpose Hall", "category": "Critical Facilities", "type": "Multipurpose Hall", "address": "MFQF+W56, Poblacion South, Oton, Iloilo", "email": null, "contact_mobile": null, "contact_landline": null, "barangay": "Poblacion South", "district": null, "municity": "Oton", "facebook": null, "url": null, "province": "Iloilo", "logo": null }, "geometry": { "type": "Point", "coordinates": [ 122.472884, 10.689779 ] } },
{ "type": "Feature", "properties": { "name": "Poblacion South Day Care Center", "category": "Critical Facilities", "type": "Education", "address": "MFQF+HQ4 Poblacion South Day Care Center, General Luna St, Oton, Iloilo", "email": null, "contact_mobile": null, "contact_landline": null, "barangay": "Poblacion South", "district": null, "municity": "Oton", "facebook": null, "url": null, "province": "Iloilo", "logo": null }, "geometry": { "type": "Point", "coordinates": [ 122.474462, 10.688893 ] } },
{ "type": "Feature", "properties": { "name": "Jesus Is Lord Church Oton", "category": "Critical Facilities", "type": "Faith-Based", "address": "Phase 2, Mary Immaculate Village, Oton, Iloilo", "email": null, "contact_mobile": null, "contact_landline": null, "barangay": "Poblacion South", "district": null, "municity": "Oton", "facebook": null, "url": null, "province": "Iloilo", "logo": null }, "geometry": { "type": "Point", "coordinates": [ 122.470818, 10.692391 ] } },
{ "type": "Feature", "properties": { "name": "The Church of Jesus Christ of Latter-day Saints", "category": "Critical Facilities", "type": "Faith-Based", "address": "Benedicto St, Oton, 5020 Iloilo", "email": null, "contact_mobile": "0929 821 7460", "contact_landline": null, "barangay": "Poblacion South", "district": null, "municity": "Oton", "facebook": null, "url": "https://local.churchofjesuschrist.org/en/ph/oton/benedicto-street?utm_source=gmb&utm_medium=yext&y_source=1_NjcwODg1NjEtNzE1LWxvY2F0aW9uLndlYnNpdGU%3D", "province": "Iloilo", "logo": null }, "geometry": { "type": "Point", "coordinates": [ 122.469077, 10.69186 ] } },
{ "type": "Feature", "properties": { "name": "Guardian Angel School", "category": "Critical Facilities", "type": "Education", "address": "MFWF+3M6 Guardian Angel School, Rada St, Oton, Iloilo", "email": null, "contact_mobile": null, "contact_landline": null, "barangay": "Poblacion West", "district": null, "municity": "Oton", "facebook": null, "url": null, "province": "Iloilo", "logo": null }, "geometry": { "type": "Point", "coordinates": [ 122.474134, 10.695166 ] } },
{ "type": "Feature", "properties": { "name": "Office of the Building Official - Oton", "category": "Critical Facilities", "type": "Government", "address": "101 Mabini St, Oton, Iloilo", "email": null, "contact_mobile": null, "contact_landline": null, "barangay": "Poblacion West", "district": null, "municity": "Oton", "facebook": null, "url": null, "province": "Iloilo", "logo": null }, "geometry": { "type": "Point", "coordinates": [ 122.477609, 10.692054 ] } },
{ "type": "Feature", "properties": { "name": "Oton Municipal Hall", "category": "Critical Facilities", "type": "Government", "address": "MFRH+R4P, Rizal St, Oton, 5020 Iloilo", "email": null, "contact_mobile": null, "contact_landline": null, "barangay": "Poblacion West", "district": null, "municity": "Oton", "facebook": null, "url": null, "province": "Iloilo", "logo": null }, "geometry": { "type": "Point", "coordinates": [ 122.47783, 10.692087 ] } },
{ "type": "Feature", "properties": { "name": "Oton Tourism Office", "category": "Critical Facilities", "type": "Government", "address": "MFRH+P67, Rizal St, Oton, Iloilo", "email": null, "contact_mobile": null, "contact_landline": null, "barangay": "Poblacion West", "district": null, "municity": "Oton", "facebook": null, "url": null, "province": "Iloilo", "logo": null }, "geometry": { "type": "Point", "coordinates": [ 122.478046, 10.691796 ] } },
{ "type": "Feature", "properties": { "name": "Assessor's Office - Oton", "category": "Critical Facilities", "type": "Government", "address": "MFRH+R59, Oton, Iloilo", "email": null, "contact_mobile": null, "contact_landline": null, "barangay": "Poblacion West", "district": null, "municity": "Oton", "facebook": null, "url": null, "province": "Iloilo", "logo": null }, "geometry": { "type": "Point", "coordinates": [ 122.477972, 10.692041 ] } },
{ "type": "Feature", "properties": { "name": "Executive Assistant I - Municipality Of Oton", "category": "Critical Facilities", "type": "Government", "address": "MFRH+R66, Oton Town Hall, Bonifacio Street, Oton, 5020 Iloilo", "email": null, "contact_mobile": null, "contact_landline": "(033) 335 1014", "barangay": "Poblacion West", "district": null, "municity": "Oton", "facebook": null, "url": null, "province": "Iloilo", "logo": null }, "geometry": { "type": "Point", "coordinates": [ 122.478027, 10.69204 ] } },
{ "type": "Feature", "properties": { "name": "Bureau of Fire Protection - Oton", "category": "Critical Facilities", "type": "Emergency Response", "address": "MFRH+M5V, Oton, Iloilo", "email": null, "contact_mobile": null, "contact_landline": null, "barangay": "Poblacion West", "district": null, "municity": "Oton", "facebook": null, "url": null, "province": "Iloilo", "logo": null }, "geometry": { "type": "Point", "coordinates": [ 122.477926, 10.691744 ] } },
{ "type": "Feature", "properties": { "name": "Municipal Civil Registrar Office", "category": "Critical Facilities", "type": "Government", "address": "MFRH+Q54, Oton Municipal Hall, Bonifacio Street, Oton, Iloilo City, 5020", "email": null, "contact_mobile": null, "contact_landline": null, "barangay": "Poblacion West", "district": null, "municity": "Oton", "facebook": null, "url": null, "province": "Iloilo", "logo": null }, "geometry": { "type": "Point", "coordinates": [ 122.477959, 10.6919 ] } },
{ "type": "Feature", "properties": { "name": "Municipal Disaster Risk Reduction Management Office Oton", "category": "Critical Facilities", "type": "Emergency Response", "address": "MFRH+M59, Iloilo - Antique Rd S, Oton, Iloilo", "email": null, "contact_mobile": null, "contact_landline": "(033) 335 0920", "barangay": "Poblacion West", "district": null, "municity": "Oton", "facebook": null, "url": null, "province": "Iloilo", "logo": null }, "geometry": { "type": "Point", "coordinates": [ 122.477985, 10.691667 ] } },
{ "type": "Feature", "properties": { "name": "South Coast International School", "category": "Critical Facilities", "type": "Education", "address": "MFVH+FH9 South Coast International School, Rada St, Oton, Iloilo", "email": "scis2004@yahoo.com", "contact_mobile": null, "contact_landline": "(033) 334 5679; (033) 331 9649", "barangay": "Poblacion West", "district": null, "municity": "Oton", "facebook": "https://www.facebook.com/SCIS2004/", "url": null, "province": "Iloilo", "logo": "https://drive.google.com/uc?export=view&id=1pr4BTOeJ0ouMHgqXh7Xyn-yKpImGs0cu" }, "geometry": { "type": "Point", "coordinates": [ 122.478975, 10.693674 ] } },
{ "type": "Feature", "properties": { "name": "The Immaculate Conception Parish", "category": "Critical Facilities", "type": "Faith-Based", "address": "MFVH+4P6, J.C. Zulueta St, Oton, 5020 Iloilo", "email": null, "contact_mobile": null, "contact_landline": null, "barangay": "Poblacion West", "district": null, "municity": "Oton", "facebook": null, "url": null, "province": "Iloilo", "logo": null }, "geometry": { "type": "Point", "coordinates": [ 122.479262, 10.692785 ] } },
{ "type": "Feature", "properties": { "name": "Oton Town Plaza", "category": "Critical Facilities", "type": "Parks and Open Space", "address": "Mabini St, Oton, Iloilo", "email": null, "contact_mobile": null, "contact_landline": null, "barangay": "Poblacion West", "district": null, "municity": "Oton", "facebook": null, "url": null, "province": "Iloilo", "logo": null }, "geometry": { "type": "Point", "coordinates": [ 122.478494, 10.693181 ] } },
{ "type": "Feature", "properties": { "name": "Streamtech Iloilo | Fiber Internet in Iloilo", "category": "Critical Facilities", "type": "Telecommunication", "address": "Rotunda, Savannah Subd, Oton, Iloilo", "email": null, "contact_mobile": "0998 590 3498", "contact_landline": null, "barangay": "Polo Maestra Bita", "district": null, "municity": "Oton", "facebook": null, "url": null, "province": "Iloilo", "logo": null }, "geometry": { "type": "Point", "coordinates": [ 122.50585, 10.744569 ] } },
{ "type": "Feature", "properties": { "name": "Pulo Maestra Vita Barangay Hall", "category": "Critical Facilities", "type": "Government", "address": "PGH3+WQX, Pulo maestra Vita, Oton, Iloilo", "email": null, "contact_mobile": null, "contact_landline": null, "barangay": "Polo Maestra Bita", "district": null, "municity": "Oton", "facebook": null, "url": null, "province": "Iloilo", "logo": null }, "geometry": { "type": "Point", "coordinates": [ 122.504474, 10.729862 ] } },
{ "type": "Feature", "properties": { "name": "Rizal Barangay Hall", "category": "Critical Facilities", "type": "Government", "address": "QC6W+CWC, Oton, 5020 Iloilo", "email": null, "contact_mobile": "0917 698 0960", "contact_landline": null, "barangay": "Rizal", "district": null, "municity": "Oton", "facebook": null, "url": null, "province": "Iloilo", "logo": null }, "geometry": { "type": "Point", "coordinates": [ 122.447268, 10.761059 ] } },
{ "type": "Feature", "properties": { "name": "Door of Faith Church Rizal Oton", "category": "Critical Facilities", "type": "Faith-Based", "address": "QC4W+3W8, Rizal, Oton, Iloilo", "email": null, "contact_mobile": null, "contact_landline": null, "barangay": "Rizal", "district": null, "municity": "Oton", "facebook": null, "url": null, "province": "Iloilo", "logo": null }, "geometry": { "type": "Point", "coordinates": [ 122.447325, 10.755166 ] } },
{ "type": "Feature", "properties": { "name": "Sora Preschool Iloilo", "category": "Critical Facilities", "type": "Education", "address": "MFVP+9F2 Sora Preschool Iloilo, Iloilo-Antique Road, San Antonio, Oton, 5020 Iloilo", "email": "sorapreschool.ilo@gmail.com", "contact_mobile": "0915 946 0246", "contact_landline": null, "barangay": "San Antonio", "district": null, "municity": "Oton", "facebook": "https://www.facebook.com/SoraPreschool.Iloilo/", "url": null, "province": "Iloilo", "logo": "https://drive.google.com/uc?export=view&id=1zxJiGkv6h2QG7LacakU9gjikMS50EqRR" }, "geometry": { "type": "Point", "coordinates": [ 122.48613, 10.693394 ] } },
{ "type": "Feature", "properties": { "name": "San Antonio Chapel", "category": "Critical Facilities", "type": "Faith-Based", "address": "MFVP+GP4, Oton, Iloilo", "email": null, "contact_mobile": null, "contact_landline": null, "barangay": "San Antonio", "district": null, "municity": "Oton", "facebook": null, "url": null, "province": "Iloilo", "logo": null }, "geometry": { "type": "Point", "coordinates": [ 122.486834, 10.69375 ] } },
{ "type": "Feature", "properties": { "name": "Inter-Faith Global Church", "category": "Critical Facilities", "type": "Faith-Based", "address": "MFRV+M9F, Oton, Iloilo", "email": null, "contact_mobile": null, "contact_landline": null, "barangay": "San Nicolas", "district": null, "municity": "Oton", "facebook": null, "url": null, "province": "Iloilo", "logo": null }, "geometry": { "type": "Point", "coordinates": [ 122.493424, 10.691691 ] } },
{ "type": "Feature", "properties": { "name": "Envirotech Waste Recycling Plant Subay Marketing, Inc.", "category": "Critical Facilities", "type": "Solid Waste", "address": "Oton, Iloilo 5020, Oton, 5020 Iloilo", "email": null, "contact_mobile": "0917 304 4437", "contact_landline": null, "barangay": "Santa Monica", "district": null, "municity": "Oton", "facebook": null, "url": null, "province": "Iloilo", "logo": null }, "geometry": { "type": "Point", "coordinates": [ 122.45628, 10.734622 ] } },
{ "type": "Feature", "properties": { "name": "Santa Monica Parish Church", "category": "Critical Facilities", "type": "Faith-Based", "address": "Zone 2 Sta. Monica, Oton, Iloilo", "email": null, "contact_mobile": null, "contact_landline": null, "barangay": "Santa Monica", "district": null, "municity": "Oton", "facebook": null, "url": null, "province": "Iloilo", "logo": null }, "geometry": { "type": "Point", "coordinates": [ 122.452378, 10.736421 ] } },
{ "type": "Feature", "properties": { "name": "Sta. Rita National High School", "category": "Critical Facilities", "type": "Education", "address": "PF94+8VV Sta. Rita National High School, Oton, Iloilo", "email": "302574@deped.gov.ph", "contact_mobile": null, "contact_landline": "(033) 503 9509", "barangay": "Santa Rita", "district": null, "municity": "Oton", "facebook": "https://www.facebook.com/srnhs302574/", "url": "https://sites.google.com/deped.gov.ph/staritanationalhighschool/home", "province": "Iloilo", "logo": "https://drive.google.com/uc?export=view&id=1jdFUADpWJHjCF3o9MUtg8zKLWeUhPl0J" }, "geometry": { "type": "Point", "coordinates": [ 122.456999, 10.7194 ] } },
{ "type": "Feature", "properties": { "name": "Tagbac Norte Brgy hall", "category": "Critical Facilities", "type": "Government", "address": "PFG9+79H, Oton, Iloilo", "email": null, "contact_mobile": null, "contact_landline": null, "barangay": "Tagbac Norte", "district": null, "municity": "Oton", "facebook": null, "url": null, "province": "Iloilo", "logo": null }, "geometry": { "type": "Point", "coordinates": [ 122.468479, 10.725685 ] } },
{ "type": "Feature", "properties": { "name": "Oton Municipal Police Station", "category": "Critical Facilities", "type": "Emergency Response", "address": "MFWG+XH4, Rada St, Oton, 5020 Iloilo", "email": null, "contact_mobile": null, "contact_landline": "(033) 336 6926", "barangay": "Tagbac Sur", "district": null, "municity": "Oton", "facebook": null, "url": null, "province": "Iloilo", "logo": null }, "geometry": { "type": "Point", "coordinates": [ 122.476455, 10.697393 ] } },
{ "type": "Feature", "properties": { "name": "Oton Search and Rescue Headquarters", "category": "Critical Facilities", "type": "Emergency Response", "address": "MFXG+X2, Oton, Iloilo", "email": null, "contact_mobile": null, "contact_landline": null, "barangay": "Tagbac Sur", "district": null, "municity": "Oton", "facebook": null, "url": null, "province": "Iloilo", "logo": null }, "geometry": { "type": "Point", "coordinates": [ 122.475947, 10.698194 ] } },
{ "type": "Feature", "properties": { "name": "Office of the Sangguniang Bayan of Oton", "category": "Critical Facilities", "type": "Government", "address": "MFXG+7J3, Iloilo, Oton, Iloilo", "email": null, "contact_mobile": null, "contact_landline": null, "barangay": "Tagbac Sur", "district": null, "municity": "Oton", "facebook": null, "url": null, "province": "Iloilo", "logo": null }, "geometry": { "type": "Point", "coordinates": [ 122.476559, 10.698128 ] } },
{ "type": "Feature", "properties": { "name": "Oton Fire Station", "category": "Critical Facilities", "type": "Emergency Response", "address": "MFXG+9JQ, Oton, Iloilo", "email": null, "contact_mobile": null, "contact_landline": "(033) 337 6672", "barangay": "Tagbac Sur", "district": null, "municity": "Oton", "facebook": null, "url": null, "province": "Iloilo", "logo": null }, "geometry": { "type": "Point", "coordinates": [ 122.476595, 10.698458 ] } },
{ "type": "Feature", "properties": { "name": "Trapiche Barangay Hall", "category": "Critical Facilities", "type": "Government", "address": "MFQ5+R5 Oton, Iloilo", "email": null, "contact_mobile": "0915 817 0170", "contact_landline": null, "barangay": "Trapiche", "district": null, "municity": "Oton", "facebook": null, "url": null, "province": "Iloilo", "logo": null }, "geometry": { "type": "Point", "coordinates": [ 122.457954, 10.689502 ] } },
{ "type": "Feature", "properties": { "name": "Holy Gardens Oton Memorial Park", "category": "Critical Facilities", "type": "Parks and Open Space", "address": "MFR7+QW3, Oton, 5020 Iloilo", "email": null, "contact_mobile": null, "contact_landline": null, "barangay": "Trapiche", "district": null, "municity": "Oton", "facebook": null, "url": null, "province": "Iloilo", "logo": null }, "geometry": { "type": "Point", "coordinates": [ 122.464789, 10.691883 ] } }
]
}
