{
"type": "FeatureCollection",
"name": "DRRM_PAVIA_Critical_Facilities_Insights",
"crs": { "type": "name", "properties": { "name": "urn:ogc:def:crs:OGC:1.3:CRS84" } },
"features": [
{ "type": "Feature", "properties": { "name": "Pandac Barangay Hall", "category": "Critical Facilities", "type": "Government", "address": "QG3C+8R5, Pavia, Iloilo", "contact_mobile": null, "contact_landline": null, "email": null, "barangay": "Pandac", "district": null, "municity": "Pavia", "province": "Iloilo", "logo": null, "facebook": null, "url": null }, "geometry": { "type": "Point", "coordinates": [ 122.522113, 10.753263 ] } },
{ "type": "Feature", "properties": { "name": "Pandac Elementary School", "category": "Critical Facilities", "type": "Education", "address": "QG3F+C24 Pandac Elementary School, Pavia, Iloilo", "contact_mobile": "0947 732 2068", "contact_landline": null, "email": "116642@deped.gov.ph", "barangay": "Pandac", "district": null, "municity": "Pavia", "province": "Iloilo", "logo": "https://drive.google.com/uc?export=view&id=1fV2B5rU-7zw4BWYYnQs5sHE63bRyLaB_", "facebook": "https://www.facebook.com/PandacES.gov.ph/", "url": null }, "geometry": { "type": "Point", "coordinates": [ 122.522568, 10.753522 ] } },
{ "type": "Feature", "properties": { "name": "Quiver School Pavia", "category": "Critical Facilities", "type": "Education", "address": "Phase 1 Block 1 Lot 28, Quiver School Pavia, Deca Homes, Pavia, Iloilo", "contact_mobile": null, "contact_landline": null, "email": null, "barangay": "Pandac", "district": null, "municity": "Pavia", "province": "Iloilo", "logo": "https://drive.google.com/uc?export=view&id=1gZkDDVxO7kk2sc53pZUtFDI9Qu-hAU1W", "facebook": "https://www.facebook.com/QuiverSchool", "url": null }, "geometry": { "type": "Point", "coordinates": [ 122.52077, 10.753413 ] } },
{ "type": "Feature", "properties": { "name": "Brilliant Kinder School", "category": "Critical Facilities", "type": "Education", "address": "BRILLIANT KINDER SCHOOL, Block 3, Phase 2, Deca Homes Subd., Brgy. Pandac, Pavia, 5001", "contact_mobile": null, "contact_landline": "(033) 331 9498", "email": "brilliantkinderschool@gmail.com", "barangay": "Pandac", "district": null, "municity": "Pavia", "province": "Iloilo", "logo": "https://drive.google.com/uc?export=view&id=1Ck1hqFzfNP2borZRtXxkol5rwHBCg2Ui", "facebook": "https://www.facebook.com/brilliantkinderschool/", "url": null }, "geometry": { "type": "Point", "coordinates": [ 122.525108, 10.754573 ] } },
{ "type": "Feature", "properties": { "name": "Pavia Hope Learning Center, Inc.", "category": "Critical Facilities", "type": "Education", "address": "Pavia Hope Learning Center, Inc, Felix Gorriceta Jr. Avenue, Pavia, 5001 Iloilo", "contact_mobile": "0993 496 9016 / 0960 598 8002", "contact_landline": null, "email": "hopechristiancenter2017@gmail.com", "barangay": "Pandac", "district": null, "municity": "Pavia", "province": "Iloilo", "logo": "https://drive.google.com/uc?export=view&id=1tBcojYRUL5ABVkQfWYc0J1AO0kEgFI7z", "facebook": "https://www.facebook.com/profile.php?id=100093633295738", "url": null }, "geometry": { "type": "Point", "coordinates": [ 122.521788, 10.75136 ] } },
{ "type": "Feature", "properties": { "name": "FASTEL. Kingdan Telecommunication Services", "category": "Critical Facilities", "type": "Telecommunication", "address": "Blk 62 Lot 1, FASTEL. Kingdan Telecommunication Services, Deca Homes, Pavia, 5001 Iloilo", "contact_mobile": "0930 448 0032", "contact_landline": null, "email": null, "barangay": "Pandac", "district": null, "municity": "Pavia", "province": "Iloilo", "logo": null, "facebook": null, "url": null }, "geometry": { "type": "Point", "coordinates": [ 122.524468, 10.754841 ] } },
{ "type": "Feature", "properties": { "name": "Ashia's Piso Wifi", "category": "Critical Facilities", "type": "Telecommunication", "address": "Felix Gorriceta Jr. Avenue, Pavia, 5001 Iloilo", "contact_mobile": "0917 305 3236", "contact_landline": null, "email": null, "barangay": "Pandac", "district": null, "municity": "Pavia", "province": "Iloilo", "logo": null, "facebook": null, "url": null }, "geometry": { "type": "Point", "coordinates": [ 122.519716, 10.749266 ] } },
{ "type": "Feature", "properties": { "name": "Hope Christian Center Inc.", "category": "Critical Facilities", "type": "Faith-Based", "address": "QG2C+JM Pavia, Iloilo", "contact_mobile": "0960 598 8064", "contact_landline": null, "email": null, "barangay": "Pandac", "district": null, "municity": "Pavia", "province": "Iloilo", "logo": null, "facebook": null, "url": null }, "geometry": { "type": "Point", "coordinates": [ 122.521712, 10.751508 ] } },
{ "type": "Feature", "properties": { "name": "Sto Nino Church", "category": "Critical Facilities", "type": "Faith-Based", "address": "QG3C+CFJ, Pavia, Iloilo", "contact_mobile": null, "contact_landline": null, "email": null, "barangay": "Pandac", "district": null, "municity": "Pavia", "province": "Iloilo", "logo": null, "facebook": null, "url": null }, "geometry": { "type": "Point", "coordinates": [ 122.521137, 10.753581 ] } },
{ "type": "Feature", "properties": { "name": "Campo Alcantara Stadium", "category": "Critical Facilities", "type": "Parks and Open Space", "address": "PGWG+4WH, Pavia, Iloilo", "contact_mobile": null, "contact_landline": null, "email": null, "barangay": "Pandac", "district": null, "municity": "Pavia", "province": "Iloilo", "logo": null, "facebook": null, "url": null }, "geometry": { "type": "Point", "coordinates": [ 122.527359, 10.745316 ] } },
{ "type": "Feature", "properties": { "name": "National Bureau Of Investigation- Pavia", "category": "Critical Facilities", "type": "Government", "address": "QG3Q+85M, Pavia, Iloilo", "contact_mobile": null, "contact_landline": null, "email": null, "barangay": "Ungka II", "district": null, "municity": "Pavia", "province": "Iloilo", "logo": null, "facebook": null, "url": null }, "geometry": { "type": "Point", "coordinates": [ 122.537932, 10.753347 ] } },
{ "type": "Feature", "properties": { "name": "Ungka 2 Barangay Hall", "category": "Critical Facilities", "type": "Government", "address": "QG2Q+X3R, Pavia, Iloilo", "contact_mobile": null, "contact_landline": null, "email": null, "barangay": "Ungka II", "district": null, "municity": "Pavia", "province": "Iloilo", "logo": null, "facebook": null, "url": null }, "geometry": { "type": "Point", "coordinates": [ 122.537651, 10.752499 ] } },
{ "type": "Feature", "properties": { "name": "Tanod Outpost", "category": "Critical Facilities", "type": "Emergency Response", "address": "QG3Q+526 Pavia, Iloilo City, 5001 Iloilo", "contact_mobile": null, "contact_landline": null, "email": null, "barangay": "Ungka II", "district": null, "municity": "Pavia", "province": "Iloilo", "logo": null, "facebook": null, "url": null }, "geometry": { "type": "Point", "coordinates": [ 122.537505, 10.752915 ] } },
{ "type": "Feature", "properties": { "name": "Brgy. Ungka II Covered Gym", "category": "Critical Facilities", "type": "Multipurpose Hall", "address": "Ungka Old Railway Rd, Pavia, Iloilo", "contact_mobile": null, "contact_landline": null, "email": null, "barangay": "Ungka II", "district": null, "municity": "Pavia", "province": "Iloilo", "logo": null, "facebook": null, "url": null }, "geometry": { "type": "Point", "coordinates": [ 122.537083, 10.753565 ] } },
{ "type": "Feature", "properties": { "name": "Pavia Church Of The Nazarene", "category": "Critical Facilities", "type": "Faith-Based", "address": "QG3P+5MP, Iloilo City, 5001 Iloilo", "contact_mobile": null, "contact_landline": null, "email": null, "barangay": "Ungka II", "district": null, "municity": "Pavia", "province": "Iloilo", "logo": null, "facebook": null, "url": null }, "geometry": { "type": "Point", "coordinates": [ 122.536689, 10.752968 ] } },
{ "type": "Feature", "properties": { "name": "First Baptist Church", "category": "Critical Facilities", "type": "Faith-Based", "address": "QG2M+RQ7, Pavia, Iloilo", "contact_mobile": "0921 285 8452", "contact_landline": null, "email": null, "barangay": "Ungka II", "district": null, "municity": "Pavia", "province": "Iloilo", "logo": null, "facebook": null, "url": null }, "geometry": { "type": "Point", "coordinates": [ 122.534409, 10.752044 ] } },
{ "type": "Feature", "properties": { "name": "Cybergate Iloilo Tower 1", "category": "Critical Facilities", "type": "Telecommunication", "address": "QG3R+48X, The Philippines, Pavia, Metro Iloilo", "contact_mobile": null, "contact_landline": null, "email": null, "barangay": "Ungka II", "district": null, "municity": "Pavia", "province": "Iloilo", "logo": null, "facebook": null, "url": null }, "geometry": { "type": "Point", "coordinates": [ 122.540867, 10.752874 ] } },
{ "type": "Feature", "properties": { "name": "Cybergate Iloilo Towers", "category": "Critical Facilities", "type": "Telecommunication", "address": "QG3R+48X, The Philippines, Pavia, Metro Iloilo", "contact_mobile": null, "contact_landline": null, "email": null, "barangay": "Ungka II", "district": null, "municity": "Pavia", "province": "Iloilo", "logo": null, "facebook": null, "url": null }, "geometry": { "type": "Point", "coordinates": [ 122.540867, 10.752874 ] } },
{ "type": "Feature", "properties": { "name": "COA Regional Office No. VI Lawn", "category": "Critical Facilities", "type": "Government", "address": "151 Vice President Fernando Lopez Ave, Pavia, Iloilo", "contact_mobile": null, "contact_landline": "(033) 329 2353", "email": null, "barangay": "Ungka I", "district": null, "municity": "Pavia", "province": "Iloilo", "logo": null, "facebook": null, "url": null }, "geometry": { "type": "Point", "coordinates": [ 122.537977, 10.764399 ] } },
{ "type": "Feature", "properties": { "name": "BP Waterworks, Inc. - Iloilo Office", "category": "Critical Facilities", "type": "Water Supply and Distribution", "address": "Unit 1B-5B, 2nd Floor, 5J’s Commercial Bldg Zone 7, Road 8, Don Julio Subd, Pavia, Iloilo", "contact_mobile": "(033) 338 2853", "contact_landline": null, "email": null, "barangay": "Aganan", "district": null, "municity": "Pavia", "province": "Iloilo", "logo": null, "facebook": null, "url": "https://bpwaterworks.com/" }, "geometry": { "type": "Point", "coordinates": [ 122.533374, 10.766732 ] } },
{ "type": "Feature", "properties": { "name": "Pavia Christian Reformed Church", "category": "Critical Facilities", "type": "Faith-Based", "address": "QG8M+M72, Felix Gorriceta Jr. Avenue, Pavia, Iloilo", "contact_mobile": null, "contact_landline": null, "email": null, "barangay": "Aganan", "district": null, "municity": "Pavia", "province": "Iloilo", "logo": null, "facebook": null, "url": null }, "geometry": { "type": "Point", "coordinates": [ 122.533141, 10.766629 ] } },
{ "type": "Feature", "properties": { "name": "Aganan Barangay Hall and Evacuation Center", "category": "Critical Facilities", "type": "Government", "address": "QGCP+7FC, Vice President Fernando, Lopez Avenue, Pavia, Iloilo", "contact_mobile": null, "contact_landline": null, "email": null, "barangay": "Aganan", "district": null, "municity": "Pavia", "province": "Iloilo", "logo": null, "facebook": null, "url": null }, "geometry": { "type": "Point", "coordinates": [ 122.536148, 10.770684 ] } },
{ "type": "Feature", "properties": { "name": "Aganan Barangay Hall and Evacuation Center", "category": "Critical Facilities", "type": "Emergency Response", "address": "QGCP+7FC, Vice President Fernando, Lopez Avenue, Pavia, Iloilo", "contact_mobile": null, "contact_landline": null, "email": null, "barangay": "Aganan", "district": null, "municity": "Pavia", "province": "Iloilo", "logo": null, "facebook": null, "url": null }, "geometry": { "type": "Point", "coordinates": [ 122.536148, 10.770684 ] } },
{ "type": "Feature", "properties": { "name": "Sacred Heart de Iloilo - Pavia", "category": "Critical Facilities", "type": "Education", "address": "QG6H+J9R Sacred Heart de Iloilo -Pavia, Felix Gorriceta Jr. Avenue, Pavia, 5001 Iloilo", "contact_mobile": "0968 301 5186", "contact_landline": "(033) 328 1700", "email": "sacredheartdeiloilo10@gmail.com", "barangay": "Balabag", "district": null, "municity": "Pavia", "province": "Iloilo", "logo": null, "facebook": null, "url": null }, "geometry": { "type": "Point", "coordinates": [ 122.528376, 10.761623 ] } },
{ "type": "Feature", "properties": { "name": "Brgy. Balabag Multi-Purpose Hall", "category": "Critical Facilities", "type": "Multipurpose Hall", "address": "QG9C+323, Angela Avenue, Brgy. Balabag, Pavia, Iloilo City, 5001 Iloilo", "contact_mobile": null, "contact_landline": null, "email": null, "barangay": "Balabag", "district": null, "municity": "Pavia", "province": "Iloilo", "logo": null, "facebook": null, "url": null }, "geometry": { "type": "Point", "coordinates": [ 122.520059, 10.767629 ] } },
{ "type": "Feature", "properties": { "name": "Liberty Garden Academy", "category": "Critical Facilities", "type": "Education", "address": "Liberty Garden Academy, Sitio Angya, Pavia, 5001 Iloilo", "contact_mobile": null, "contact_landline": "(033) 332 2446", "email": "libertygardenacademy@gmail.com", "barangay": "Balabag", "district": null, "municity": "Pavia", "province": "Iloilo", "logo": "https://drive.google.com/uc?export=view&id=1MlhFSs3GdDBEdnn5BrcAL7StY1nu3yeX", "facebook": "https://www.facebook.com/libertygardenacademy/", "url": null }, "geometry": { "type": "Point", "coordinates": [ 122.517507, 10.764992 ] } },
{ "type": "Feature", "properties": { "name": "Harvester International Christian Academy (Iloilo), Inc.", "category": "Critical Facilities", "type": "Education", "address": "Harvester International Christian Academy (Iloilo), Inc., 5001 Acacia St, Pavia, Iloilo", "contact_mobile": "0928 521 2586", "contact_landline": null, "email": "harvesteriloilo@gmail.com", "barangay": "Balabag", "district": null, "municity": "Pavia", "province": "Iloilo", "logo": "https://drive.google.com/uc?export=view&id=1_0TQY1HMHIkAVkMnU1nD4ar767szyi4g", "facebook": "https://www.facebook.com/HICA.Pavia/", "url": null }, "geometry": { "type": "Point", "coordinates": [ 122.5255, 10.76171 ] } },
{ "type": "Feature", "properties": { "name": "Harvester Community Church - Pavia", "category": "Critical Facilities", "type": "Faith-Based", "address": "5001 Acacia St, Pavia, Iloilo", "contact_mobile": null, "contact_landline": null, "email": null, "barangay": "Balabag", "district": null, "municity": "Pavia", "province": "Iloilo", "logo": null, "facebook": null, "url": null }, "geometry": { "type": "Point", "coordinates": [ 122.525685, 10.762216 ] } },
{ "type": "Feature", "properties": { "name": "St. Vincent Ferrer Chapel", "category": "Critical Facilities", "type": "Faith-Based", "address": "QG9C+23J, Angela Avenue, Pavia, 5001 Iloilo", "contact_mobile": null, "contact_landline": null, "email": null, "barangay": "Balabag", "district": null, "municity": "Pavia", "province": "Iloilo", "logo": null, "facebook": null, "url": null }, "geometry": { "type": "Point", "coordinates": [ 122.520127, 10.767576 ] } },
{ "type": "Feature", "properties": { "name": "Providence Iloilo Fountain Area", "category": "Critical Facilities", "type": "Parks and Open Space", "address": "QG8F+6QH, Pavia, Iloilo", "contact_mobile": null, "contact_landline": null, "email": null, "barangay": "Balabag", "district": null, "municity": "Pavia", "province": "Iloilo", "logo": null, "facebook": null, "url": null }, "geometry": { "type": "Point", "coordinates": [ 122.524482, 10.765551 ] } },
{ "type": "Feature", "properties": { "name": "Pagsanga-an Barangay Hall", "category": "Critical Facilities", "type": "Government", "address": "QH83+443, Pavia, Pagsanga-an Road, Pavia, Iloilo", "contact_mobile": null, "contact_landline": null, "email": null, "barangay": "Pagsanga-an", "district": null, "municity": "Pavia", "province": "Iloilo", "logo": null, "facebook": null, "url": null }, "geometry": { "type": "Point", "coordinates": [ 122.552808, 10.76527 ] } },
{ "type": "Feature", "properties": { "name": "Door of Faith Church", "category": "Critical Facilities", "type": "Faith-Based", "address": "QGFH+3H5, Pavia, Iloilo", "contact_mobile": null, "contact_landline": null, "email": null, "barangay": "Pal-agon", "district": null, "municity": "Pavia", "province": "Iloilo", "logo": null, "facebook": null, "url": null }, "geometry": { "type": "Point", "coordinates": [ 122.528981, 10.772644 ] } },
{ "type": "Feature", "properties": { "name": "Cabugao Norte(Pavia) Barangay Hall", "category": "Critical Facilities", "type": "Government", "address": "QGPW+M74, Pavia, Iloilo", "contact_mobile": null, "contact_landline": null, "email": null, "barangay": "Cabugao Norte", "district": null, "municity": "Pavia", "province": "Iloilo", "logo": null, "facebook": null, "url": null }, "geometry": { "type": "Point", "coordinates": [ 122.545715, 10.786633 ] } },
{ "type": "Feature", "properties": { "name": "Gators Talipapa", "category": "Critical Facilities", "type": "Public Market", "address": "QGPW+5F9, Cabugao Norte, Pavia, Iloilo", "contact_mobile": null, "contact_landline": null, "email": null, "barangay": "Cabugao Norte", "district": null, "municity": "Pavia", "province": "Iloilo", "logo": null, "facebook": null, "url": null }, "geometry": { "type": "Point", "coordinates": [ 122.546232, 10.785415 ] } },
{ "type": "Feature", "properties": { "name": "Garden of the Ascension Memorial Park", "category": "Critical Facilities", "type": "Parks and Open Space", "address": "QG45+7CW, Pavia, 5001 Iloilo", "contact_mobile": null, "contact_landline": null, "email": null, "barangay": "Jibao-an", "district": null, "municity": "Pavia", "province": "Iloilo", "logo": null, "facebook": null, "url": null }, "geometry": { "type": "Point", "coordinates": [ 122.508564, 10.755727 ] } },
{ "type": "Feature", "properties": { "name": "Jibao-an Barangay Hall", "category": "Critical Facilities", "type": "Government", "address": "Barangay Hall, Brgy, Pavia, 5001 Iloilo", "contact_mobile": null, "contact_landline": null, "email": null, "barangay": "Jibao-an", "district": null, "municity": "Pavia", "province": "Iloilo", "logo": null, "facebook": null, "url": null }, "geometry": { "type": "Point", "coordinates": [ 122.509704, 10.750017 ] } },
{ "type": "Feature", "properties": { "name": "Timothy's Cradle Christian International School Inc.", "category": "Critical Facilities", "type": "Education", "address": "Zone 2, Timothy's Cradle Christian International School Inc., Brgy, Pavia, Iloilo", "contact_mobile": "0977 804 1880", "contact_landline": null, "email": "timothyscradle2016@gmail.com", "barangay": "Jibao-an", "district": null, "municity": "Pavia", "province": "Iloilo", "logo": "https://drive.google.com/uc?export=view&id=17WWZedwyCZaaTHj6d8RFApIpdhpf1kCH", "facebook": "https://www.facebook.com/TimothysCradleChristianInternationalSchoolInc/", "url": "https://timothyscradle.com/" }, "geometry": { "type": "Point", "coordinates": [ 122.508031, 10.752293 ] } },
{ "type": "Feature", "properties": { "name": "Jibao-an Day Care Service Center", "category": "Critical Facilities", "type": "Education", "address": "Jibao-an Day Care Service Center, Brgy, Pavia, 5001 Iloilo", "contact_mobile": null, "contact_landline": null, "email": null, "barangay": "Jibao-an", "district": null, "municity": "Pavia", "province": "Iloilo", "logo": null, "facebook": null, "url": null }, "geometry": { "type": "Point", "coordinates": [ 122.50966, 10.7501 ] } },
{ "type": "Feature", "properties": { "name": "Municipality of Pavia Town Hall", "category": "Critical Facilities", "type": "Government", "address": "QGGR+2V4, Hedriana St, Pavia, Iloilo", "contact_mobile": null, "contact_landline": null, "email": null, "barangay": "Purok III (Pob.)", "district": null, "municity": "Pavia", "province": "Iloilo", "logo": null, "facebook": null, "url": null }, "geometry": { "type": "Point", "coordinates": [ 122.542191, 10.775015 ] } },
{ "type": "Feature", "properties": { "name": "Mayor's Office", "category": "Critical Facilities", "type": "Government", "address": "Pavia Town Hall, Hedriana Street, 5001, Pavia", "contact_mobile": null, "contact_landline": "(033) 329 7229", "email": null, "barangay": "Purok III (Pob.)", "district": null, "municity": "Pavia", "province": "Iloilo", "logo": null, "facebook": null, "url": null }, "geometry": { "type": "Point", "coordinates": [ 122.542082, 10.775048 ] } },
{ "type": "Feature", "properties": { "name": "Office Of the Municipal Engineer", "category": "Critical Facilities", "type": "Government", "address": "Pavia Town Hall, 5001 Hedriana St, Pavia, Iloilo", "contact_mobile": null, "contact_landline": "(033) 320 3034", "email": null, "barangay": "Purok III (Pob.)", "district": null, "municity": "Pavia", "province": "Iloilo", "logo": null, "facebook": null, "url": null }, "geometry": { "type": "Point", "coordinates": [ 122.542082, 10.775048 ] } },
{ "type": "Feature", "properties": { "name": "Pavia Plaza", "category": "Critical Facilities", "type": "Parks and Open Space", "address": "QGFR+QJW, Iloilo City, 5001 Iloilo", "contact_mobile": null, "contact_landline": null, "email": null, "barangay": "Purok III (Pob.)", "district": null, "municity": "Pavia", "province": "Iloilo", "logo": null, "facebook": null, "url": null }, "geometry": { "type": "Point", "coordinates": [ 122.541568, 10.774476 ] } },
{ "type": "Feature", "properties": { "name": "Municipal Agriculture Office", "category": "Critical Facilities", "type": "Government", "address": "Pavia Town Hall, Hedriana St, Pavia, 5001 Iloilo", "contact_mobile": null, "contact_landline": null, "email": null, "barangay": "Purok IV (Pob.)", "district": null, "municity": "Pavia", "province": "Iloilo", "logo": null, "facebook": null, "url": null }, "geometry": { "type": "Point", "coordinates": [ 122.541199, 10.774178 ] } },
{ "type": "Feature", "properties": { "name": "Pavia Fire Station", "category": "Critical Facilities", "type": "Emergency Response", "address": "QGFR+HCF, Evangelista St, Pavia, Iloilo City, 5001 Iloilo", "contact_mobile": "0910 618 1660", "contact_landline": "329-3306 / 519-6147", "email": null, "barangay": "Purok IV (Pob.)", "district": null, "municity": "Pavia", "province": "Iloilo", "logo": null, "facebook": "https://www.facebook.com/pavia.firestation?_rdc=1&_rdr#", "url": null }, "geometry": { "type": "Point", "coordinates": [ 122.541061, 10.773926 ] } },
{ "type": "Feature", "properties": { "name": "Pavia Police Station", "category": "Critical Facilities", "type": "Emergency Response", "address": "QGFR+PCQ, Evangelista St, Pavia, 5001 Iloilo", "contact_mobile": "0927 135 3782", "contact_landline": null, "email": null, "barangay": "Purok IV (Pob.)", "district": null, "municity": "Pavia", "province": "Iloilo", "logo": null, "facebook": null, "url": null }, "geometry": { "type": "Point", "coordinates": [ 122.541112, 10.774292 ] } },
{ "type": "Feature", "properties": { "name": "Poblacion Purok 4 Barangay Hall", "category": "Critical Facilities", "type": "Government", "address": "144 Gonzaga St, Pavia, Iloilo City, 5001 Iloilo", "contact_mobile": null, "contact_landline": null, "email": null, "barangay": "Purok IV (Pob.)", "district": null, "municity": "Pavia", "province": "Iloilo", "logo": null, "facebook": null, "url": null }, "geometry": { "type": "Point", "coordinates": [ 122.539546, 10.772374 ] } },
{ "type": "Feature", "properties": { "name": "Purok-IV Tanod Outpost", "category": "Critical Facilities", "type": "Emergency Response", "address": "QGCQ+RQG, Gonzaga St, Pavia, Iloilo", "contact_mobile": null, "contact_landline": null, "email": null, "barangay": "Purok IV (Pob.)", "district": null, "municity": "Pavia", "province": "Iloilo", "logo": null, "facebook": null, "url": null }, "geometry": { "type": "Point", "coordinates": [ 122.539453, 10.772066 ] } },
{ "type": "Feature", "properties": { "name": "Pavia Baptist Church", "category": "Critical Facilities", "type": "Faith-Based", "address": "58a Gonzaga St, Pavia, Iloilo", "contact_mobile": null, "contact_landline": null, "email": null, "barangay": "Purok IV (Pob.)", "district": null, "municity": "Pavia", "province": "Iloilo", "logo": null, "facebook": null, "url": null }, "geometry": { "type": "Point", "coordinates": [ 122.540165, 10.772957 ] } },
{ "type": "Feature", "properties": { "name": "Tanod Outpost", "category": "Critical Facilities", "type": "Emergency Response", "address": "QGVP+7C3, Iloilo R-3 Rd, Pavia, Iloilo City, 5001 Iloilo", "contact_mobile": null, "contact_landline": null, "email": null, "barangay": "Cabugao Sur", "district": null, "municity": "Pavia", "province": "Iloilo", "logo": null, "facebook": null, "url": null }, "geometry": { "type": "Point", "coordinates": [ 122.536033, 10.793148 ] } },
{ "type": "Feature", "properties": { "name": "Iloilo Merchant Marine School", "category": "Critical Facilities", "type": "Education", "address": "QGVM+MQ9 R-3 Rd., Cabugao Sur, Pavia, Iloilo City, 5001 Iloilo", "contact_mobile": "0963 988 4671", "contact_landline": "(033) 320 6762", "email": "imms226@gmail.com", "barangay": "Cabugao Sur", "district": null, "municity": "Pavia", "province": "Iloilo", "logo": "https://drive.google.com/uc?export=view&id=1ZvE5sxM3-keR5pdi03jp_5ER2LJsCdmR", "facebook": "https://www.facebook.com/imms.edu.ph/", "url": null }, "geometry": { "type": "Point", "coordinates": [ 122.534492, 10.794167 ] } },
{ "type": "Feature", "properties": { "name": "Agape Christian Fellowship", "category": "Critical Facilities", "type": "Faith-Based", "address": "QGVM+RP9, Iloilo R-3 Rd, Pavia, 5001 Iloilo", "contact_mobile": null, "contact_landline": null, "email": null, "barangay": "Cabugao Sur", "district": null, "municity": "Pavia", "province": "Iloilo", "logo": null, "facebook": null, "url": null }, "geometry": { "type": "Point", "coordinates": [ 122.534344, 10.794527 ] } },
{ "type": "Feature", "properties": { "name": "Mali-ao Barangay Hall", "category": "Critical Facilities", "type": "Government", "address": "QGGM+5F5 Barrio Road, Pavia, Iloilo", "contact_mobile": null, "contact_landline": null, "email": null, "barangay": "Mali-ao", "district": null, "municity": "Pavia", "province": "Iloilo", "logo": null, "facebook": null, "url": null }, "geometry": { "type": "Point", "coordinates": [ 122.533741, 10.775399 ] } },
{ "type": "Feature", "properties": { "name": "Mali-Ao Day Care Center", "category": "Critical Facilities", "type": "Education", "address": "QGGQ+63Q Mali-Ao Day Care Center, Brgy, Pavia, 5001 Iloilo", "contact_mobile": null, "contact_landline": null, "email": null, "barangay": "Mali-ao", "district": null, "municity": "Pavia", "province": "Iloilo", "logo": null, "facebook": null, "url": null }, "geometry": { "type": "Point", "coordinates": [ 122.533721, 10.775407 ] } },
{ "type": "Feature", "properties": { "name": "Iglesia Ni Cristo - Lokal ng Pavia [Iloilo South]", "category": "Critical Facilities", "type": "Faith-Based", "address": "QGFP+WJW, 28 Mali-ao Barrio Rd, Pavia, Iloilo", "contact_mobile": null, "contact_landline": null, "email": null, "barangay": "Mali-ao", "district": null, "municity": "Pavia", "province": "Iloilo", "logo": null, "facebook": null, "url": null }, "geometry": { "type": "Point", "coordinates": [ 122.536578, 10.774863 ] } },
{ "type": "Feature", "properties": { "name": "Pavia National High School", "category": "Critical Facilities", "type": "Education", "address": "Pavia National High School, 2014 Evangelista St, Pavia, Iloilo", "contact_mobile": null, "contact_landline": "(033) 320 2332", "email": null, "barangay": "Purok I (Pob.)", "district": null, "municity": "Pavia", "province": "Iloilo", "logo": "https://drive.google.com/uc?export=view&id=1npKrgbk9E8SOcbvwH7b_0JCzyp3iVz8Y", "facebook": "https://www.facebook.com/p/Pavia-National-High-School-Senior-High-Department-100071216237091/", "url": null }, "geometry": { "type": "Point", "coordinates": [ 122.539039, 10.779406 ] } },
{ "type": "Feature", "properties": { "name": "Pavia Pilot Elementary School", "category": "Critical Facilities", "type": "Education", "address": "PAVIA PILOT ELEMENTARY SCHOOL, 122 Evangelista St, Pavia, Iloilo", "contact_mobile": null, "contact_landline": "(033) 320 6656", "email": null, "barangay": "Purok I (Pob.)", "district": null, "municity": "Pavia", "province": "Iloilo", "logo": "https://drive.google.com/uc?export=view&id=1Kj7W69afrnnxsx4Lk-h7UCpbME--hy3n", "facebook": "https://www.facebook.com/profile.php?id=100063997842085", "url": "https://placestars.com/wp-signup.php?new=pavia-pilot-elementary-school" }, "geometry": { "type": "Point", "coordinates": [ 122.539488, 10.778112 ] } },
{ "type": "Feature", "properties": { "name": "Masjid Al-Khabeer", "category": "Critical Facilities", "type": "Faith-Based", "address": "QGJQ+PW2, Pavia, Iloilo", "contact_mobile": "0923 740 2148", "contact_landline": null, "email": null, "barangay": "Purok I (Pob.)", "district": null, "municity": "Pavia", "province": "Iloilo", "logo": null, "facebook": null, "url": null }, "geometry": { "type": "Point", "coordinates": [ 122.539762, 10.781754 ] } },
{ "type": "Feature", "properties": { "name": "Sta. Monica Parish - Pavia", "category": "Critical Facilities", "type": "Faith-Based", "address": "QGFR+XCQ, Corner Evangelista & Sumakwel Street, Pavia, 5001 Iloilo", "contact_mobile": null, "contact_landline": "(033) 329 2811", "email": null, "barangay": "Purok II (Pob.)", "district": null, "municity": "Pavia", "province": "Iloilo", "logo": null, "facebook": null, "url": null }, "geometry": { "type": "Point", "coordinates": [ 122.541096, 10.77495 ] } },
{ "type": "Feature", "properties": { "name": "Pavia Public Market", "category": "Critical Facilities", "type": "Public Market", "address": "QGFR+R8X, Pavia, Iloilo", "contact_mobile": null, "contact_landline": null, "email": null, "barangay": "Purok II (Pob.)", "district": null, "municity": "Pavia", "province": "Iloilo", "logo": null, "facebook": null, "url": null }, "geometry": { "type": "Point", "coordinates": [ 122.540867, 10.774623 ] } },
{ "type": "Feature", "properties": { "name": "Doane Baptist Church of Pavia", "category": "Critical Facilities", "type": "Faith-Based", "address": "QGGQ+XHQ, Evangelista St, Pavia, Purok 2, Iloilo City, 5001 Iloilo", "contact_mobile": null, "contact_landline": null, "email": null, "barangay": "Purok II (Pob.)", "district": null, "municity": "Pavia", "province": "Iloilo", "logo": null, "facebook": null, "url": null }, "geometry": { "type": "Point", "coordinates": [ 122.538975, 10.777471 ] } },
{ "type": "Feature", "properties": { "name": "Poblacion Purok 2 Barangay Hall", "category": "Critical Facilities", "type": "Government", "address": "QGFQ+XV4, Maquiling St, Pavia, Iloilo", "contact_mobile": null, "contact_landline": null, "email": null, "barangay": "Purok II (Pob.)", "district": null, "municity": "Pavia", "province": "Iloilo", "logo": null, "facebook": null, "url": null }, "geometry": { "type": "Point", "coordinates": [ 122.539709, 10.774881 ] } }
]
}
