{
"type": "FeatureCollection",
"name": "DRRM_CABATUAN_Critical_Facilities_Insights",
"crs": { "type": "name", "properties": { "name": "urn:ogc:def:crs:OGC:1.3:CRS84" } },
"features": [
{ "type": "Feature", "properties": { "name": "Zone V, Zone V Pob. (Barangay 5) Barangay Hall", "category": "Critical Facilities", "type": "Government", "address": "WG57+MV Cabatuan, Iloilo", "contact_mobile": null, "contact_landline": "(033) 522 9336", "email": null, "barangay": "Inaladan", "district": null, "municity": "Cabatuan", "province": "Iloilo", "facebook": null, "url": null, "logo": null }, "geometry": { "type": "Point", "coordinates": [ 122.514644, 10.909187 ] } },
{ "type": "Feature", "properties": { "name": "Brgy Anuang Brgy Hall", "category": "Critical Facilities", "type": "Government", "address": "VGV6+WJQ, Cabatuan, Iloilo", "contact_mobile": null, "contact_landline": null, "email": null, "barangay": "Anuang", "district": null, "municity": "Cabatuan", "province": "Iloilo", "facebook": null, "url": null, "logo": null }, "geometry": { "type": "Point", "coordinates": [ 122.511625, 10.894849 ] } },
{ "type": "Feature", "properties": { "name": "Sulanga Multi-Purpose Hall", "category": "Critical Facilities", "type": "Multipurpose Hall", "address": "WG42+H4J, Cabatuan, Iloilo", "contact_mobile": null, "contact_landline": null, "email": null, "barangay": "Sulanga", "district": null, "municity": "Cabatuan", "province": "Iloilo", "facebook": null, "url": null, "logo": null }, "geometry": { "type": "Point", "coordinates": [ 122.500261, 10.906465 ] } },
{ "type": "Feature", "properties": { "name": "Venancio Deseda Memorial Primary School", "category": "Critical Facilities", "type": "Education", "address": "WGH5+X8X Venancio Deseda Memorial Primary School, Brgy, Cabatuan, Iloilo", "contact_mobile": null, "contact_landline": null, "email": null, "barangay": "Janipaan Olo", "district": null, "municity": "Cabatuan", "province": "Iloilo", "facebook": null, "url": null, "logo": null }, "geometry": { "type": "Point", "coordinates": [ 122.508362, 10.929993 ] } },
{ "type": "Feature", "properties": { "name": "Barangay Balabag Hall", "category": "Critical Facilities", "type": "Government", "address": "WGFP+32M Barangay Hall, Barangay, Cabatuan, Iloilo", "contact_mobile": null, "contact_landline": null, "email": null, "barangay": "Balabag", "district": null, "municity": "Cabatuan", "province": "Iloilo", "facebook": null, "url": null, "logo": null }, "geometry": { "type": "Point", "coordinates": [ 122.535051, 10.922711 ] } },
{ "type": "Feature", "properties": { "name": "Our Lady of Candles Parish", "category": "Critical Facilities", "type": "Faith-Based", "address": "WG3P+J3G, Cabatuan, Iloilo", "contact_mobile": null, "contact_landline": null, "email": null, "barangay": "Jelicuon Montinola", "district": null, "municity": "Cabatuan", "province": "Iloilo", "facebook": null, "url": null, "logo": null }, "geometry": { "type": "Point", "coordinates": [ 122.535209, 10.904058 ] } },
{ "type": "Feature", "properties": { "name": "Brgy. Bulay Multipurpose Hall", "category": "Critical Facilities", "type": "Multipurpose Hall", "address": "WFGH+QP6, Brgy, Cabatuan, Iloilo", "contact_mobile": null, "contact_landline": null, "email": null, "barangay": "Bulay", "district": null, "municity": "Cabatuan", "province": "Iloilo", "facebook": null, "url": null, "logo": null }, "geometry": { "type": "Point", "coordinates": [ 122.479274, 10.926916 ] } },
{ "type": "Feature", "properties": { "name": "Freedom Bible Baptist Church - Ptr Ike Magbanua", "category": "Critical Facilities", "type": "Faith-Based", "address": "VF8F+CG3, Cabatuan, Iloilo", "contact_mobile": null, "contact_landline": null, "email": null, "barangay": "Tupol Este", "district": null, "municity": "Cabatuan", "province": "Iloilo", "facebook": null, "url": null, "logo": null }, "geometry": { "type": "Point", "coordinates": [ 122.473791, 10.866005 ] } },
{ "type": "Feature", "properties": { "name": "Brgy. Hall Ito Norte", "category": "Critical Facilities", "type": "Government", "address": "RFRC+RXJ, Cabatuan, Iloilo", "contact_mobile": null, "contact_landline": null, "email": null, "barangay": "Ito Norte", "district": null, "municity": "Cabatuan", "province": "Iloilo", "facebook": null, "url": null, "logo": null }, "geometry": { "type": "Point", "coordinates": [ 122.472402, 10.842084 ] } },
{ "type": "Feature", "properties": { "name": "Smart Cell Tower (Gines-Patag, Cabatuan)", "category": "Critical Facilities", "type": "Telecommunication", "address": "WFQV+54G, Cabatuan, Iloilo", "contact_mobile": null, "contact_landline": null, "email": null, "barangay": "Gines Patag", "district": null, "municity": "Cabatuan", "province": "Iloilo", "facebook": null, "url": null, "logo": null }, "geometry": { "type": "Point", "coordinates": [ 122.492815, 10.937942 ] } },
{ "type": "Feature", "properties": { "name": "Brgy. Baluyan Barangay Hall", "category": "Critical Facilities", "type": "Government", "address": "WF4R+XP5, Cabatuan, Iloilo", "contact_mobile": null, "contact_landline": null, "email": null, "barangay": "Baluyan", "district": null, "municity": "Cabatuan", "province": "Iloilo", "facebook": null, "url": null, "logo": null }, "geometry": { "type": "Point", "coordinates": [ 122.491862, 10.907395 ] } },
{ "type": "Feature", "properties": { "name": "United Pentecostal Church (Cabatuan)", "category": "Critical Facilities", "type": "Faith-Based", "address": "WF5R+QG2, PC Barracks Rd, Cabatuan, Iloilo", "contact_mobile": null, "contact_landline": null, "email": null, "barangay": "Baluyan", "district": null, "municity": "Cabatuan", "province": "Iloilo", "facebook": null, "url": null, "logo": null }, "geometry": { "type": "Point", "coordinates": [ 122.491254, 10.909381 ] } },
{ "type": "Feature", "properties": { "name": "Inaca Multipurpose Hall", "category": "Critical Facilities", "type": "Multipurpose Hall", "address": "VF33+679, Cabatuan, Iloilo", "contact_mobile": null, "contact_landline": null, "email": null, "barangay": "Inaca", "district": null, "municity": "Cabatuan", "province": "Iloilo", "facebook": null, "url": null, "logo": null }, "geometry": { "type": "Point", "coordinates": [ 122.453235, 10.853036 ] } },
{ "type": "Feature", "properties": { "name": "Brgy. Acao Multi -Purpose Gym", "category": "Critical Facilities", "type": "Multipurpose Hall", "address": "RFX6+JQF, Cabatuan, Iloilo", "contact_mobile": null, "contact_landline": null, "email": null, "barangay": "Acao", "district": null, "municity": "Cabatuan", "province": "Iloilo", "facebook": null, "url": null, "logo": null }, "geometry": { "type": "Point", "coordinates": [ 122.461895, 10.848936 ] } },
{ "type": "Feature", "properties": { "name": "Ito Baptist Church", "category": "Critical Facilities", "type": "Faith-Based", "address": "RFM8+FJ7, Cabatuan, Iloilo", "contact_mobile": null, "contact_landline": null, "email": null, "barangay": "Ito Sur", "district": null, "municity": "Cabatuan", "province": "Iloilo", "facebook": null, "url": null, "logo": null }, "geometry": { "type": "Point", "coordinates": [ 122.466538, 10.833668 ] } },
{ "type": "Feature", "properties": { "name": "Day Care Center (Cabatuan)", "category": "Critical Facilities", "type": "Education", "address": "VF6Q+P53 DAY CARE CENTER, Cabatuan, Iloilo", "contact_mobile": null, "contact_landline": null, "email": null, "barangay": "Pamul-Ogan", "district": null, "municity": "Cabatuan", "province": "Iloilo", "facebook": null, "url": null, "logo": null }, "geometry": { "type": "Point", "coordinates": [ 122.48791, 10.861768 ] } },
{ "type": "Feature", "properties": { "name": "Pamul Ogan Hill", "category": "Critical Facilities", "type": "Faith-Based", "address": "VF7P+G83, Cabatuan, Iloilo", "contact_mobile": null, "contact_landline": null, "email": null, "barangay": "Pamul-Ogan", "district": null, "municity": "Cabatuan", "province": "Iloilo", "facebook": null, "url": null, "logo": null }, "geometry": { "type": "Point", "coordinates": [ 122.485808, 10.863755 ] } },
{ "type": "Feature", "properties": { "name": "Manguna Barangay Hall", "category": "Critical Facilities", "type": "Government", "address": "RFGH+5PX, San Miguel - Cabatuan Rd, Cabatuan, Iloilo", "contact_mobile": null, "contact_landline": null, "email": null, "barangay": "Manguna", "district": null, "municity": "Cabatuan", "province": "Iloilo", "facebook": null, "url": null, "logo": null }, "geometry": { "type": "Point", "coordinates": [ 122.479373, 10.825494 ] } },
{ "type": "Feature", "properties": { "name": "Iloilo International Airport ARFF Station", "category": "Critical Facilities", "type": "Emergency Response", "address": "RFMX+M8C, Iloilo Airport Access Road, Cabatuan, Iloilo", "contact_mobile": null, "contact_landline": null, "email": null, "barangay": "Duyanduyan", "district": null, "municity": "Cabatuan", "province": "Iloilo", "facebook": null, "url": null, "logo": null }, "geometry": { "type": "Point", "coordinates": [ 122.498251, 10.834185 ] } },
{ "type": "Feature", "properties": { "name": "Smart Cell Tower", "category": "Critical Facilities", "type": "Telecommunication", "address": "RFRM+MVR, Cabatuan, Iloilo", "contact_mobile": null, "contact_landline": null, "email": null, "barangay": "Duyanduyan", "district": null, "municity": "Cabatuan", "province": "Iloilo", "facebook": null, "url": null, "logo": null }, "geometry": { "type": "Point", "coordinates": [ 122.484636, 10.841739 ] } },
{ "type": "Feature", "properties": { "name": "Cagban, Cabatuan Brgy. Hall", "category": "Critical Facilities", "type": "Government", "address": "VGMM+4C3, Cagban, Iloilo", "contact_mobile": null, "contact_landline": null, "email": null, "barangay": "Cagban", "district": null, "municity": "Cabatuan", "province": "Iloilo", "facebook": null, "url": null, "logo": null }, "geometry": { "type": "Point", "coordinates": [ 122.533562, 10.882763 ] } },
{ "type": "Feature", "properties": { "name": "Tuy-an Multi Purpose Hall", "category": "Critical Facilities", "type": "Multipurpose Hall", "address": "WFCF+59M, Cabatuan, Iloilo", "contact_mobile": null, "contact_landline": null, "email": null, "barangay": "Tuy-an", "district": null, "municity": "Cabatuan", "province": "Iloilo", "facebook": null, "url": null, "logo": null }, "geometry": { "type": "Point", "coordinates": [ 122.473415, 10.920454 ] } },
{ "type": "Feature", "properties": { "name": "Iglesia Ni Cristo - Lokal ng Cabatuan [Iloilo South]", "category": "Critical Facilities", "type": "Faith-Based", "address": "VFVQ+F4F, Cabatuan, Iloilo", "contact_mobile": "0948 358 7979", "contact_landline": null, "email": null, "barangay": "Ayaman", "district": null, "municity": "Cabatuan", "province": "Iloilo", "facebook": null, "url": null, "logo": null }, "geometry": { "type": "Point", "coordinates": [ 122.48781, 10.893676 ] } },
{ "type": "Feature", "properties": { "name": "Brgy. Hall, Pamuringao Proper", "category": "Critical Facilities", "type": "Government", "address": "VFG5+JWJ, Cabatuan, Iloilo", "contact_mobile": null, "contact_landline": null, "email": null, "barangay": "Pamuringao Proper", "district": null, "municity": "Cabatuan", "province": "Iloilo", "facebook": null, "url": null, "logo": null }, "geometry": { "type": "Point", "coordinates": [ 122.45977, 10.876588 ] } },
{ "type": "Feature", "properties": { "name": "Globe Satellite", "category": "Critical Facilities", "type": "Telecommunication", "address": "VG45+9PC, Cabatuan, Iloilo", "contact_mobile": null, "contact_landline": null, "email": null, "barangay": "Tiring", "district": null, "municity": "Cabatuan", "province": "Iloilo", "facebook": null, "url": null, "logo": null }, "geometry": { "type": "Point", "coordinates": [ 122.509273, 10.855943 ] } },
{ "type": "Feature", "properties": { "name": "Wenceslao S. Grio NHS", "category": "Critical Facilities", "type": "Education", "address": "VGMG+388 Wenceslao S. Grio NHS, Unnamed Road, Cabatuan, Iloilo", "contact_mobile": null, "contact_landline": null, "email": null, "barangay": "Puyas", "district": null, "municity": "Cabatuan", "province": "Iloilo", "facebook": "https://www.facebook.com/p/Wenceslao-S-Grio-National-High-School-100063571731575/", "url": null, "logo": "https://drive.google.com/uc?export=view&id=1ZLiYF4BquYglmWVkumbY_Qsr9riSDBsM" }, "geometry": { "type": "Point", "coordinates": [ 122.525833, 10.882673 ] } },
{ "type": "Feature", "properties": { "name": "DA 6 Research Outreach Station - Cabatuan", "category": "Critical Facilities", "type": "Government", "address": "VFCR+33R, Cabatuan, Iloilo", "contact_mobile": null, "contact_landline": null, "email": null, "barangay": "Banguit", "district": null, "municity": "Cabatuan", "province": "Iloilo", "facebook": null, "url": null, "logo": null }, "geometry": { "type": "Point", "coordinates": [ 122.490666, 10.870379 ] } },
{ "type": "Feature", "properties": { "name": "Gaub Barangay Hall", "category": "Critical Facilities", "type": "Government", "address": "VF2Q+3VG, Cabatuan, Iloilo", "contact_mobile": null, "contact_landline": null, "email": null, "barangay": "Gaub", "district": null, "municity": "Cabatuan", "province": "Iloilo", "facebook": null, "url": null, "logo": null }, "geometry": { "type": "Point", "coordinates": [ 122.489719, 10.850175 ] } },
{ "type": "Feature", "properties": { "name": "Christian Life Fellowship Learning Center Tiring Inc.", "category": "Critical Facilities", "type": "Education", "address": "VG43+FXP Christian Life Fellowship Learning Center Tiring Inc., Old Iloilo - Capiz Rd, Cabatuan, Iloilo", "contact_mobile": "0939 312 6233; 0912 482 2566", "contact_landline": null, "email": "clflct@gmail.com", "barangay": "Tiring", "district": null, "municity": "Cabatuan", "province": "Iloilo", "facebook": "https://www.facebook.com/clflc/", "url": null, "logo": "https://drive.google.com/uc?export=view&id=1EC1bx-ghqmelsI0oQgZ5CMDIgzFW2mS5" }, "geometry": { "type": "Point", "coordinates": [ 122.504957, 10.856201 ] } },
{ "type": "Feature", "properties": { "name": "Gaub Chapel", "category": "Critical Facilities", "type": "Faith-Based", "address": "VF2Q+FWR, Cabatuan, Iloilo", "contact_mobile": null, "contact_landline": null, "email": null, "barangay": "Gaub", "district": null, "municity": "Cabatuan", "province": "Iloilo", "facebook": null, "url": null, "logo": null }, "geometry": { "type": "Point", "coordinates": [ 122.489774, 10.851242 ] } },
{ "type": "Feature", "properties": { "name": "New Cabatuan MPS", "category": "Critical Facilities", "type": "Emergency Response", "address": "VFJJ+66P, Cabatuan, Iloilo", "contact_mobile": null, "contact_landline": "(033) 522 7871", "email": null, "barangay": "Poblacion", "district": null, "municity": "Cabatuan", "province": "Iloilo", "facebook": null, "url": null, "logo": null }, "geometry": { "type": "Point", "coordinates": [ 122.480582, 10.880593 ] } },
{ "type": "Feature", "properties": { "name": "Cabatuan Hall Of Justice", "category": "Critical Facilities", "type": "Government", "address": "VFJJ+75R, Ilaya St, Cabatuan, Iloilo", "contact_mobile": null, "contact_landline": null, "email": null, "barangay": "Poblacion", "district": null, "municity": "Cabatuan", "province": "Iloilo", "facebook": null, "url": null, "logo": null }, "geometry": { "type": "Point", "coordinates": [ 122.480396, 10.880748 ] } },
{ "type": "Feature", "properties": { "name": "Office of the Municipal General Services - Municipality of Cabatuan", "category": "Critical Facilities", "type": "Government", "address": "Dumalag Municipal Hall, Old Iloilo - Capiz Rd, Cabatuan, 5031 Iloilo", "contact_mobile": null, "contact_landline": "(044) 600 4895", "email": null, "barangay": "Poblacion", "district": null, "municity": "Cabatuan", "province": "Iloilo", "facebook": null, "url": null, "logo": null }, "geometry": { "type": "Point", "coordinates": [ 122.480985, 10.879826 ] } },
{ "type": "Feature", "properties": { "name": "Cabatuan Municipal Town Hall", "category": "Critical Facilities", "type": "Government", "address": "VFHJ+V9X, PC Barracks Rd, Cabatuan, Iloilo", "contact_mobile": null, "contact_landline": null, "email": null, "barangay": "Poblacion", "district": null, "municity": "Cabatuan", "province": "Iloilo", "facebook": null, "url": null, "logo": null }, "geometry": { "type": "Point", "coordinates": [ 122.480971, 10.879735 ] } },
{ "type": "Feature", "properties": { "name": " DAR - Municipal Office (Cabatuan)", "category": "Critical Facilities", "type": "Government", "address": "VFHM+3JM, Rizal Ilawod St, Cabatuan, Iloilo", "contact_mobile": null, "contact_landline": null, "email": null, "barangay": "Poblacion", "district": null, "municity": "Cabatuan", "province": "Iloilo", "facebook": null, "url": null, "logo": null }, "geometry": { "type": "Point", "coordinates": [ 122.484036, 10.877701 ] } },
{ "type": "Feature", "properties": { "name": "Negosyo Center Cabatuan", "category": "Critical Facilities", "type": "Government", "address": "VFJJ+28W, PC Barracks Rd, Cabatuan, Iloilo", "contact_mobile": "0945 324 2662", "contact_landline": null, "email": null, "barangay": "Poblacion", "district": null, "municity": "Cabatuan", "province": "Iloilo", "facebook": "https://www.facebook.com/NC.Cabatuan", "url": null, "logo": null }, "geometry": { "type": "Point", "coordinates": [ 122.480814, 10.88012 ] } },
{ "type": "Feature", "properties": { "name": "Public Employment Service Office - Cabatuan", "category": "Critical Facilities", "type": "Government", "address": "VFHJ+W96, Municipal Hall, National Road, Cabatuan, 5031 Iloilo", "contact_mobile": null, "contact_landline": "(033) 522 8530", "email": null, "barangay": "Poblacion", "district": null, "municity": "Cabatuan", "province": "Iloilo", "facebook": null, "url": null, "logo": null }, "geometry": { "type": "Point", "coordinates": [ 122.480902, 10.879794 ] } },
{ "type": "Feature", "properties": { "name": "Cabatuan Municipal Police Station", "category": "Critical Facilities", "type": "Government", "address": "VFHJ+W9X, Old Iloilo - Capiz Rd, Cabatuan, 5031 Iloilo", "contact_mobile": "0912 529 4831", "contact_landline": null, "email": null, "barangay": "Poblacion", "district": null, "municity": "Cabatuan", "province": "Iloilo", "facebook": null, "url": null, "logo": null }, "geometry": { "type": "Point", "coordinates": [ 122.480982, 10.879872 ] } },
{ "type": "Feature", "properties": { "name": "Brgy. Hall Zone IV", "category": "Critical Facilities", "type": "Government", "address": "VFJH+W6F, Rizal Ilaya St., Cabatuan, Iloilo", "contact_mobile": null, "contact_landline": null, "email": null, "barangay": "Poblacion", "district": null, "municity": "Cabatuan", "province": "Iloilo", "facebook": null, "url": null, "logo": null }, "geometry": { "type": "Point", "coordinates": [ 122.478046, 10.882304 ] } },
{ "type": "Feature", "properties": { "name": "Barangay Hall Brgy. Zone VII", "category": "Critical Facilities", "type": "Government", "address": "VFJM+G2F San Nicolas St, Cabatuan, Iloilo", "contact_mobile": null, "contact_landline": null, "email": null, "barangay": "Poblacion", "district": null, "municity": "Cabatuan", "province": "Iloilo", "facebook": null, "url": null, "logo": null }, "geometry": { "type": "Point", "coordinates": [ 122.482544, 10.881322 ] } },
{ "type": "Feature", "properties": { "name": "Cabatuan Fire Station", "category": "Critical Facilities", "type": "Emergency Response", "address": "Corner, Confessor Dr, Aragon St, Cabatuan, Iloilo", "contact_mobile": null, "contact_landline": null, "email": null, "barangay": "Poblacion", "district": null, "municity": "Cabatuan", "province": "Iloilo", "facebook": null, "url": null, "logo": null }, "geometry": { "type": "Point", "coordinates": [ 122.480548, 10.881428 ] } },
{ "type": "Feature", "properties": { "name": "GSEF College", "category": "Critical Facilities", "type": "Education", "address": "VFRJ+WJR Cabatuan, Iloilo", "contact_mobile": null, "contact_landline": null, "email": null, "barangay": "Ayaman", "district": null, "municity": "Cabatuan", "province": "Iloilo", "facebook": null, "url": null, "logo": null }, "geometry": { "type": "Point", "coordinates": [ 122.481529, 10.892353 ] } },
{ "type": "Feature", "properties": { "name": "Cabatuan Central Elementary School", "category": "Critical Facilities", "type": "Education", "address": "VFHP+F8M, Cabatuan, Iloilo", "contact_mobile": null, "contact_landline": null, "email": null, "barangay": "Ayaman", "district": null, "municity": "Cabatuan", "province": "Iloilo", "facebook": null, "url": null, "logo": null }, "geometry": { "type": "Point", "coordinates": [ 122.485809, 10.87871 ] } },
{ "type": "Feature", "properties": { "name": "Cabatuan National Comprehensive High School", "category": "Critical Facilities", "type": "Education", "address": "VFJP+QR6 Cabatuan National Comprehensive High School, Old Iloilo - Capiz Rd, Cabatuan, Iloilo", "contact_mobile": null, "contact_landline": "(033) 522 7850", "email": "cnchs_deped@yahoo.com", "barangay": "Ayaman", "district": null, "municity": "Cabatuan", "province": "Iloilo", "facebook": "https://www.facebook.com/CNCHS.302473/", "url": null, "logo": "https://drive.google.com/uc?export=view&id=1rJyxp7GiV3ny0hy2wSGXSKsA2GckHiVH" }, "geometry": { "type": "Point", "coordinates": [ 122.487012, 10.881904 ] } },
{ "type": "Feature", "properties": { "name": "Cabatuan Parochial School", "category": "Critical Facilities", "type": "Education", "address": "VFHJ+VF5 Cabatuan Parochial School, Rizal St, Cabatuan, Santa Barbara, Iloilo", "contact_mobile": null, "contact_landline": "(033) 522 9141", "email": null, "barangay": "Poblacion", "district": null, "municity": "Cabatuan", "province": "Iloilo", "facebook": null, "url": null, "logo": null }, "geometry": { "type": "Point", "coordinates": [ 122.481245, 10.879648 ] } },
{ "type": "Feature", "properties": { "name": "Clairemont International Grade School", "category": "Critical Facilities", "type": "Education", "address": "Clairemont International Grade School, AMES House, 36 Serrano Street, Cabatuan, 5031, Iloilo", "contact_mobile": null, "contact_landline": "(033) 522 8446", "email": null, "barangay": "Ayaman", "district": null, "municity": "Cabatuan", "province": "Iloilo", "facebook": null, "url": null, "logo": null }, "geometry": { "type": "Point", "coordinates": [ 122.486359, 10.881548 ] } },
{ "type": "Feature", "properties": { "name": "Cabatuan Public Market", "category": "Critical Facilities", "type": "Public Market", "address": "VFHJ+CRQ, Cabatuan, Iloilo", "contact_mobile": null, "contact_landline": null, "email": null, "barangay": "Poblacion", "district": null, "municity": "Cabatuan", "province": "Iloilo", "facebook": null, "url": null, "logo": null }, "geometry": { "type": "Point", "coordinates": [ 122.482492, 10.878664 ] } },
{ "type": "Feature", "properties": { "name": "San Nicolas de Tolentino Church", "category": "Critical Facilities", "type": "Faith-Based", "address": "VFHJ+PGV, Cabatuan, Iloilo", "contact_mobile": null, "contact_landline": "(033) 522 8653", "email": null, "barangay": "Poblacion", "district": null, "municity": "Cabatuan", "province": "Iloilo", "facebook": null, "url": null, "logo": null }, "geometry": { "type": "Point", "coordinates": [ 122.481294, 10.879368 ] } },
{ "type": "Feature", "properties": { "name": "Harvester Community Church - Cabatuan", "category": "Critical Facilities", "type": "Faith-Based", "address": "VFHM+CF4, Cabatuan, Iloilo", "contact_mobile": null, "contact_landline": null, "email": null, "barangay": "Poblacion", "district": null, "municity": "Cabatuan", "province": "Iloilo", "facebook": null, "url": null, "logo": null }, "geometry": { "type": "Point", "coordinates": [ 122.483693, 10.87851 ] } },
{ "type": "Feature", "properties": { "name": "Cabatuan Seventh-Day Adventist Church", "category": "Critical Facilities", "type": "Faith-Based", "address": "VFMG+2W9, Rizal Ilaya St, Cabatuan, Iloilo", "contact_mobile": null, "contact_landline": null, "email": null, "barangay": "Amerang", "district": null, "municity": "Cabatuan", "province": "Iloilo", "facebook": null, "url": null, "logo": null }, "geometry": { "type": "Point", "coordinates": [ 122.477359, 10.882538 ] } },
{ "type": "Feature", "properties": { "name": "Cabatuan Plaza Park", "category": "Critical Facilities", "type": "Parks and Open Space", "address": "VFJJ+3RJ, Cabatuan, Iloilo", "contact_mobile": null, "contact_landline": null, "email": null, "barangay": "Poblacion", "district": null, "municity": "Cabatuan", "province": "Iloilo", "facebook": null, "url": null, "logo": null }, "geometry": { "type": "Point", "coordinates": [ 122.48202, 10.880208 ] } },
{ "type": "Feature", "properties": { "name": "Bacan Multi Purpose Hall", "category": "Critical Facilities", "type": "Multipurpose Hall", "address": "VFM6+RHH, Cabatuan, Iloilo", "contact_mobile": null, "contact_landline": null, "email": null, "barangay": "Bacan", "district": null, "municity": "Cabatuan", "province": "Iloilo", "facebook": null, "url": null, "logo": null }, "geometry": { "type": "Point", "coordinates": [ 122.4615, 10.884565 ] } },
{ "type": "Feature", "properties": { "name": "Cabatuan Full Gospel Mission Church", "category": "Critical Facilities", "type": "Faith-Based", "address": "VFGQ+43R, Rizal Ilawod St, Cabatuan, Iloilo", "contact_mobile": null, "contact_landline": null, "email": null, "barangay": "Poblacion", "district": null, "municity": "Cabatuan", "province": "Iloilo", "facebook": null, "url": null, "logo": null }, "geometry": { "type": "Point", "coordinates": [ 122.487635, 10.875351 ] } },
{ "type": "Feature", "properties": { "name": "Blessed Gems Christian Academe, Inc.", "category": "Critical Facilities", "type": "Education", "address": "VFFQ+9MC Blessed Gems Christian Academe, Inc., Brgy. Banguit, Cabatuan, iloilo, 5033 Iloilo", "contact_mobile": "0963 958 4293", "contact_landline": null, "email": "blessedgemsca@gmail.com", "barangay": "Banguit", "district": null, "municity": "Cabatuan", "province": "Iloilo", "facebook": "https://www.facebook.com/blessedgemschristianacademe/", "url": "https://blessedgemschristianacademe.wordpress.com/", "logo": "https://drive.google.com/uc?export=view&id=1yJVNyPZXIBSVXYn9nRghDB9F4y7yafo3" }, "geometry": { "type": "Point", "coordinates": [ 122.489154, 10.87343 ] } },
{ "type": "Feature", "properties": { "name": "Cabatuan Memorial Park(Municipal Cemetery)", "category": "Critical Facilities", "type": "Parks and Open Space", "address": "VFFR+27X, Cabatuan, Iloilo", "contact_mobile": null, "contact_landline": null, "email": null, "barangay": "Banguit", "district": null, "municity": "Cabatuan", "province": "Iloilo", "facebook": null, "url": null, "logo": null }, "geometry": { "type": "Point", "coordinates": [ 122.490735, 10.872616 ] } },
{ "type": "Feature", "properties": { "name": "Brgy. Salacay Covered Court", "category": "Critical Facilities", "type": "Multipurpose Hall", "address": "VFCG+VCG, Brgy, Cabatuan, Iloilo", "contact_mobile": null, "contact_landline": null, "email": null, "barangay": "Salacay", "district": null, "municity": "Cabatuan", "province": "Iloilo", "facebook": null, "url": null, "logo": null }, "geometry": { "type": "Point", "coordinates": [ 122.476077, 10.872176 ] } }
]
}
