{
"type": "FeatureCollection",
"name": "TOURISM_OTON_TourismSpots_Insights",
"crs": { "type": "name", "properties": { "name": "urn:ogc:def:crs:OGC:1.3:CRS84" } },
"features": [
{ "type": "Feature", "properties": { "name": "Villa Estrella Beach Resort", "category": "Tourism", "type": "Sun and Beach", "address": "MFPQ+982, Oton, Iloilo", "contact_mobile": "0967 300 4002", "contact_landline": null, "email": "villaestrellapatar@gmail.com", "barangay": "Alegre", "district": null, "municity": "Oton", "province": "Iloilo", "facebook": "https://www.facebook.com/villaestrellapatar", "url": null, "entry_fee": null, "open_time": "Open 24 Hours", "closing_time": "Open 24 Hours" }, "geometry": { "type": "Point", "coordinates": [ 122.488271, 10.68589085 ] } },
{ "type": "Feature", "properties": { "name": "Voice of Calvary Baptist Church", "category": "Tourism", "type": "Cultural", "address": "Zone 2 Barangay Rd Alegre, Oton, Iloilo", "contact_mobile": null, "contact_landline": null, "email": null, "barangay": "Alegre", "district": null, "municity": "Oton", "province": "Iloilo", "facebook": null, "url": null, "entry_fee": null, "open_time": null, "closing_time": null }, "geometry": { "type": "Point", "coordinates": [ 122.4895502, 10.68779371 ] } },
{ "type": "Feature", "properties": { "name": "MABBY’s View Beach Resort", "category": "Tourism", "type": "Sun and Beach", "address": "Alegre, Oton Iloilo, Oton, Philippines", "contact_mobile": "0994 240 8934", "contact_landline": null, "email": "mabbysfrontoffice@gmail.com", "barangay": "Alegre", "district": null, "municity": "Oton", "province": "Iloilo", "facebook": "https://www.facebook.com/Mabbysviewbeachresort", "url": null, "entry_fee": null, "open_time": "07:00", "closing_time": "20:00" }, "geometry": { "type": "Point", "coordinates": [ 122.4937732, 10.68319194 ] } },
{ "type": "Feature", "properties": { "name": "Kalubyan Beach Resort", "category": "Tourism", "type": "Sun and Beach", "address": "Brgy. Alegre, Oton, Philippines", "contact_mobile": "0950 731 2020", "contact_landline": null, "email": null, "barangay": "Alegre", "district": null, "municity": "Oton", "province": "Iloilo", "facebook": "https://www.facebook.com/kalubyanbeachresortiloilo", "url": null, "entry_fee": null, "open_time": null, "closing_time": null }, "geometry": { "type": "Point", "coordinates": [ 122.4870327, 10.68622118 ] } },
{ "type": "Feature", "properties": { "name": "Nes and Tats Beach Resort", "category": "Tourism", "type": "Sun and Beach", "address": "MCPV+GCC, National Highway, Oton, Iloilo", "contact_mobile": null, "contact_landline": "335108937", "email": null, "barangay": "Botong", "district": null, "municity": "Oton", "province": "Iloilo", "facebook": null, "url": null, "entry_fee": null, "open_time": null, "closing_time": null }, "geometry": { "type": "Point", "coordinates": [ 122.4434938, 10.6863689 ] } },
{ "type": "Feature", "properties": { "name": "5020 Café", "category": "Tourism", "type": "Leisure and Entertainment", "address": "5020 Cafe, Oton Town, Philippines", "contact_mobile": "0960 834 8779", "contact_landline": null, "email": null, "barangay": "Botong", "district": null, "municity": "Oton", "province": "Iloilo", "facebook": "https://www.facebook.com/5020Cafe", "url": null, "entry_fee": null, "open_time": "09:00", "closing_time": "19:00" }, "geometry": { "type": "Point", "coordinates": [ 122.4361931, 10.68451081 ] } },
{ "type": "Feature", "properties": { "name": "Sheridan Boutique Resort", "category": "Tourism", "type": "Sun and Beach", "address": "Brgy. Buray Oton, Iloilo, Oton, Philippines", "contact_mobile": "0917 709 7941", "contact_landline": null, "email": "reservations@jecodev.com", "barangay": "Buray", "district": null, "municity": "Oton", "province": "Iloilo", "facebook": "https://www.facebook.com/sheridanboutiqueresort", "url": "sheridanboutiqueresort.com.ph", "entry_fee": null, "open_time": "Open 24 Hours", "closing_time": "Open 24 Hours" }, "geometry": { "type": "Point", "coordinates": [ 122.4782807, 10.69531006 ] } },
{ "type": "Feature", "properties": { "name": "Ayanna Garden Restaurant", "category": "Tourism", "type": "Leisure and Entertainment", "address": "MFWH+29Q, Rada St, Oton, Iloilo", "contact_mobile": null, "contact_landline": null, "email": null, "barangay": "Buray", "district": null, "municity": "Oton", "province": "Iloilo", "facebook": null, "url": null, "entry_fee": null, "open_time": "07:00", "closing_time": "23:00" }, "geometry": { "type": "Point", "coordinates": [ 122.4784785, 10.69508405 ] } },
{ "type": "Feature", "properties": { "name": "Ched’s Beach House", "category": "Tourism", "type": "Sun and Beach", "address": "MCJG+VFJ, Oton, Iloilo", "contact_mobile": "0968 727 4146", "contact_landline": null, "email": null, "barangay": "Cabanbanan", "district": null, "municity": "Oton", "province": "Iloilo", "facebook": "https://www.facebook.com/chedsbeachhut", "url": null, "entry_fee": null, "open_time": "Open 24 Hours", "closing_time": "Open 24 Hours" }, "geometry": { "type": "Point", "coordinates": [ 122.4266095, 10.6823446 ] } },
{ "type": "Feature", "properties": { "name": "Wiljurich Beach Resort ", "category": "Tourism", "type": "Sun and Beach", "address": "Cabanbanan, Oton Iloilo, Oton, Philippines", "contact_mobile": "9647423126", "contact_landline": null, "email": null, "barangay": "Cabanbanan", "district": null, "municity": "Oton", "province": "Iloilo", "facebook": "https://www.facebook.com/profile.php?id=61551027966913&mibextid=ZbWKwL", "url": null, "entry_fee": null, "open_time": null, "closing_time": null }, "geometry": { "type": "Point", "coordinates": [ 122.4316902, 10.68359753 ] } },
{ "type": "Feature", "properties": { "name": "Triple J's Integrated Farm\n", "category": "Tourism", "type": "Nature", "address": "Oton, 5020 Iloilo", "contact_mobile": "9192769464", "contact_landline": null, "email": null, "barangay": "Caboloan Sur", "district": null, "municity": "Oton", "province": "Iloilo", "facebook": "https://www.facebook.com/p/Triple-Js-Integrated-Farm-100083556842827/", "url": null, "entry_fee": null, "open_time": null, "closing_time": null }, "geometry": { "type": "Point", "coordinates": [ 122.482775, 10.74035439 ] } },
{ "type": "Feature", "properties": { "name": "Chimaekhada Korean Food House", "category": "Tourism", "type": "Leisure and Entertainment", "address": "D place, Oton, Iloilo", "contact_mobile": "9685863988", "contact_landline": null, "email": null, "barangay": "Poblacion South", "district": null, "municity": "Oton", "province": "Iloilo", "facebook": "https://www.facebook.com/Chimaekhada", "url": null, "entry_fee": null, "open_time": "10:00", "closing_time": "22:00" }, "geometry": { "type": "Point", "coordinates": [ 122.4772917, 10.68940815 ] } },
{ "type": "Feature", "properties": { "name": "Villa Azul Resort", "category": "Tourism", "type": "Sun and Beach", "address": "JC Zulueta St Poblacion, Oton Iloilo , Iloilo City, Philippines", "contact_mobile": "0917 815 1349", "contact_landline": null, "email": null, "barangay": "Poblacion South", "district": null, "municity": "Oton", "province": "Iloilo", "facebook": "https://www.facebook.com/VillaAzul44", "url": null, "entry_fee": null, "open_time": "Open 24 Hours", "closing_time": "Open 24 Hours" }, "geometry": { "type": "Point", "coordinates": [ 122.47052, 10.68930522 ] } },
{ "type": "Feature", "properties": { "name": "Katagman Resort", "category": "Tourism", "type": "Sun and Beach", "address": "J.c Zulueta St. Oton Iloilo Infont of Gaisano oton, Iloilo City, Philippines", "contact_mobile": "0910 450 8371", "contact_landline": null, "email": null, "barangay": "Poblacion South", "district": null, "municity": "Oton", "province": "Iloilo", "facebook": "https://www.facebook.com/profile.php?id=100092592543384", "url": null, "entry_fee": null, "open_time": "06:00", "closing_time": "18:00" }, "geometry": { "type": "Point", "coordinates": [ 122.4699856, 10.68850256 ] } },
{ "type": "Feature", "properties": { "name": "Anhawan Sunset Royal Beach Resort ", "category": "Tourism", "type": "Sun and Beach", "address": "MFQ8+Q5H, Oton, Iloilo", "contact_mobile": "9974038808", "contact_landline": null, "email": null, "barangay": "Poblacion South", "district": null, "municity": "Oton", "province": "Iloilo", "facebook": "https://www.facebook.com/profile.php?id=100071881536525", "url": null, "entry_fee": null, "open_time": "08:00", "closing_time": "17:00" }, "geometry": { "type": "Point", "coordinates": [ 122.4655411, 10.68944547 ] } },
{ "type": "Feature", "properties": { "name": "PADI Beach Resort - Oton ", "category": "Tourism", "type": "Sun and Beach", "address": "PADI Beach Resort - Oton ", "contact_mobile": "0927 882 5923", "contact_landline": null, "email": "yzleresorts@gmail.com", "barangay": "Poblacion South", "district": null, "municity": "Oton", "province": "Iloilo", "facebook": "https://www.facebook.com/padibeachoton", "url": null, "entry_fee": null, "open_time": "06:00", "closing_time": "21:00" }, "geometry": { "type": "Point", "coordinates": [ 122.4693949, 10.68882365 ] } },
{ "type": "Feature", "properties": { "name": "Anjauan Leisure Camp Beach Resort", "category": "Tourism", "type": "Sun and Beach", "address": "J.C Zulueta Street, Oton, Iloilo", "contact_mobile": null, "contact_landline": "333351520", "email": null, "barangay": "Poblacion South", "district": null, "municity": "Oton", "province": "Iloilo", "facebook": null, "url": null, "entry_fee": null, "open_time": null, "closing_time": null }, "geometry": { "type": "Point", "coordinates": [ 122.4692286, 10.69059645 ] } },
{ "type": "Feature", "properties": { "name": "Gaisano Capital Oton", "category": "Tourism", "type": "Leisure and Entertainment", "address": "J.C Zulueta Street, Oton, Iloilo", "contact_mobile": null, "contact_landline": "333376900", "email": null, "barangay": "Poblacion South", "district": null, "municity": "Oton", "province": "Iloilo", "facebook": "https://www.facebook.com/people/Gaisano-Capital-OTON/100090105413831/", "url": "http://www.gaisanocapital.com/", "entry_fee": null, "open_time": "09:00", "closing_time": "20:00" }, "geometry": { "type": "Point", "coordinates": [ 122.4702555, 10.69174947 ] } },
{ "type": "Feature", "properties": { "name": "Jackal's Tapsilogan", "category": "Tourism", "type": "Leisure and Entertainment", "address": "brgy, Rada St, Oton, Iloilo", "contact_mobile": "9266387578", "contact_landline": null, "email": null, "barangay": "Poblacion West", "district": null, "municity": "Oton", "province": "Iloilo", "facebook": "https://www.facebook.com/JackalsTapsilogan/", "url": null, "entry_fee": null, "open_time": "19:00", "closing_time": "03:00" }, "geometry": { "type": "Point", "coordinates": [ 122.4755566, 10.69473954 ] } },
{ "type": "Feature", "properties": { "name": "Bong's 8 Arroz Caldo", "category": "Tourism", "type": "Leisure and Entertainment", "address": "MFVH+FJ2, Rada St, Oton, Iloilo", "contact_mobile": null, "contact_landline": null, "email": null, "barangay": "Poblacion West", "district": null, "municity": "Oton", "province": "Iloilo", "facebook": null, "url": null, "entry_fee": null, "open_time": "07:00", "closing_time": "21:00" }, "geometry": { "type": "Point", "coordinates": [ 122.4790222, 10.69365325 ] } },
{ "type": "Feature", "properties": { "name": "Angelicus Bakeshop", "category": "Tourism", "type": "Leisure and Entertainment", "address": "MFVH+CMM, Rada St, Oton, Iloilo", "contact_mobile": null, "contact_landline": null, "email": null, "barangay": "Poblacion West", "district": null, "municity": "Oton", "province": "Iloilo", "facebook": null, "url": null, "entry_fee": null, "open_time": null, "closing_time": null }, "geometry": { "type": "Point", "coordinates": [ 122.4791898, 10.69363216 ] } },
{ "type": "Feature", "properties": { "name": "Oton Town Plaza", "category": "Tourism", "type": "Nature", "address": "Mabini St, Oton, Iloilo", "contact_mobile": null, "contact_landline": null, "email": null, "barangay": "Poblacion West", "district": null, "municity": "Oton", "province": "Iloilo", "facebook": null, "url": null, "entry_fee": null, "open_time": null, "closing_time": null }, "geometry": { "type": "Point", "coordinates": [ 122.4783903, 10.69328004 ] } },
{ "type": "Feature", "properties": { "name": "Mrs. Wharton Cake Shop and Cafe", "category": "Tourism", "type": "Sun and Beach", "address": "San Antonio, , Oton, Philippines", "contact_mobile": "9995953304", "contact_landline": null, "email": "chair2go@yahoo.com.ph", "barangay": "San Antonio", "district": null, "municity": "Oton", "province": "Iloilo", "facebook": "https://www.facebook.com/p/Mrs-Wharton-Cake-Shop-100091638753699/", "url": null, "entry_fee": null, "open_time": "10:00", "closing_time": "21:00" }, "geometry": { "type": "Point", "coordinates": [ 122.4878131, 10.6937299 ] } },
{ "type": "Feature", "properties": { "name": "Casa Riviera", "category": "Tourism", "type": "MICE", "address": "San Antonio , Oton , Iloilo, Iloilo City, Philippines", "contact_mobile": "0950 504 7433", "contact_landline": null, "email": "tata_llamas@yahoo.com", "barangay": "San Antonio", "district": null, "municity": "Oton", "province": "Iloilo", "facebook": "https://www.facebook.com/casarivieraofficial/", "url": null, "entry_fee": null, "open_time": "Open 24 Hours", "closing_time": "Open 24 Hours" }, "geometry": { "type": "Point", "coordinates": [ 122.487852, 10.69377104 ] } },
{ "type": "Feature", "properties": { "name": "Dedang’s Lechon Original", "category": "Tourism", "type": "Leisure and Entertainment", "address": "Brgy. San Antonio Oton,Iloilo, Iloilo City, Philippines", "contact_mobile": "0927 738 2276", "contact_landline": null, "email": "dedangslechon@gmail.com", "barangay": "San Antonio", "district": null, "municity": "Oton", "province": "Iloilo", "facebook": "https://www.facebook.com/dedangslechon/", "url": "dedangslechon.wixsite.com/dedangslechon", "entry_fee": null, "open_time": "06:00", "closing_time": "20:00" }, "geometry": { "type": "Point", "coordinates": [ 122.4883381, 10.69377368 ] } },
{ "type": "Feature", "properties": { "name": "Kanipa-an Grill & Seafoods ", "category": "Tourism", "type": "Leisure and Entertainment", "address": "Brgy San Antonio, Oton, Iloilo, Western Visayas, Philippines, Oton, Philippines", "contact_mobile": "0920 263 8698", "contact_landline": null, "email": null, "barangay": "San Antonio", "district": null, "municity": "Oton", "province": "Iloilo", "facebook": null, "url": null, "entry_fee": null, "open_time": "09:30", "closing_time": "21:00" }, "geometry": { "type": "Point", "coordinates": [ 122.4893084, 10.69387778 ] } },
{ "type": "Feature", "properties": { "name": "Grill Eat Samgyupsal", "category": "Tourism", "type": "Leisure and Entertainment", "address": "Brgy. San Antonio, Oton, beside Rusco Motors along National road., Oton, Philippines", "contact_mobile": "9173168385", "contact_landline": null, "email": null, "barangay": "San Antonio", "district": null, "municity": "Oton", "province": "Iloilo", "facebook": "https://www.facebook.com/p/Grill-Eat-Samgyupsal-61552952194588/", "url": null, "entry_fee": null, "open_time": "10:00", "closing_time": "22:00" }, "geometry": { "type": "Point", "coordinates": [ 122.4903117, 10.69390761 ] } },
{ "type": "Feature", "properties": { "name": "Artistiko Cafe", "category": "Tourism", "type": "Leisure and Entertainment", "address": "San Antonio Oton Iloilo, Oton Town, Philippines", "contact_mobile": "0947 995 3348", "contact_landline": null, "email": "artistikocafe@gmail.com", "barangay": "San Antonio", "district": null, "municity": "Oton", "province": "Iloilo", "facebook": "https://www.facebook.com/artistiko.cafe/", "url": null, "entry_fee": null, "open_time": "09:00", "closing_time": "19:00" }, "geometry": { "type": "Point", "coordinates": [ 122.486125, 10.6936544 ] } },
{ "type": "Feature", "properties": { "name": "D Escudo's Events Place", "category": "Tourism", "type": "MICE", "address": "San. Antonio, Iloilo City, Philippines", "contact_mobile": "0912 783 9638", "contact_landline": null, "email": "monitamagos.livecorp@gmail.com", "barangay": "San Antonio", "district": null, "municity": "Oton", "province": "Iloilo", "facebook": "https://www.facebook.com/DEscudoEventsPlace", "url": null, "entry_fee": null, "open_time": "Open 24 Hours", "closing_time": "Open 24 Hours" }, "geometry": { "type": "Point", "coordinates": [ 122.4854251, 10.69344349 ] } },
{ "type": "Feature", "properties": { "name": "Kirra Beach Resort", "category": "Tourism", "type": "Sun and Beach", "address": "MFQ6+GXV, J.C. Zulueta St, Oton, Iloilo", "contact_mobile": "9155016651; 0917 597 3216", "contact_landline": null, "email": null, "barangay": "Trapiche", "district": null, "municity": "Oton", "province": "Iloilo", "facebook": "https://www.facebook.com/profile.php?id=100084052014219", "url": null, "entry_fee": null, "open_time": null, "closing_time": null }, "geometry": { "type": "Point", "coordinates": [ 122.4635243, 10.68981326 ] } },
{ "type": "Feature", "properties": { "name": "Zen Resort", "category": "Tourism", "type": "Sun and Beach", "address": "MFQ7+9MM, Iloilo - Antique Rd S, Oton, Iloilo", "contact_mobile": null, "contact_landline": null, "email": null, "barangay": "Trapiche", "district": null, "municity": "Oton", "province": "Iloilo", "facebook": null, "url": null, "entry_fee": null, "open_time": null, "closing_time": null }, "geometry": { "type": "Point", "coordinates": [ 122.4643425, 10.68864022 ] } },
{ "type": "Feature", "properties": { "name": "Villa Rica Beach Resort ", "category": "Tourism", "type": "Sun and Beach", "address": "Brgy. Trapiche, Oton, Iloilo City, Philippines", "contact_mobile": "0910 870 2774", "contact_landline": null, "email": null, "barangay": "Trapiche", "district": null, "municity": "Oton", "province": "Iloilo", "facebook": "https://www.facebook.com/profile.php?id=100064240920731", "url": null, "entry_fee": null, "open_time": "07:00", "closing_time": "17:00" }, "geometry": { "type": "Point", "coordinates": [ 122.4633533, 10.68873276 ] } },
{ "type": "Feature", "properties": { "name": "LaSette Resort Hotel", "category": "Tourism", "type": "Sun and Beach", "address": "Barangay Trapiche, Oton, Philippines", "contact_mobile": "0999 366 9636", "contact_landline": null, "email": "lasetteresort@gmail.com", "barangay": "Trapiche", "district": null, "municity": "Oton", "province": "Iloilo", "facebook": "https://www.facebook.com/profile.php?id=100094552276919", "url": null, "entry_fee": null, "open_time": null, "closing_time": null }, "geometry": { "type": "Point", "coordinates": [ 122.4616571, 10.68847075 ] } },
{ "type": "Feature", "properties": { "name": "Brendans House of Lengua de Gato", "category": "Tourism", "type": "Leisure and Entertainment", "address": "Trapiche Oton, Iloilo City, Philippines", "contact_mobile": "9384781468", "contact_landline": null, "email": "houseoflenguadegato@gmail.com", "barangay": "Trapiche", "district": null, "municity": "Oton", "province": "Iloilo", "facebook": "https://www.facebook.com/photo/?fbid=306715205835592&set=a.107362715770843", "url": null, "entry_fee": null, "open_time": "05:00", "closing_time": "18:00" }, "geometry": { "type": "Point", "coordinates": [ 122.4534848, 10.68926244 ] } },
{ "type": "Feature", "properties": { "name": "Riverside Beach Resort", "category": "Tourism", "type": "Sun and Beach", "address": "MCPX+Q8G, Oton, Iloilo", "contact_mobile": "9278028741", "contact_landline": null, "email": null, "barangay": "Trapiche", "district": null, "municity": "Oton", "province": "Iloilo", "facebook": null, "url": null, "entry_fee": null, "open_time": null, "closing_time": null }, "geometry": { "type": "Point", "coordinates": [ 122.4483171, 10.68694617 ] } },
{ "type": "Feature", "properties": { "name": "KALLMA Beach Resort", "category": "Tourism", "type": "Sun and Beach", "address": "Brgy. Trapiche, Oton, Philippines", "contact_mobile": "9497229789", "contact_landline": null, "email": "kallmabeachresort@yahoo.com", "barangay": "Trapiche", "district": null, "municity": "Oton", "province": "Iloilo", "facebook": "https://www.facebook.com/kallmabeachresort", "url": null, "entry_fee": null, "open_time": "Open 24 Hours", "closing_time": "Open 24 Hours" }, "geometry": { "type": "Point", "coordinates": [ 122.461308, 10.68843572 ] } },
{ "type": "Feature", "properties": { "name": "Holy Gardens Oton Memorial Park", "category": "Tourism", "type": "Cultural", "address": "MFR7+QW3, Oton, 5020 Iloilo", "contact_mobile": null, "contact_landline": null, "email": null, "barangay": "Trapiche", "district": null, "municity": "Oton", "province": "Iloilo", "facebook": null, "url": null, "entry_fee": null, "open_time": null, "closing_time": null }, "geometry": { "type": "Point", "coordinates": [ 122.4647885, 10.69188068 ] } },
{ "type": "Feature", "properties": { "name": "Halo Kitchen", "category": "Tourism", "type": "Leisure and Entertainment", "address": "Trapiche , Oton, Philippines", "contact_mobile": null, "contact_landline": null, "email": "halo.kitchen.corp@gmail.com", "barangay": "Trapiche", "district": null, "municity": "Oton", "province": "Iloilo", "facebook": "https://www.facebook.com/halokitchenph", "url": null, "entry_fee": null, "open_time": "Open 24 Hours", "closing_time": "Open 24 Hours" }, "geometry": { "type": "Point", "coordinates": [ 122.4638789, 10.69091657 ] } }
]
}
