{
"type": "FeatureCollection",
"name": "TOURISM_CABATUAN_TourismSpots_Insights",
"crs": { "type": "name", "properties": { "name": "urn:ogc:def:crs:OGC:1.3:CRS84" } },
"features": [
{ "type": "Feature", "properties": { "name": "Great Valley Resort", "category": "Tourism", "type": "Leisure and Entertainment", "address": "Brgy, Cabatuan, 5031 Iloilo", "contact_mobile": "0919 833 1428", "contact_landline": null, "email": "e468caspe@yahoo.com", "barangay": "Inaladan", "district": null, "municity": "Cabatuan", "province": "Iloilo", "facebook": "https://www.facebook.com/GreatValleyResort/", "url": null, "entry_fee": null, "open_time": null, "closing_time": null }, "geometry": { "type": "Point", "coordinates": [ 122.52522, 10.89775575 ] } },
{ "type": "Feature", "properties": { "name": "Cabatuan Elementary School", "category": "Tourism", "type": "Education", "address": "WG57+MVC, Unnamed Road, Cabatuan, Iloilo", "contact_mobile": null, "contact_landline": null, "email": null, "barangay": "Inaladan", "district": null, "municity": "Cabatuan", "province": "Iloilo", "facebook": null, "url": null, "entry_fee": null, "open_time": null, "closing_time": null }, "geometry": { "type": "Point", "coordinates": [ 122.5146439, 10.90918465 ] } },
{ "type": "Feature", "properties": { "name": "Nonoy Dos & Bedok Farm ", "category": "Tourism", "type": "Nature", "address": "Mina Cabatuan Access Rd, Cabatuan, Iloilo", "contact_mobile": "0917 845 4669", "contact_landline": null, "email": null, "barangay": "Jelicuon Lusaya", "district": null, "municity": "Cabatuan", "province": "Iloilo", "facebook": "https://www.facebook.com/NonoyDosBedokFARM/", "url": null, "entry_fee": null, "open_time": "06:30", "closing_time": "18:00" }, "geometry": { "type": "Point", "coordinates": [ 122.5324226, 10.9095576 ] } },
{ "type": "Feature", "properties": { "name": "Sulanga Multi-Purpose Hall", "category": "Tourism", "type": "MICE", "address": "WG42+H4J, Cabatuan, Iloilo", "contact_mobile": null, "contact_landline": null, "email": null, "barangay": "Sulanga", "district": null, "municity": "Cabatuan", "province": "Iloilo", "facebook": null, "url": null, "entry_fee": null, "open_time": null, "closing_time": null }, "geometry": { "type": "Point", "coordinates": [ 122.5002602, 10.90652186 ] } },
{ "type": "Feature", "properties": { "name": "Our Lady of Candles Parish", "category": "Tourism", "type": "Cultural", "address": "WG3P+J3G, Cabatuan, Iloilo", "contact_mobile": null, "contact_landline": "(033) 329 1625", "email": "jarometropolitancathedral@gmail.com", "barangay": "Jelicuon Montinola", "district": null, "municity": "Cabatuan", "province": "Iloilo", "facebook": "https://www.facebook.com/JaroCandelaria", "url": null, "entry_fee": null, "open_time": "08:00", "closing_time": "17:00" }, "geometry": { "type": "Point", "coordinates": [ 122.5352186, 10.90406575 ] } },
{ "type": "Feature", "properties": { "name": "Tupol Elementary School", "category": "Tourism", "type": "Education", "address": "VF89+CFG, Cabatuan, Iloilo", "contact_mobile": null, "contact_landline": null, "email": null, "barangay": "Tupol Central", "district": null, "municity": "Cabatuan", "province": "Iloilo", "facebook": null, "url": null, "entry_fee": null, "open_time": "07:30", "closing_time": "18:30" }, "geometry": { "type": "Point", "coordinates": [ 122.4687165, 10.86606478 ] } },
{ "type": "Feature", "properties": { "name": "Ventura's Farm and Villas", "category": "Tourism", "type": "Nature", "address": "WGCC+QWG, Cabatuan, Iloilo", "contact_mobile": null, "contact_landline": null, "email": null, "barangay": "Janipaan Oeste", "district": null, "municity": "Cabatuan", "province": "Iloilo", "facebook": null, "url": null, "entry_fee": null, "open_time": null, "closing_time": null }, "geometry": { "type": "Point", "coordinates": [ 122.5223385, 10.92193033 ] } },
{ "type": "Feature", "properties": { "name": "El Timplada ", "category": "Tourism", "type": "Leisure and Entertainment", "address": "Zone 1, Cabatuan, Iloilo", "contact_mobile": "0916 745 9143", "contact_landline": null, "email": "eltimplada@gmail.com", "barangay": "Gines Patag", "district": null, "municity": "Cabatuan", "province": "Iloilo", "facebook": "https://www.facebook.com/eltimplada/", "url": null, "entry_fee": null, "open_time": "09:00", "closing_time": "19:00" }, "geometry": { "type": "Point", "coordinates": [ 122.4931105, 10.93913554 ] } },
{ "type": "Feature", "properties": { "name": "Zar's Garden", "category": "Tourism", "type": "Nature", "address": "Cabatuan, Iloilo", "contact_mobile": "9761638157", "contact_landline": null, "email": null, "barangay": "Gines Patag", "district": null, "municity": "Cabatuan", "province": "Iloilo", "facebook": null, "url": null, "entry_fee": null, "open_time": "08:00", "closing_time": "17:00" }, "geometry": { "type": "Point", "coordinates": [ 122.4918461, 10.93992977 ] } },
{ "type": "Feature", "properties": { "name": "JoRich Garden", "category": "Tourism", "type": "Nature", "address": "#3 Zone 1 Brgy, Cabatuan, Iloilo", "contact_mobile": "9174847904", "contact_landline": null, "email": null, "barangay": "Tuy-an", "district": null, "municity": "Cabatuan", "province": "Iloilo", "facebook": null, "url": null, "entry_fee": null, "open_time": "08:00", "closing_time": "17:00" }, "geometry": { "type": "Point", "coordinates": [ 122.4764054, 10.92098396 ] } },
{ "type": "Feature", "properties": { "name": "Tuy-an Multi Purpose Hall", "category": "Tourism", "type": "MICE", "address": "WFCF+59M, Cabatuan, Iloilo", "contact_mobile": null, "contact_landline": null, "email": null, "barangay": "Tuy-an", "district": null, "municity": "Cabatuan", "province": "Iloilo", "facebook": null, "url": null, "entry_fee": null, "open_time": null, "closing_time": null }, "geometry": { "type": "Point", "coordinates": [ 122.4733834, 10.92046073 ] } },
{ "type": "Feature", "properties": { "name": "Maharlika Panay Eagles Club Landmark", "category": "Tourism", "type": "Nature", "address": "VFHR+JX7, Cabatuan Bypass Road, Cabatuan, Iloilo", "contact_mobile": null, "contact_landline": null, "email": null, "barangay": "Ayaman", "district": null, "municity": "Cabatuan", "province": "Iloilo", "facebook": null, "url": null, "entry_fee": null, "open_time": null, "closing_time": null }, "geometry": { "type": "Point", "coordinates": [ 122.4924084, 10.87903707 ] } },
{ "type": "Feature", "properties": { "name": "Clada Travellers INN", "category": "Tourism", "type": "Accommodation", "address": "VG36+668, Cabatuan, Iloilo", "contact_mobile": null, "contact_landline": "335224034", "email": "mikeelee2212@gmail.com", "barangay": "Talanghauan", "district": null, "municity": "Cabatuan", "province": "Iloilo", "facebook": "https://www.facebook.com/profile.php?id=61552776427097", "url": null, "entry_fee": null, "open_time": null, "closing_time": null }, "geometry": { "type": "Point", "coordinates": [ 122.5105577, 10.85303639 ] } },
{ "type": "Feature", "properties": { "name": "La Berta Resort", "category": "Tourism", "type": "Sun and Beach", "address": "Airport Access Road, Cabatuan, 5031 Iloilo", "contact_mobile": "0906 073 3865", "contact_landline": null, "email": "teetheratienza1977@gmail.com", "barangay": "Tiring", "district": null, "municity": "Cabatuan", "province": "Iloilo", "facebook": "https://www.facebook.com/profile.php?id=61560964841118", "url": null, "entry_fee": null, "open_time": null, "closing_time": null }, "geometry": { "type": "Point", "coordinates": [ 122.5016725, 10.85455908 ] } },
{ "type": "Feature", "properties": { "name": "Cabatuan Plaza Fountain", "category": "Tourism", "type": "Cultural", "address": "VFHJ+XPP, Cabatuan, Iloilo", "contact_mobile": null, "contact_landline": null, "email": null, "barangay": "Poblacion", "district": null, "municity": "Cabatuan", "province": "Iloilo", "facebook": null, "url": null, "entry_fee": null, "open_time": null, "closing_time": null }, "geometry": { "type": "Point", "coordinates": [ 122.4817126, 10.88031953 ] } },
{ "type": "Feature", "properties": { "name": "Cabauatan Convention Center", "category": "Tourism", "type": "MICE", "address": "VFJJ+87W, Cabatuan, Iloilo", "contact_mobile": null, "contact_landline": null, "email": null, "barangay": "Poblacion", "district": null, "municity": "Cabatuan", "province": "Iloilo", "facebook": null, "url": null, "entry_fee": null, "open_time": null, "closing_time": null }, "geometry": { "type": "Point", "coordinates": [ 122.4806882, 10.88086639 ] } },
{ "type": "Feature", "properties": { "name": "Paklang Arch", "category": "Tourism", "type": "Cultural", "address": "VFHJ+VW6, Cabatuan, Iloilo", "contact_mobile": null, "contact_landline": null, "email": null, "barangay": "Poblacion", "district": null, "municity": "Cabatuan", "province": "Iloilo", "facebook": null, "url": null, "entry_fee": null, "open_time": null, "closing_time": null }, "geometry": { "type": "Point", "coordinates": [ 122.482296, 10.879644 ] } },
{ "type": "Feature", "properties": { "name": "San Nicolas de Tolentino Church", "category": "Tourism", "type": "Cultural", "address": "VFHJ+PGV, Cabatuan, Iloilo", "contact_mobile": null, "contact_landline": "335228653", "email": "rcparishcabatuan091@gmail.com", "barangay": "Poblacion", "district": null, "municity": "Cabatuan", "province": "Iloilo", "facebook": "https://www.facebook.com/sannicolasdetolentinocabatuanofficialpage", "url": null, "entry_fee": null, "open_time": null, "closing_time": null }, "geometry": { "type": "Point", "coordinates": [ 122.4814266, 10.8796139 ] } },
{ "type": "Feature", "properties": { "name": "Leah's Tinuom", "category": "Tourism", "type": "Leisure and Entertainment", "address": "VFHJ+8JG, Cabatuan, Iloilo", "contact_mobile": null, "contact_landline": null, "email": null, "barangay": "Poblacion", "district": null, "municity": "Cabatuan", "province": "Iloilo", "facebook": null, "url": null, "entry_fee": null, "open_time": "06:00", "closing_time": "20:00" }, "geometry": { "type": "Point", "coordinates": [ 122.4818467, 10.87841229 ] } },
{ "type": "Feature", "properties": { "name": "Balay Tablea", "category": "Tourism", "type": "Leisure and Entertainment", "address": "Rizal St, Cabatuan, Iloilo", "contact_mobile": "0928 524 5579", "contact_landline": null, "email": "cath.taleon@gmail.com", "barangay": "Poblacion", "district": null, "municity": "Cabatuan", "province": "Iloilo", "facebook": "https://www.facebook.com/products.balaytablea/", "url": null, "entry_fee": null, "open_time": "08:00", "closing_time": "17:00" }, "geometry": { "type": "Point", "coordinates": [ 122.4858013, 10.87670107 ] } },
{ "type": "Feature", "properties": { "name": "Ontoy’s Grill & Chill", "category": "Tourism", "type": "Leisure and Entertainment", "address": "45 San Agustin St, Cabatuan, Iloilo", "contact_mobile": "0950 199 7914", "contact_landline": null, "email": null, "barangay": "Poblacion", "district": null, "municity": "Cabatuan", "province": "Iloilo", "facebook": "https://www.facebook.com/p/Ontoys-Grill-Chill-100091524426887/", "url": null, "entry_fee": null, "open_time": "10:00", "closing_time": "20:00" }, "geometry": { "type": "Point", "coordinates": [ 122.4822816, 10.88349261 ] } },
{ "type": "Feature", "properties": { "name": "Andres Bonifacio Monument ", "category": "Tourism", "type": "Cultural", "address": "VFJJ+3QH, Cabatuan, Iloilo", "contact_mobile": null, "contact_landline": null, "email": null, "barangay": "Poblacion", "district": null, "municity": "Cabatuan", "province": "Iloilo", "facebook": null, "url": null, "entry_fee": null, "open_time": null, "closing_time": null }, "geometry": { "type": "Point", "coordinates": [ 122.4820597, 10.8817226 ] } },
{ "type": "Feature", "properties": { "name": "Vibretto Cafe", "category": "Tourism", "type": "Leisure and Entertainment", "address": "Amurao, Cabatuan, Philippines", "contact_mobile": "9155003624", "contact_landline": null, "email": null, "barangay": "Amurao", "district": null, "municity": "Cabatuan", "province": "Iloilo", "facebook": "https://www.facebook.com/profile.php?id=61557150984539", "url": null, "entry_fee": null, "open_time": "08:00", "closing_time": "20:00" }, "geometry": { "type": "Point", "coordinates": [ 122.4748705, 10.88897036 ] } },
{ "type": "Feature", "properties": { "name": "Tinago Cafe", "category": "Tourism", "type": "Leisure and Entertainment", "address": "Bacan Cabatuan, Iloilo City, Philippines", "contact_mobile": "0961 021 0241", "contact_landline": null, "email": null, "barangay": "Bacan", "district": null, "municity": "Cabatuan", "province": "Iloilo", "facebook": "https://www.facebook.com/TinagoCafe", "url": null, "entry_fee": null, "open_time": "Open 24 Hours", "closing_time": "Open 24 Hours" }, "geometry": { "type": "Point", "coordinates": [ 122.4628961, 10.88453859 ] } },
{ "type": "Feature", "properties": { "name": "RoadParc Bistro", "category": "Tourism", "type": "Leisure and Entertainment", "address": "VFP8+23F Brgy, Cabatuan, 5032 Iloilo", "contact_mobile": "9772147174", "contact_landline": null, "email": null, "barangay": "Bacan", "district": null, "municity": "Cabatuan", "province": "Iloilo", "facebook": "https://www.facebook.com/profile.php?id=100093096707052", "url": null, "entry_fee": null, "open_time": "06:00", "closing_time": "22:00" }, "geometry": { "type": "Point", "coordinates": [ 122.4651828, 10.88506922 ] } },
{ "type": "Feature", "properties": { "name": "Bialashonyou Nail Salon And Spa", "category": "Tourism", "type": "Wellness", "address": "VFP8+23F, Cabatuan, 5032 Iloilo", "contact_mobile": "9162941056", "contact_landline": null, "email": null, "barangay": "Bacan", "district": null, "municity": "Cabatuan", "province": "Iloilo", "facebook": "https://www.facebook.com/p/BiaLashonyou-NailSalon-61552100433834/", "url": null, "entry_fee": null, "open_time": "Open 24 Hours", "closing_time": "Open 24 Hours" }, "geometry": { "type": "Point", "coordinates": [ 122.465851, 10.88585123 ] } },
{ "type": "Feature", "properties": { "name": "Anyang’s Food and Beverage", "category": "Tourism", "type": "Leisure and Entertainment", "address": "Tigbauan Road, Cabatuan, Philippines", "contact_mobile": "0999 168 5970", "contact_landline": null, "email": "juancyril17@yahoo.com", "barangay": "Tigbauan Road", "district": null, "municity": "Cabatuan", "province": "Iloilo", "facebook": "https://www.facebook.com/AnyangsFoodBeverage/", "url": null, "entry_fee": null, "open_time": "11:30", "closing_time": "18:00" }, "geometry": { "type": "Point", "coordinates": [ 122.4881779, 10.9207407 ] } },
{ "type": "Feature", "properties": { "name": "Lola Celerinas's Cafe and Restaurant", "category": "Tourism", "type": "Leisure and Entertainment", "address": "Tigbauan Road, Cabatuan Iloilo, Cabatuan, Philippines", "contact_mobile": null, "contact_landline": null, "email": null, "barangay": "Tigbauan Road", "district": null, "municity": "Cabatuan", "province": "Iloilo", "facebook": "https://www.facebook.com/p/Lola-Celerinas-Cafe-Restaurant-100093051152028/", "url": null, "entry_fee": null, "open_time": "08:00", "closing_time": "20:00" }, "geometry": { "type": "Point", "coordinates": [ 122.4885798, 10.92144905 ] } },
{ "type": "Feature", "properties": { "name": "Tigbauan Road Elementary School", "category": "Tourism", "type": "Education", "address": "Tigbauan Road, Cabatuan, Iloilo, Cabatuan, Philippines", "contact_mobile": null, "contact_landline": null, "email": null, "barangay": "Tigbauan Road", "district": null, "municity": "Cabatuan", "province": "Iloilo", "facebook": "https://www.facebook.com/profile.php?id=100035336425723", "url": null, "entry_fee": null, "open_time": null, "closing_time": null }, "geometry": { "type": "Point", "coordinates": [ 122.4875615, 10.92261928 ] } }
]
}
