{
"type": "FeatureCollection",
"name": "TOURISM_GUIMARAS_TourismSpots_Insights",
"crs": { "type": "name", "properties": { "name": "urn:ogc:def:crs:OGC:1.3:CRS84" } },
"features": [
{ "type": "Feature", "properties": { "name": "Daliran Spring Nature Resort", "category": "Tourism", "type": "Leisure and Entertainment", "address": "MJGF+W58, Buenavista, Guimaras", "contact_mobile": null, "contact_landline": null, "email": null, "barangay": "Old Poblacion", "district": null, "municity": "Buenavista", "province": "Guimaras", "facebook": null, "url": null, "entry_fee": null, "open_time": null, "closing_time": null }, "geometry": { "type": "Point", "coordinates": [ 122.6229528, 10.67727715 ] } },
{ "type": "Feature", "properties": { "name": "Balaan Bukid Shrine", "category": "Tourism", "type": "Cultural", "address": "MH78+GGM, Balaang Bukid Shrine Trail, Jordan, Guimaras", "contact_mobile": null, "contact_landline": null, "email": null, "barangay": "Balcon Melliza", "district": null, "municity": "Jordan", "province": "Guimaras", "facebook": null, "url": null, "entry_fee": null, "open_time": "08:00", "closing_time": "17:00" }, "geometry": { "type": "Point", "coordinates": [ 122.5663369, 10.66384564 ] } },
{ "type": "Feature", "properties": { "name": "Smallest Plaza", "category": "Tourism", "type": "Nature", "address": "MH5R+3PR, Jordan-Hoskyn Rd, Poblacion, Jordan, 5045 Guimaras", "contact_mobile": null, "contact_landline": null, "email": null, "barangay": "Poblacion", "district": null, "municity": "Jordan", "province": "Guimaras", "facebook": null, "url": null, "entry_fee": null, "open_time": "Open 24 Hours", "closing_time": "Open 24 Hours" }, "geometry": { "type": "Point", "coordinates": [ 122.591759, 10.65773 ] } },
{ "type": "Feature", "properties": { "name": "Capitoguan Beach Guimaras", "category": "Tourism", "type": "Sun and Beach", "address": "JHR6+CW4, Jordan, Guimaras", "contact_mobile": null, "contact_landline": null, "email": null, "barangay": "Balcon Maravilla", "district": null, "municity": "Jordan", "province": "Guimaras", "facebook": null, "url": null, "entry_fee": null, "open_time": "Open 24 Hours", "closing_time": "Open 24 Hours" }, "geometry": { "type": "Point", "coordinates": [ 122.5623336, 10.64101521 ] } },
{ "type": "Feature", "properties": { "name": "Guisi Lighthouse", "category": "Tourism", "type": "Cultural", "address": "FFJF+GQG, Nueva Valencia, Guimaras", "contact_mobile": null, "contact_landline": null, "email": null, "barangay": "Dolores", "district": null, "municity": "Nueva Valencia", "province": "Guimaras", "facebook": null, "url": null, "entry_fee": null, "open_time": "08:00", "closing_time": "20:00" }, "geometry": { "type": "Point", "coordinates": [ 122.4744483, 10.48130931 ] } },
{ "type": "Feature", "properties": { "name": "Daliran Cave", "category": "Tourism", "type": "Nature", "address": "MJGF+H46, Buenavista, Guimaras", "contact_mobile": null, "contact_landline": null, "email": null, "barangay": "Old Poblacion", "district": null, "municity": "Buenavista", "province": "Guimaras", "facebook": null, "url": null, "entry_fee": null, "open_time": null, "closing_time": null }, "geometry": { "type": "Point", "coordinates": [ 122.6227703, 10.67641223 ] } },
{ "type": "Feature", "properties": { "name": "Balaan Bukid Lighthouse", "category": "Tourism", "type": "Cultural", "address": "MH89+7JC, Jordan, Guimaras", "contact_mobile": null, "contact_landline": null, "email": null, "barangay": "Hoskyn", "district": null, "municity": "Jordan", "province": "Guimaras", "facebook": null, "url": null, "entry_fee": null, "open_time": null, "closing_time": null }, "geometry": { "type": "Point", "coordinates": [ 122.5686814, 10.66614427 ] } },
{ "type": "Feature", "properties": { "name": "Guimaras Sign", "category": "Tourism", "type": "Cultural", "address": "MJG2+MP9, Jordan, Guimaras", "contact_mobile": null, "contact_landline": null, "email": null, "barangay": "Rizal", "district": null, "municity": "Jordan", "province": "Guimaras", "facebook": null, "url": null, "entry_fee": null, "open_time": null, "closing_time": null }, "geometry": { "type": "Point", "coordinates": [ 122.6018774, 10.67675823 ] } },
{ "type": "Feature", "properties": { "name": "Holy Family Hills", "category": "Tourism", "type": "Nature", "address": "JJGH+HWC, San Lorenzo, Guimaras", "contact_mobile": null, "contact_landline": null, "email": null, "barangay": "Tamborong", "district": null, "municity": "San Lorenzo", "province": "Guimaras", "facebook": null, "url": null, "entry_fee": null, "open_time": null, "closing_time": null }, "geometry": { "type": "Point", "coordinates": [ 122.6298398, 10.6266186 ] } },
{ "type": "Feature", "properties": { "name": "Dagsaan Eco Park", "category": "Tourism", "type": "Nature", "address": "PJ89+X42, Salvacion-Zaldivar Rd, Buenavista, Guimaras", "contact_mobile": null, "contact_landline": null, "email": null, "barangay": "Dagsa-an", "district": null, "municity": "Buenavista", "province": "Guimaras", "facebook": null, "url": null, "entry_fee": null, "open_time": null, "closing_time": null }, "geometry": { "type": "Point", "coordinates": [ 122.6178745, 10.71768066 ] } },
{ "type": "Feature", "properties": { "name": "Roca Encantada", "category": "Tourism", "type": "Cultural", "address": "PMVH+3PM Barangay, Buenavista, Guimaras", "contact_mobile": null, "contact_landline": null, "email": null, "barangay": "San Miguel", "district": null, "municity": "Buenavista", "province": "Guimaras", "facebook": "https://www.facebook.com/pages/Roca%20Encantada%20Navalas%20Buenavista%20Guimarss/291491417603231/", "url": null, "entry_fee": null, "open_time": null, "closing_time": null }, "geometry": { "type": "Point", "coordinates": [ 122.6798186, 10.74284938 ] } },
{ "type": "Feature", "properties": { "name": "Baras Cave", "category": "Tourism", "type": "Sun and Beach", "address": "HG2C+75Q, Jordan, Guimaras", "contact_mobile": null, "contact_landline": null, "email": null, "barangay": "Lawi", "district": null, "municity": "Jordan", "province": "Guimaras", "facebook": null, "url": null, "entry_fee": null, "open_time": null, "closing_time": null }, "geometry": { "type": "Point", "coordinates": [ 122.520875, 10.55082541 ] } },
{ "type": "Feature", "properties": { "name": "Man Made Forest", "category": "Tourism", "type": "Nature", "address": "JH8R+GVV, Jordan, Guimaras", "contact_mobile": null, "contact_landline": null, "email": null, "barangay": "Alaguisoc", "district": null, "municity": "Jordan", "province": "Guimaras", "facebook": null, "url": null, "entry_fee": null, "open_time": null, "closing_time": null }, "geometry": { "type": "Point", "coordinates": [ 122.5931189, 10.6164307 ] } },
{ "type": "Feature", "properties": { "name": "Capitoguan Cave", "category": "Tourism", "type": "Nature", "address": "JHR6+5JR, Unnamed Road, Jordan, Guimaras", "contact_mobile": null, "contact_landline": null, "email": null, "barangay": "Balcon Maravilla", "district": null, "municity": "Jordan", "province": "Guimaras", "facebook": null, "url": null, "entry_fee": null, "open_time": null, "closing_time": null }, "geometry": { "type": "Point", "coordinates": [ 122.562368, 10.6406586 ] } },
{ "type": "Feature", "properties": { "name": "San Lorenzo Wind Farm", "category": "Tourism", "type": "Nature", "address": "HMRR+6WJ, San Lorenzo, Guimaras", "contact_mobile": null, "contact_landline": null, "email": null, "barangay": "Cabano", "district": null, "municity": "San Lorenzo", "province": "Guimaras", "facebook": null, "url": null, "entry_fee": null, "open_time": "06:00", "closing_time": "21:30" }, "geometry": { "type": "Point", "coordinates": [ 122.6923071, 10.59089459 ] } },
{ "type": "Feature", "properties": { "name": "Singcalang Beach", "category": "Tourism", "type": "Sun and Beach", "address": "MH27+HXC, Jordan, Guimaras", "contact_mobile": null, "contact_landline": null, "email": null, "barangay": "Balcon Melliza", "district": null, "municity": "Jordan", "province": "Guimaras", "facebook": null, "url": null, "entry_fee": null, "open_time": null, "closing_time": null }, "geometry": { "type": "Point", "coordinates": [ 122.5649005, 10.65157452 ] } },
{ "type": "Feature", "properties": { "name": "Kilometer Zero (Guimaras)", "category": "Tourism", "type": "Nature", "address": "HHXQ+Q47, Guimaras Circumferential Rd, Jordan, Guimaras", "contact_mobile": null, "contact_landline": null, "email": null, "barangay": "San Miguel", "district": null, "municity": "Jordan", "province": "Guimaras", "facebook": null, "url": null, "entry_fee": null, "open_time": "Open 24 Hours", "closing_time": "Open 24 Hours" }, "geometry": { "type": "Point", "coordinates": [ 122.5881415, 10.59968286 ] } },
{ "type": "Feature", "properties": { "name": "Guimaras Isle Inland Beach Resort", "category": "Tourism", "type": "Sun and Beach", "address": "QM27+6X5, Buenavista, Guimaras", "contact_mobile": null, "contact_landline": null, "email": null, "barangay": "Getulio", "district": null, "municity": "Buenavista", "province": "Guimaras", "facebook": null, "url": null, "entry_fee": null, "open_time": null, "closing_time": null }, "geometry": { "type": "Point", "coordinates": [ 122.6654259, 10.75233219 ] } },
{ "type": "Feature", "properties": { "name": "Guimaras Garden Memorial Park", "category": "Tourism", "type": "Cultural", "address": "HHGG+QF5, Sibunag, Guimaras", "contact_mobile": "0969 190 1928", "contact_landline": null, "email": null, "barangay": "Ravina", "district": null, "municity": "Sibunag", "province": "Guimaras", "facebook": "https://www.facebook.com/profile.php?id=100064138235076", "url": null, "entry_fee": null, "open_time": "Open 24 Hours", "closing_time": "Open 24 Hours" }, "geometry": { "type": "Point", "coordinates": [ 122.57666, 10.57694542 ] } },
{ "type": "Feature", "properties": { "name": "Trappist Monastery (Our Lady of the Philippines Trappist Abbey)", "category": "Tourism", "type": "Cultural", "address": "HHJG+9V3, Jordan, Guimaras", "contact_mobile": "9184212852", "contact_landline": null, "email": null, "barangay": "San Miguel", "district": null, "municity": "Jordan", "province": "Guimaras", "facebook": "https://www.facebook.com/profile.php?id=61550703646607", "url": null, "entry_fee": null, "open_time": null, "closing_time": null }, "geometry": { "type": "Point", "coordinates": [ 122.5768638, 10.58161733 ] } },
{ "type": "Feature", "properties": { "name": "Natago Beach Resort", "category": "Tourism", "type": "Sun and Beach", "address": "HG67+PX3, Jordan, Guimaras", "contact_mobile": "9067333291", "contact_landline": null, "email": null, "barangay": "Sinapsapan", "district": null, "municity": "Jordan", "province": "Guimaras", "facebook": null, "url": null, "entry_fee": null, "open_time": null, "closing_time": null }, "geometry": { "type": "Point", "coordinates": [ 122.5150595, 10.56180629 ] } },
{ "type": "Feature", "properties": { "name": "Balabago Beach", "category": "Tourism", "type": "Sun and Beach", "address": "HM6X+85H, San Lorenzo, Guimaras", "contact_mobile": null, "contact_landline": null, "email": null, "barangay": "Cabano", "district": null, "municity": "San Lorenzo", "province": "Guimaras", "facebook": null, "url": null, "entry_fee": null, "open_time": null, "closing_time": null }, "geometry": { "type": "Point", "coordinates": [ 122.6984242, 10.56102593 ] } },
{ "type": "Feature", "properties": { "name": "Zemkamps Chalet", "category": "Tourism", "type": "Accommodation", "address": "New Site, San Miguel, Jordan, Guimaras, Philippines", "contact_mobile": "0919 808 9222", "contact_landline": null, "email": "hellozemkamps@gmail.com", "barangay": "San Miguel", "district": null, "municity": "Jordan", "province": "Guimaras", "facebook": "https://www.facebook.com/zemkampschalet", "url": null, "entry_fee": null, "open_time": "07:00", "closing_time": "18:00" }, "geometry": { "type": "Point", "coordinates": [ 122.588405, 10.602573 ] } },
{ "type": "Feature", "properties": { "name": "Valle Verde Mountain Resort ", "category": "Tourism", "type": "Accommodation", "address": "Ravina Norte, Sibunag, Guimaras, Western Visayas, Philippines, Iloilo City, Philippines", "contact_mobile": "0918 730 3446", "contact_landline": null, "email": "valleverde_mtresort@yahoo.com.ph", "barangay": "Buluangan", "district": null, "municity": "Jordan", "province": "Guimaras", "facebook": "https://www.facebook.com/valleverdemt.resortguimaras", "url": null, "entry_fee": null, "open_time": "Open 24 Hours", "closing_time": "Open 24 Hours" }, "geometry": { "type": "Point", "coordinates": [ 122.555636, 10.559415 ] } },
{ "type": "Feature", "properties": { "name": "Andana Resort Guimaras", "category": "Tourism", "type": "Sun and Beach", "address": "465 Sitio Talisay, Poblacion, Nueva Valencia, Guimaras, Nueva Valencia, Philippines", "contact_mobile": null, "contact_landline": null, "email": "andana.sales2023@gmail.com", "barangay": "Poblacion", "district": null, "municity": "Nueva Valencia", "province": "Guimaras", "facebook": "https://www.facebook.com/andanaresort", "url": null, "entry_fee": null, "open_time": "Open 24 Hours", "closing_time": "Open 24 Hours" }, "geometry": { "type": "Point", "coordinates": [ 122.525069, 10.531185 ] } },
{ "type": "Feature", "properties": { "name": "Avista Grande Beach Reseort", "category": "Tourism", "type": "Sun and Beach", "address": "Nueva Valencia, Nueva Valencia, Philippines", "contact_mobile": "0927 088 8077", "contact_landline": null, "email": "avistagrandeph@gmail.com", "barangay": "Poblacion", "district": null, "municity": "Nueva Valencia", "province": "Guimaras", "facebook": "https://www.facebook.com/profile.php?id=100083188127978", "url": null, "entry_fee": null, "open_time": null, "closing_time": null }, "geometry": { "type": "Point", "coordinates": [ 122.521467, 10.532214 ] } },
{ "type": "Feature", "properties": { "name": "Alobijod Cove Resort", "category": "Tourism", "type": "Sun and Beach", "address": "GGM8+GRC Alubihud Beach Drive, Nueva Valencia, 5046 Guimaras", "contact_mobile": "0995 368 6860", "contact_landline": "(033) 322 5762", "email": "alobijodcoveresort@gmail.com", "barangay": "Poblacion", "district": null, "municity": "Nueva Valencia", "province": "Guimaras", "facebook": "https://www.facebook.com/alobijodcove", "url": null, "entry_fee": null, "open_time": "Open 24 Hours", "closing_time": "Open 24 Hours" }, "geometry": { "type": "Point", "coordinates": [ 122.5170578, 10.53384004 ] } },
{ "type": "Feature", "properties": { "name": "Villa Igang Beach Resort ", "category": "Tourism", "type": "Sun and Beach", "address": "GGH6+PW3, Nueva Valencia, Guimaras", "contact_mobile": "0926 375 3634", "contact_landline": null, "email": "matr.corp@gmail.com", "barangay": "Poblacion", "district": null, "municity": "Nueva Valencia", "province": "Guimaras", "facebook": "https://www.facebook.com/villaigangbeachresort", "url": null, "entry_fee": null, "open_time": "Open 24 Hours", "closing_time": "Open 24 Hours" }, "geometry": { "type": "Point", "coordinates": [ 122.512282, 10.529259 ] } },
{ "type": "Feature", "properties": { "name": "Raymen Beach Resort", "category": "Tourism", "type": "Sun and Beach", "address": "Sitio Alubihod,Brgy. Poblacion,Nueva Valencia Guimaras, Nueva Valencia, Philippines", "contact_mobile": "0927 560 5107", "contact_landline": null, "email": "raymenbeachresort@yahoo.com", "barangay": "Poblacion", "district": null, "municity": "Nueva Valencia", "province": "Guimaras", "facebook": "https://www.facebook.com/raymenbeachresortcorp.guimaras", "url": null, "entry_fee": null, "open_time": "Open 24 Hours", "closing_time": "Open 24 Hours" }, "geometry": { "type": "Point", "coordinates": [ 122.517308, 10.533079 ] } },
{ "type": "Feature", "properties": { "name": "Holy Rosary Academy-Guimaras ", "category": "Tourism", "type": "Education", "address": "GH83+V9J, Concordia, Sibunag, Guimaras", "contact_mobile": "0919 885 5382", "contact_landline": null, "email": "holyrosaryacademyguimaras@gmail.com", "barangay": "Concordia Sur", "district": null, "municity": "Nueva Valencia", "province": "Guimaras", "facebook": "https://www.facebook.com/HRAG1995", "url": null, "entry_fee": null, "open_time": null, "closing_time": null }, "geometry": { "type": "Point", "coordinates": [ 122.553381, 10.51721907 ] } },
{ "type": "Feature", "properties": { "name": "Calaya National High School", "category": "Tourism", "type": "Education", "address": "FHGJ+6H3, Nueva Valencia, Guimaras", "contact_mobile": null, "contact_landline": null, "email": null, "barangay": "Calaya", "district": null, "municity": "Nueva Valencia", "province": "Guimaras", "facebook": null, "url": null, "entry_fee": null, "open_time": null, "closing_time": null }, "geometry": { "type": "Point", "coordinates": [ 122.5813044, 10.47560329 ] } },
{ "type": "Feature", "properties": { "name": "Sunrise Valley Oceanview Resort ", "category": "Tourism", "type": "Leisure and Entertainment", "address": "Sitio Tangaw,Cabano,San Lorenzo,Guimaras", "contact_mobile": "0917 106 9457", "contact_landline": null, "email": null, "barangay": "Cabano", "district": null, "municity": "San Lorenzo", "province": "Guimaras", "facebook": "https://www.facebook.com/SunriseValleyOceanviewResort", "url": null, "entry_fee": null, "open_time": "07:00", "closing_time": "21:00" }, "geometry": { "type": "Point", "coordinates": [ 122.665796, 10.566107 ] } },
{ "type": "Feature", "properties": { "name": "Guimaras State University - Baterna Campus", "category": "Tourism", "type": "Education", "address": "HMMC+CF8, San Lorenzo, 5046 Guimaras", "contact_mobile": null, "contact_landline": null, "email": null, "barangay": "Constancia", "district": null, "municity": "San Lorenzo", "province": "Guimaras", "facebook": "https://www.facebook.com/GuimarasStateUniversity", "url": "https://www.gsu.edu.ph/", "entry_fee": null, "open_time": "07:30", "closing_time": "17:00" }, "geometry": { "type": "Point", "coordinates": [ 122.6711881, 10.58353616 ] } },
{ "type": "Feature", "properties": { "name": "Hiraya Manawari", "category": "Tourism", "type": "Leisure and Entertainment", "address": "Ayacan, San Lorenzo, Guimaras", "contact_mobile": "0963 625 8143", "contact_landline": null, "email": null, "barangay": "Constancia", "district": null, "municity": "San Lorenzo", "province": "Guimaras", "facebook": null, "url": null, "entry_fee": null, "open_time": "07:00", "closing_time": "21:00" }, "geometry": { "type": "Point", "coordinates": [ 122.662358, 10.590645 ] } },
{ "type": "Feature", "properties": { "name": "Dr. Catalino Gallego Nava Memorial High School", "category": "Tourism", "type": "Education", "address": "HMR5+PX6, San Lorenzo, 5047 Guimaras", "contact_mobile": "0951 511 0690", "contact_landline": null, "email": "302437@deped.gov.ph", "barangay": "Constancia", "district": null, "municity": "San Lorenzo", "province": "Guimaras", "facebook": "https://www.facebook.com/drcgnmhs", "url": null, "entry_fee": null, "open_time": null, "closing_time": null }, "geometry": { "type": "Point", "coordinates": [ 122.6599939, 10.59198047 ] } },
{ "type": "Feature", "properties": { "name": "The Clara Beach and Guest House", "category": "Tourism", "type": "Sun and Beach", "address": "Sitio Baybay, Brgy. Igcawayan San Lorenzo", "contact_mobile": "0905 431 6251", "contact_landline": null, "email": "BenaFrancisRodriguez@gmail.com", "barangay": "Igcawayan", "district": null, "municity": "San Lorenzo", "province": "Guimaras", "facebook": "https://www.facebook.com/ClaraBeachGuimaras", "url": null, "entry_fee": null, "open_time": "Open 24 Hours", "closing_time": "Open 24 Hours" }, "geometry": { "type": "Point", "coordinates": [ 122.6928124, 10.54406055 ] } },
{ "type": "Feature", "properties": { "name": "MamBukay Beach Resort", "category": "Tourism", "type": "Sun and Beach", "address": "GMVV+F4 San Lorenzo, Igcawayan, 5046 Guimaras", "contact_mobile": "0917 366 7765", "contact_landline": null, "email": null, "barangay": "Igcawayan", "district": null, "municity": "San Lorenzo", "province": "Guimaras", "facebook": null, "url": "https://mambukay.wixsite.com/resort", "entry_fee": null, "open_time": null, "closing_time": null }, "geometry": { "type": "Point", "coordinates": [ 122.692779, 10.543696 ] } },
{ "type": "Feature", "properties": { "name": "Nature's Trail Camp & Resort ", "category": "Tourism", "type": "Nature", "address": "GM7H+FW3, Guimaras Circumferential Rd, Sibunag, Guimaras", "contact_mobile": "0906 837 5209", "contact_landline": null, "email": null, "barangay": "Sebaste", "district": null, "municity": "Sibunag", "province": "Guimaras", "facebook": "https://www.facebook.com/NaturesTrailCampAndResort", "url": null, "entry_fee": null, "open_time": "06:00", "closing_time": "22:00" }, "geometry": { "type": "Point", "coordinates": [ 122.679782, 10.513637 ] } },
{ "type": "Feature", "properties": { "name": "Lisa's Oceanside Restaurant ", "category": "Tourism", "type": "Leisure and Entertainment", "address": "GM9J+CH, Sibunag, Guimaras", "contact_mobile": "0917 106 2586", "contact_landline": null, "email": "lisasoceanside.info@gmail.com", "barangay": "Sebaste", "district": null, "municity": "Sibunag", "province": "Guimaras", "facebook": "https://www.facebook.com/profile.php?id=61558798252185&rdid=FWcnhr1Yk37bxcGW#", "url": null, "entry_fee": null, "open_time": "10:00", "closing_time": "21:00" }, "geometry": { "type": "Point", "coordinates": [ 122.681419, 10.518539 ] } },
{ "type": "Feature", "properties": { "name": "Bougainville Garden & Farm ", "category": "Tourism", "type": "Nature", "address": "Brgy. Bubog, Sibunag, Guimaras", "contact_mobile": "0945 255 4000", "contact_landline": null, "email": null, "barangay": "Bubog", "district": null, "municity": "Sibunag", "province": "Guimaras", "facebook": "https://www.facebook.com/profile.php?id=61559072008084", "url": null, "entry_fee": null, "open_time": "Open 24 Hours", "closing_time": "Open 24 Hours" }, "geometry": { "type": "Point", "coordinates": [ 122.664509, 10.49875 ] } },
{ "type": "Feature", "properties": { "name": "Iskapo Cafe", "category": "Tourism", "type": "Leisure and Entertainment", "address": "Guimaras Circumferential Rd, Brgy. Bubog, Sibunag, Guimaras", "contact_mobile": "0917 123 6335\n", "contact_landline": null, "email": null, "barangay": "Bubog", "district": null, "municity": "Sibunag", "province": "Guimaras", "facebook": "https://www.facebook.com/profile.php?id=100069714964783", "url": null, "entry_fee": null, "open_time": "08:00", "closing_time": "22:00" }, "geometry": { "type": "Point", "coordinates": [ 122.663956, 10.497318 ] } },
{ "type": "Feature", "properties": { "name": "Mila's Kamalig & Kampsite ", "category": "Tourism", "type": "Nature", "address": "Brgy. Sabang, Sibunag, Guimaras, Philippines, Iloilo City, Philippines", "contact_mobile": "0906 451 6068", "contact_landline": null, "email": "milas.kamalignkampsite@gmail.com", "barangay": "Sabang", "district": null, "municity": "Sibunag", "province": "Guimaras", "facebook": "http://facebook.com/profile.php?id=61575073449105#", "url": null, "entry_fee": null, "open_time": "07:00", "closing_time": "17:00" }, "geometry": { "type": "Point", "coordinates": [ 122.660694, 10.480534 ] } },
{ "type": "Feature", "properties": { "name": "Punta Punting Beach Resort", "category": "Tourism", "type": "Sun and Beach", "address": "Sibunag, 5045 Guimaras", "contact_mobile": "0966 394 3802", "contact_landline": null, "email": "Puntapuntingbeachresort@outlook.com", "barangay": "Sabang", "district": null, "municity": "Sibunag", "province": "Guimaras", "facebook": null, "url": null, "entry_fee": null, "open_time": "08:00", "closing_time": "17:00" }, "geometry": { "type": "Point", "coordinates": [ 122.6635272, 10.47709522 ] } },
{ "type": "Feature", "properties": { "name": "Sun Sea Resort", "category": "Tourism", "type": "Sun and Beach", "address": "Brgy. Canhawan , Nueva Valencia, Philippines", "contact_mobile": "0949 178 1358", "contact_landline": null, "email": "sunseaguimaras@gmail.com", "barangay": "Canhawan", "district": null, "municity": "Nueva Valencia", "province": "Guimaras", "facebook": "https://www.facebook.com/profile.php?id=100063880938889", "url": null, "entry_fee": null, "open_time": "Open 24 Hours", "closing_time": "Open 24 Hours" }, "geometry": { "type": "Point", "coordinates": [ 122.555425, 10.423049 ] } },
{ "type": "Feature", "properties": { "name": "Rumagangrang Beach Resort", "category": "Tourism", "type": "Sun and Beach", "address": "Brgy Cabalagnan, Nueva Valencia, Guimaras, Nueva Valencia, Philippines", "contact_mobile": "0968 734 7445", "contact_landline": null, "email": null, "barangay": "Cabalagnan", "district": null, "municity": "Nueva Valencia", "province": "Guimaras", "facebook": "https://www.facebook.com/rumagangrang", "url": null, "entry_fee": null, "open_time": "09:00", "closing_time": "17:00" }, "geometry": { "type": "Point", "coordinates": [ 122.5422766, 10.40880065 ] } },
{ "type": "Feature", "properties": { "name": "Puting Puti Vacation Rental", "category": "Tourism", "type": "Accommodation", "address": "Sitio Sumirib, Brgy. La Paz, Nueva Valencia, Guimaras", "contact_mobile": null, "contact_landline": null, "email": "putingputivacations@gmail.com", "barangay": "La Paz", "district": null, "municity": "Nueva Valencia", "province": "Guimaras", "facebook": "https://www.facebook.com/Putingputivacationrental/?_rdc=1&_rdr#", "url": null, "entry_fee": null, "open_time": "Open 24 Hours", "closing_time": "Open 24 Hours" }, "geometry": { "type": "Point", "coordinates": [ 122.522921, 10.406755 ] } },
{ "type": "Feature", "properties": { "name": "Taklong Island National Marine Reserve", "category": "Tourism", "type": "Nature", "address": "CG46+75J, Nueva Valencia, Guimaras", "contact_mobile": null, "contact_landline": null, "email": null, "barangay": "La Paz", "district": null, "municity": "Nueva Valencia", "province": "Guimaras", "facebook": "https://www.facebook.com/profile.php?id=100064806484010", "url": null, "entry_fee": null, "open_time": null, "closing_time": null }, "geometry": { "type": "Point", "coordinates": [ 122.510403, 10.405715 ] } },
{ "type": "Feature", "properties": { "name": "Sto Nino Beach Paradise Resort", "category": "Tourism", "type": "Sun and Beach", "address": "FG33+8MR, Nueva Valencia, Guimaras", "contact_mobile": "0921 738 4470", "contact_landline": null, "email": "kanobakod16@gmail.com", "barangay": "San Roque", "district": null, "municity": "Nueva Valencia", "province": "Guimaras", "facebook": "https://www.facebook.com/stoninoislandbeachresort/", "url": "www.santoninoresort.com", "entry_fee": null, "open_time": "Open 24 Hours", "closing_time": "Open 24 Hours" }, "geometry": { "type": "Point", "coordinates": [ 122.5041444, 10.45335296 ] } },
{ "type": "Feature", "properties": { "name": "La Puerta El Paraizo Resort", "category": "Tourism", "type": "Sun and Beach", "address": "San Roque, Nueva Valencia, Philippines", "contact_mobile": null, "contact_landline": null, "email": null, "barangay": "San Roque", "district": null, "municity": "Nueva Valencia", "province": "Guimaras", "facebook": "https://www.facebook.com/lapuertaresort", "url": null, "entry_fee": null, "open_time": null, "closing_time": null }, "geometry": { "type": "Point", "coordinates": [ 122.505661, 10.442859 ] } },
{ "type": "Feature", "properties": { "name": "La Roca Private Vacation Villa", "category": "Tourism", "type": "Accommodation", "address": "CGX5+Q22 Barangay, Sito Comian Sur, Nueva Valencia, 5046 Guimaras", "contact_mobile": "0953 155 6576", "contact_landline": null, "email": "larocaprivatevilla@gmail.com", "barangay": "San Roque", "district": null, "municity": "Nueva Valencia", "province": "Guimaras", "facebook": "https://www.facebook.com/profile.php?id=61560500494838", "url": null, "entry_fee": null, "open_time": "Open 24 Hours", "closing_time": "Open 24 Hours" }, "geometry": { "type": "Point", "coordinates": [ 122.505662, 10.442861 ] } },
{ "type": "Feature", "properties": { "name": "Nature's Eye Beach Resort", "category": "Tourism", "type": "Sun and Beach", "address": "Brgy. Tando, Nueva Valencia, Guimaras Island, Nueva Valencia, Philippines", "contact_mobile": "0907 484 7945", "contact_landline": null, "email": "natureseyebeachresort@gmail.com", "barangay": "Tando", "district": null, "municity": "Nueva Valencia", "province": "Guimaras", "facebook": "https://www.facebook.com/NaturesEyeBeachResort", "url": null, "entry_fee": null, "open_time": "11:00", "closing_time": "20:00" }, "geometry": { "type": "Point", "coordinates": [ 122.486645, 10.464913 ] } },
{ "type": "Feature", "properties": { "name": "Mamaley's Resort", "category": "Tourism", "type": "Sun and Beach", "address": "Brgy Tando, Nueva Valencia, Philippines", "contact_mobile": "0912 536 8612", "contact_landline": null, "email": "mamaleysresort@gmail.com", "barangay": "Tando", "district": null, "municity": "Nueva Valencia", "province": "Guimaras", "facebook": "https://www.facebook.com/MamaLeysResort", "url": null, "entry_fee": null, "open_time": "Open 24 Hours", "closing_time": "Open 24 Hours" }, "geometry": { "type": "Point", "coordinates": [ 122.4877533, 10.4676424 ] } }
]
}
