{
"type": "FeatureCollection",
"name": "TOURISM_SANTA_BARBARA_TourismSpots_Insights",
"crs": { "type": "name", "properties": { "name": "urn:ogc:def:crs:OGC:1.3:CRS84" } },
"features": [
{ "type": "Feature", "properties": { "name": "Balay sa Uma", "category": "Tourism", "type": "Accommodation", "address": "Brgy Lacadon Santa Barbara , Iloilo City, Philippines", "contact_mobile": null, "contact_landline": null, "email": null, "barangay": "Lacadon", "district": null, "municity": "Santa Barbara", "province": "Iloilo", "facebook": "https://www.facebook.com/profile.php?id=61558739194246", "url": null, "entry_fee": null, "open_time": "09:00", "closing_time": "17:00" }, "geometry": { "type": "Point", "coordinates": [ 122.534606, 10.855613 ] } },
{ "type": "Feature", "properties": { "name": "Hardin ni Nanay Café", "category": "Tourism", "type": "Leisure and Entertainment", "address": "Brgy. Duyanduyan, Sta. Barbara Iloilo, Iloilo City, Philippines", "contact_mobile": "0969 430 8126", "contact_landline": null, "email": "hardinninanaykapih@gmail.com", "barangay": "Duyanduyan", "district": null, "municity": "Santa Barbara", "province": "Iloilo", "facebook": "https://www.facebook.com/hardinninanaycafe?locale=tl_PH", "url": null, "entry_fee": null, "open_time": "10:00", "closing_time": "22:00" }, "geometry": { "type": "Point", "coordinates": [ 122.5266499, 10.83678157 ] } },
{ "type": "Feature", "properties": { "name": "Esplanag Inland Resort", "category": "Tourism", "type": "Leisure and Entertainment", "address": "Brgy. Lanag, Santa Barbara, Iloilo, Philippines", "contact_mobile": "0910 721 0887", "contact_landline": null, "email": null, "barangay": "Lanag", "district": null, "municity": "Santa Barbara", "province": "Iloilo", "facebook": "https://www.facebook.com/esplanag", "url": null, "entry_fee": null, "open_time": "08:00", "closing_time": "17:00" }, "geometry": { "type": "Point", "coordinates": [ 122.5490646, 10.83639332 ] } },
{ "type": "Feature", "properties": { "name": "Antays Inland Resort", "category": "Tourism", "type": "Leisure and Entertainment", "address": "RG6V+WV9, Santa Barbara, Iloilo", "contact_mobile": null, "contact_landline": "(033) 532 86 19", "email": null, "barangay": "Agutayan", "district": null, "municity": "Santa Barbara", "province": "Iloilo", "facebook": null, "url": null, "entry_fee": null, "open_time": null, "closing_time": null }, "geometry": { "type": "Point", "coordinates": [ 122.544735, 10.812277 ] } },
{ "type": "Feature", "properties": { "name": "Iloilo Golf and Country Club", "category": "Tourism", "type": "Leisure and Entertainment", "address": "\nBrgy. San Sebastian, Santa Barbara, Philippines", "contact_mobile": null, "contact_landline": "335239778", "email": "ilogolf1907@gmail.com", "barangay": "San Sebastian", "district": null, "municity": "Santa Barbara", "province": "Iloilo", "facebook": "https://www.facebook.com/iloilogolf/", "url": null, "entry_fee": null, "open_time": "Open 24 Hours", "closing_time": "Open 24 Hours" }, "geometry": { "type": "Point", "coordinates": [ 122.523626, 10.821569 ] } },
{ "type": "Feature", "properties": { "name": "Our Lady of the Smile Shrine", "category": "Tourism", "type": "Cultural", "address": "QGG4+W4W, Santa Barbara, Iloilo", "contact_mobile": null, "contact_landline": null, "email": null, "barangay": "Balabag", "district": null, "municity": "Santa Barbara", "province": "Iloilo", "facebook": null, "url": null, "entry_fee": null, "open_time": null, "closing_time": null }, "geometry": { "type": "Point", "coordinates": [ 122.5059598, 10.77755651 ] } },
{ "type": "Feature", "properties": { "name": "Our Lady of the Smile Shrine", "category": "Tourism", "type": "Cultural", "address": "QGG4+W4W, Santa Barbara, Iloilo", "contact_mobile": null, "contact_landline": null, "email": null, "barangay": "Balabag", "district": null, "municity": "Santa Barbara", "province": "Iloilo", "facebook": null, "url": "http://fsspx.com/EucharisticCrusade/2006_October/Our_Lady_of_the_Smile.htm", "entry_fee": null, "open_time": null, "closing_time": null }, "geometry": { "type": "Point", "coordinates": [ 122.5053345, 10.77734918 ] } },
{ "type": "Feature", "properties": { "name": "Camambugan Viewing Point/Camp Site", "category": "Tourism", "type": "Nature", "address": "RGR7+4VG, Cabatuan, Iloilo", "contact_mobile": null, "contact_landline": null, "email": null, "barangay": "Camambugan", "district": null, "municity": "Santa Barbara", "province": "Iloilo", "facebook": null, "url": null, "entry_fee": null, "open_time": "Open 24 Hours", "closing_time": "Open 24 Hours" }, "geometry": { "type": "Point", "coordinates": [ 122.5147086, 10.84031567 ] } },
{ "type": "Feature", "properties": { "name": "Kahilwayan Inn", "category": "Tourism", "type": "Accommodation", "address": "Rodriguez street brgy zone 2, Santa Barbara, Philippines", "contact_mobile": null, "contact_landline": "335237007", "email": "KAHILWAYAN_inn@gmail.com", "barangay": "Poblacion", "district": null, "municity": "Santa Barbara", "province": "Iloilo", "facebook": "https://www.facebook.com/kahilwayanofficial?locale=tl_PH", "url": null, "entry_fee": null, "open_time": "Open 24 Hours", "closing_time": "Open 24 Hours" }, "geometry": { "type": "Point", "coordinates": [ 122.5360722, 10.83184348 ] } },
{ "type": "Feature", "properties": { "name": "Batchoyan sa Ilawod", "category": "Tourism", "type": "Leisure and Entertainment", "address": "Libertad Street, Santa Barbara, Iloilo", "contact_mobile": "0915 743 8294", "contact_landline": null, "email": null, "barangay": "Poblacion", "district": null, "municity": "Santa Barbara", "province": "Iloilo", "facebook": null, "url": null, "entry_fee": null, "open_time": "08:00", "closing_time": "16:00" }, "geometry": { "type": "Point", "coordinates": [ 122.5406607, 10.81794289 ] } },
{ "type": "Feature", "properties": { "name": "World War 2 Memorial", "category": "Tourism", "type": "Cultural", "address": "Santa Barbara Victory Plaza, Santa Barbara, Iloilo", "contact_mobile": null, "contact_landline": null, "email": null, "barangay": "Poblacion", "district": null, "municity": "Santa Barbara", "province": "Iloilo", "facebook": null, "url": null, "entry_fee": null, "open_time": null, "closing_time": null }, "geometry": { "type": "Point", "coordinates": [ 122.5318885, 10.82673442 ] } },
{ "type": "Feature", "properties": { "name": "Santa Barbara Parish Church", "category": "Tourism", "type": "Cultural", "address": "RGHJ+3R9, Rizal St, Santa Barbara, Iloilo", "contact_mobile": "0917 112 9620", "contact_landline": "335237928", "email": null, "barangay": "Poblacion", "district": null, "municity": "Santa Barbara", "province": "Iloilo", "facebook": "https://www.facebook.com/SBParishChurch", "url": null, "entry_fee": null, "open_time": "05:00", "closing_time": "18:00" }, "geometry": { "type": "Point", "coordinates": [ 122.5328302, 10.82785991 ] } },
{ "type": "Feature", "properties": { "name": "SM Savemore Supermarket - Sta. Barbara, Iloilo", "category": "Tourism", "type": "Leisure and Entertainment", "address": "Roosevelt Street, Santa Barbara, 5002 Iloilo", "contact_mobile": null, "contact_landline": null, "email": null, "barangay": "Poblacion", "district": null, "municity": "Santa Barbara", "province": "Iloilo", "facebook": null, "url": "https://smmarkets.ph/", "entry_fee": null, "open_time": "08:00", "closing_time": "20:00" }, "geometry": { "type": "Point", "coordinates": [ 122.5318454, 10.82414718 ] } },
{ "type": "Feature", "properties": { "name": "La Dadoule Pizza & Coffee Bar", "category": "Tourism", "type": "Leisure and Entertainment", "address": "Roosevelt Street, Santa Barbara, Philippines", "contact_mobile": null, "contact_landline": "(033) 330 5487", "email": "myrna.gurada@gmail.com", "barangay": "Poblacion", "district": null, "municity": "Santa Barbara", "province": "Iloilo", "facebook": "https://www.facebook.com/profile.php?id=100064025862239&locale=tl_PH", "url": "ladadoule.com", "entry_fee": null, "open_time": "09:00", "closing_time": "21:00" }, "geometry": { "type": "Point", "coordinates": [ 122.5318958, 10.82589964 ] } },
{ "type": "Feature", "properties": { "name": "Sta. Barbara Victory Plaza", "category": "Tourism", "type": "Nature", "address": "Sta. Barbara Victory Plaza", "contact_mobile": null, "contact_landline": null, "email": null, "barangay": "Poblacion", "district": null, "municity": "Santa Barbara", "province": "Iloilo", "facebook": null, "url": null, "entry_fee": null, "open_time": "Open 24 Hours", "closing_time": "Open 24 Hours" }, "geometry": { "type": "Point", "coordinates": [ 122.532079, 10.826822 ] } },
{ "type": "Feature", "properties": { "name": "D’ Affordable Quarters", "category": "Tourism", "type": "Accommodation", "address": "112 Rizal St, Santa Barbara, 5002 Iloilo", "contact_mobile": "9275255739", "contact_landline": null, "email": null, "barangay": "Gen. Martin T. Delgado", "district": null, "municity": "Santa Barbara", "province": "Iloilo", "facebook": "https://www.facebook.com/profile.php?id=100085168987457&locale=tl_PH", "url": null, "entry_fee": null, "open_time": null, "closing_time": null }, "geometry": { "type": "Point", "coordinates": [ 122.5294423, 10.83268999 ] } }
]
}
