{
"type": "FeatureCollection",
"name": "TOURISM_PAVIA_TourismSpots_Insights",
"crs": { "type": "name", "properties": { "name": "urn:ogc:def:crs:OGC:1.3:CRS84" } },
"features": [
{ "type": "Feature", "properties": { "name": "Centro Verde Clubhouse", "category": "Tourism", "type": "Leisure and Entertainment", "address": "QG2G+9H7, Iloilo Circumferential Rd 1, Pavia, Iloilo", "contact_mobile": null, "contact_landline": null, "email": null, "barangay": "Pandac", "district": null, "municity": "Pavia", "province": "Iloilo", "facebook": null, "url": null, "entry_fee": null, "open_time": "08:00", "closing_time": "20:00" }, "geometry": { "type": "Point", "coordinates": [ 122.5264141, 10.75089883 ] } },
{ "type": "Feature", "properties": { "name": "Robinsons Place Pavia", "category": "Tourism", "type": "Leisure and Entertainment", "address": "2 Ungka I Barangay Rd, Pavia, Iloilo", "contact_mobile": null, "contact_landline": "333302362", "email": null, "barangay": "Ungka II", "district": null, "municity": "Pavia", "province": "Iloilo", "facebook": "https://www.facebook.com/RobinsonsPavia", "url": null, "entry_fee": null, "open_time": "09:00", "closing_time": "21:00" }, "geometry": { "type": "Point", "coordinates": [ 122.5404016, 10.75395257 ] } },
{ "type": "Feature", "properties": { "name": "GT Town Center Pavia", "category": "Tourism", "type": "Leisure and Entertainment", "address": "Sen. Benigno S. Aquino, Jr. Avenue Ungka II, Pavia, Iloilo City, Philippines", "contact_mobile": "0961 905 1905", "contact_landline": null, "email": "gttowncenter@ibcphil.com.ph", "barangay": "Ungka II", "district": null, "municity": "Pavia", "province": "Iloilo", "facebook": "https://www.facebook.com/GTMallPavia/", "url": null, "entry_fee": null, "open_time": "09:00", "closing_time": "20:00" }, "geometry": { "type": "Point", "coordinates": [ 122.5388388, 10.75384961 ] } },
{ "type": "Feature", "properties": { "name": "JECA M.J.C. Hotel & Events Center", "category": "Tourism", "type": "Accommodation", "address": "QG8P+XQ8, Iloilo R-3 Rd, Brgy. Aganan, Iloilo City, 5000 Iloilo", "contact_mobile": null, "contact_landline": "333295091", "email": null, "barangay": "Aganan", "district": null, "municity": "Pavia", "province": "Iloilo", "facebook": null, "url": null, "entry_fee": null, "open_time": null, "closing_time": null }, "geometry": { "type": "Point", "coordinates": [ 122.5369214, 10.76733575 ] } },
{ "type": "Feature", "properties": { "name": "Costan Cafe Brew", "category": "Tourism", "type": "Leisure and Entertainment", "address": "5th Felix Gorriceta Jr. Avenue, Pavia, 5000 Iloilo", "contact_mobile": "9673275906", "contact_landline": null, "email": null, "barangay": "Aganan", "district": null, "municity": "Pavia", "province": "Iloilo", "facebook": "https://www.facebook.com/profile.php?id=61565224544039", "url": null, "entry_fee": null, "open_time": "10:00", "closing_time": "19:00" }, "geometry": { "type": "Point", "coordinates": [ 122.5343499, 10.76759986 ] } },
{ "type": "Feature", "properties": { "name": "Jordeine's Linagaan", "category": "Tourism", "type": "Leisure and Entertainment", "address": "QG9M+5XH, Rd. 04, Aganan, Pavia, Iloilo City, 5001 Iloilo", "contact_mobile": "9095286760", "contact_landline": null, "email": null, "barangay": "Aganan", "district": null, "municity": "Pavia", "province": "Iloilo", "facebook": "https://www.facebook.com/finestlinagasince2015", "url": null, "entry_fee": null, "open_time": "07:00", "closing_time": "22:00" }, "geometry": { "type": "Point", "coordinates": [ 122.534979, 10.76792788 ] } },
{ "type": "Feature", "properties": { "name": "The White Lily Private Resort ", "category": "Tourism", "type": "Accommodation", "address": "Road 5 Don Julio Ave., Aganan, Pavia, Philippines", "contact_mobile": "0926 303 0772", "contact_landline": null, "email": "thewhitelilyresort@gmail.com", "barangay": "Aganan", "district": null, "municity": "Pavia", "province": "Iloilo", "facebook": "https://www.facebook.com/thewhitelilyprivateresort", "url": null, "entry_fee": null, "open_time": null, "closing_time": null }, "geometry": { "type": "Point", "coordinates": [ 122.53285, 10.76949 ] } },
{ "type": "Feature", "properties": { "name": "Providence Iloilo Village 3 Clubhouse", "category": "Tourism", "type": "Leisure and Entertainment", "address": "QG8G+9H, Pavia, 5001 Iloilo", "contact_mobile": "9385617863", "contact_landline": null, "email": null, "barangay": "Balabag", "district": null, "municity": "Pavia", "province": "Iloilo", "facebook": null, "url": null, "entry_fee": null, "open_time": null, "closing_time": null }, "geometry": { "type": "Point", "coordinates": [ 122.5264064, 10.76593051 ] } },
{ "type": "Feature", "properties": { "name": "Cocina Project Ribs & More", "category": "Tourism", "type": "Leisure and Entertainment", "address": "E. Lopez st. Corner San Vicente st. Jaro & Beside Balabag Pavia Elementary school , Iloilo City, Philippines", "contact_mobile": "0917 935 7711", "contact_landline": null, "email": "cocinaprojectph@gmail.com", "barangay": "Balabag", "district": null, "municity": "Pavia", "province": "Iloilo", "facebook": "https://www.facebook.com/cocinaprojectph/", "url": null, "entry_fee": null, "open_time": "09:00", "closing_time": "21:00" }, "geometry": { "type": "Point", "coordinates": [ 122.5172327, 10.7679782 ] } },
{ "type": "Feature", "properties": { "name": "Balabag Elementary School", "category": "Tourism", "type": "Leisure and Entertainment", "address": "QG99+73M, Pavia, Iloilo", "contact_mobile": null, "contact_landline": "333294877", "email": null, "barangay": "Balabag", "district": null, "municity": "Pavia", "province": "Iloilo", "facebook": null, "url": null, "entry_fee": null, "open_time": null, "closing_time": null }, "geometry": { "type": "Point", "coordinates": [ 122.5176679, 10.76821975 ] } },
{ "type": "Feature", "properties": { "name": "Sta Monica Parish Pavia (Pavia Catholic Church)", "category": "Tourism", "type": "Cultural", "address": "QGFR+XCQ, Corner Evangelista & Sumakwel Street, Pavia, 5001 Iloilo", "contact_mobile": "333292811", "contact_landline": null, "email": "paviacatholic1862@gmail.com", "barangay": "Tigum", "district": null, "municity": "Pavia", "province": "Iloilo", "facebook": "https://www.facebook.com/p/Pavia-Catholic-Church-100068240501681/", "url": null, "entry_fee": null, "open_time": "06:00", "closing_time": "18:00" }, "geometry": { "type": "Point", "coordinates": [ 122.5453319, 10.77660198 ] } },
{ "type": "Feature", "properties": { "name": "Bean Central Cafe", "category": "Tourism", "type": "Leisure and Entertainment", "address": "Pavia, 5001 Iloilo", "contact_mobile": "9278046387", "contact_landline": null, "email": null, "barangay": "Jibao-an", "district": null, "municity": "Pavia", "province": "Iloilo", "facebook": "https://www.facebook.com/p/Bean-Central-Cafe-61555341448766/", "url": null, "entry_fee": null, "open_time": "08:00", "closing_time": "20:00" }, "geometry": { "type": "Point", "coordinates": [ 122.5053999, 10.75434872 ] } },
{ "type": "Feature", "properties": { "name": "Puregold Pavia", "category": "Tourism", "type": "Leisure and Entertainment", "address": "QGFR+MWV, Lopez Jaena St, Pavia, Iloilo", "contact_mobile": null, "contact_landline": null, "email": null, "barangay": "Purok III (Pob.)", "district": null, "municity": "Pavia", "province": "Iloilo", "facebook": null, "url": "http://www.puregold.com.ph/", "entry_fee": null, "open_time": "08:00", "closing_time": "20:00" }, "geometry": { "type": "Point", "coordinates": [ 122.542227, 10.774335 ] } },
{ "type": "Feature", "properties": { "name": "Pavia Plaza", "category": "Tourism", "type": "Nature", "address": "Pavia, Iloilo", "contact_mobile": null, "contact_landline": null, "email": null, "barangay": "Purok III (Pob.)", "district": null, "municity": "Pavia", "province": "Iloilo", "facebook": null, "url": null, "entry_fee": null, "open_time": "Open 24 Hours", "closing_time": "Open 24 Hours" }, "geometry": { "type": "Point", "coordinates": [ 122.5416941, 10.77461037 ] } },
{ "type": "Feature", "properties": { "name": "Pavia Garden Center", "category": "Tourism", "type": "Nature", "address": "Brgy, Vice President Fernando Lopez Ave, Iloilo City, 5001 Iloilo", "contact_mobile": null, "contact_landline": null, "email": null, "barangay": "Mali-ao", "district": null, "municity": "Pavia", "province": "Iloilo", "facebook": null, "url": null, "entry_fee": null, "open_time": "08:00", "closing_time": "18:00" }, "geometry": { "type": "Point", "coordinates": [ 122.5363282, 10.77400305 ] } },
{ "type": "Feature", "properties": { "name": "Balai Wevisppac ", "category": "Tourism", "type": "Leisure and Entertainment", "address": "Barangay Mali-ao, Pavia, Pavia, Philippines", "contact_mobile": "0918 362 8151", "contact_landline": null, "email": null, "barangay": "Mali-ao", "district": null, "municity": "Pavia", "province": "Iloilo", "facebook": "https://www.facebook.com/profile.php?id=61576124848844", "url": null, "entry_fee": null, "open_time": "10:00", "closing_time": "20:00" }, "geometry": { "type": "Point", "coordinates": [ 122.53353, 10.77570633 ] } },
{ "type": "Feature", "properties": { "name": "Iloilo Gateway Hotel and Suites", "category": "Tourism", "type": "Accommodation", "address": "National Highway, Brgy. Mali-ao, Pavia, Philippines", "contact_mobile": "0999 886 8331", "contact_landline": null, "email": "info@iloilogatewayhotel.com", "barangay": "Mali-ao", "district": null, "municity": "Pavia", "province": "Iloilo", "facebook": "https://www.facebook.com/IloiloGatewayHotel", "url": "www.iloilogatewayhotel.com", "entry_fee": null, "open_time": null, "closing_time": null }, "geometry": { "type": "Point", "coordinates": [ 122.536185, 10.785848 ] } },
{ "type": "Feature", "properties": { "name": "Sta. Monica Parish - Pavia", "category": "Tourism", "type": "Cultural", "address": "QGFR+XCQ, Corner Evangelista & Sumakwel Street, Pavia, 5001 Iloilo", "contact_mobile": null, "contact_landline": "333292811", "email": null, "barangay": "Purok II (Pob.)", "district": null, "municity": "Pavia", "province": "Iloilo", "facebook": null, "url": null, "entry_fee": null, "open_time": null, "closing_time": " " }, "geometry": { "type": "Point", "coordinates": [ 122.5411551, 10.77488959 ] } }
]
}
