{
"type": "FeatureCollection",
"name": "TOURISM_ILOILO_TourismSpots_Insights",
"crs": { "type": "name", "properties": { "name": "urn:ogc:def:crs:OGC:1.3:CRS84" } },
"features": [
{ "type": "Feature", "properties": { "name": "Arroyo Fountain", "category": "Tourism", "type": "Cultural", "facebook": null, "address": "399-A Iznart St, Iloilo City Proper, Iloilo City, Iloilo", "contact_mobile": null, "contact_landline": null, "barangay": "President Roxas", "district": "City Proper", "municity": "Iloilo City", "province": "Iloilo", "email": null, "url": null, "entry_fee": null, "open_time": null, "closing_time": null }, "geometry": { "type": "Point", "coordinates": [ 122.5690851, 10.70173008 ] } },
{ "type": "Feature", "properties": { "name": "Casa Real de Iloilo", "category": "Tourism", "type": "Cultural", "facebook": "https://www.facebook.com/pages/Casa%20Real,%20Old%20Capitol,%20Province%20of%20Iloilo/133760540301433/", "address": "President Roxas, Iloilo City Proper, Iloilo City, Iloilo", "contact_mobile": null, "contact_landline": null, "barangay": "President Roxas", "district": "City Proper", "municity": "Iloilo City", "province": "Iloilo", "email": null, "url": "https://iloilo.gov.ph/en/gallery/casa-real-de-iloilo", "entry_fee": null, "open_time": "08:00", "closing_time": "18:00" }, "geometry": { "type": "Point", "coordinates": [ 122.5691562, 10.70190265 ] } },
{ "type": "Feature", "properties": { "name": "Casino Filipino Iloilo", "category": "Tourism", "type": "Leisure and Entertainment", "facebook": "https://www.facebook.com/profile.php?id=100057516817223", "address": "Solis St, Iloilo City Proper, Iloilo City, Iloilo", "contact_mobile": null, "contact_landline": null, "barangay": "Danao", "district": "City Proper", "municity": "Iloilo City", "province": "Iloilo", "email": null, "url": "https://www.casinofilipino.ph/iloilo/?fbclid=IwY2xjawKslfhleHRuA2FlbQIxMABicmlkETEzVHNXNjQyTFM5YUtZTGJNAR7O2fS3JOYEkwBykSRZxgdJh-A2TEiO5sur_UZWPXRz3cRZ5suHQ8Qd7vGt6A_aem_nGOAdOiKHCJqeadVHdRcGA", "entry_fee": null, "open_time": null, "closing_time": null }, "geometry": { "type": "Point", "coordinates": [ 122.5684362, 10.6987192 ] } },
{ "type": "Feature", "properties": { "name": "Deco's Lapaz Batchoy Robinsons Jaro", "category": "Tourism", "type": "Leisure and Entertainment", "facebook": "https://www.facebook.com/decos.lapaz.batchoy", "address": "LaSalette Building, Valeria St, Iloilo City Proper, Iloilo City, 5000 Iloilo", "contact_mobile": null, "contact_landline": "(033) 508 2121", "barangay": "Danao", "district": "City Proper", "municity": "Iloilo City", "province": "Iloilo", "email": "decoscommissary@gmail.com", "url": null, "entry_fee": null, "open_time": "09:00", "closing_time": "21:00" }, "geometry": { "type": "Point", "coordinates": [ 122.5678108, 10.70050582 ] } },
{ "type": "Feature", "properties": { "name": "Eusebio Villanueva House", "category": "Tourism", "type": "Cultural", "facebook": null, "address": "MHVC+Q67, JM Basa St, Iloilo City Proper, Iloilo City, 5000 Iloilo", "contact_mobile": null, "contact_landline": null, "barangay": "Nonoy", "district": "City Proper", "municity": "Iloilo City", "province": "Iloilo", "email": null, "url": null, "entry_fee": null, "open_time": null, "closing_time": null }, "geometry": { "type": "Point", "coordinates": [ 122.5705474, 10.69465877 ] } },
{ "type": "Feature", "properties": { "name": "Fort San Pedro", "category": "Tourism", "type": "Cultural", "facebook": null, "address": "Fort San Pedro Drive, City Proper, Iloilo City, Western Visayas, 5000, Philippines", "contact_mobile": "9062150474", "contact_landline": null, "barangay": "Veterans Village", "district": "City Proper", "municity": "Iloilo City", "province": "Iloilo", "email": null, "url": null, "entry_fee": null, "open_time": null, "closing_time": null }, "geometry": { "type": "Point", "coordinates": [ 122.5796795, 10.68833593 ] } },
{ "type": "Feature", "properties": { "name": "Iloilo and Western Visayas Regional Museum", "category": "Tourism", "type": "Cultural", "facebook": "https://www.facebook.com/nationalmuseum.iloilo#", "address": "Old Prison of Iloilo, Provincial Capitol Complex, Bonifacio Drive, Brgy. Danao, City Proper, Iloilo City, Philippines", "contact_mobile": null, "contact_landline": "(033) 327 3782", "barangay": "President Roxas", "district": "City Proper", "municity": "Iloilo City", "province": "Iloilo", "email": "iloilo@nationalmuseum.gov.ph", "url": "https://www.nationalmuseum.gov.ph/?fbclid=IwY2xjawKsq8RleHRuA2FlbQIxMABicmlkETFQUDRwOFhGRE1SN3N0NjkzAR4JJ71ag79WrlTOomsMnO2D5eW1tLwTM3rvesPKSKkdxKut_EYXXLfZQuC9oA_aem_ILgzQtaB90pNny2oqdErWw", "entry_fee": null, "open_time": "09:00", "closing_time": "16:00" }, "geometry": { "type": "Point", "coordinates": [ 122.5686312, 10.70329279 ] } },
{ "type": "Feature", "properties": { "name": "Iloilo Central Market", "category": "Tourism", "type": "Leisure and Entertainment", "facebook": null, "address": "Iloilo City Central Public Market, Aldeguer Street, Magsaysay, City Proper, Iloilo City, Western Visayas, 5000, Philippines", "contact_mobile": null, "contact_landline": null, "barangay": "Nonoy", "district": "City Proper", "municity": "Iloilo City", "province": "Iloilo", "email": null, "url": null, "entry_fee": null, "open_time": null, "closing_time": null }, "geometry": { "type": "Point", "coordinates": [ 122.569471, 10.692969 ] } },
{ "type": "Feature", "properties": { "name": "Iloilo City Hall", "category": "Tourism", "type": "MICE", "facebook": "https://www.facebook.com/iloilocitygov", "address": "De la Rama St, Iloilo City Proper, Iloilo City, 5000 Iloilo", "contact_mobile": null, "contact_landline": "333331111", "barangay": "Muelle Loney-Montes", "district": "City Proper", "municity": "Iloilo City", "province": "Iloilo", "email": "infoiloilocity@gmail.com", "url": "http://www.iloilocity.gov.ph/", "entry_fee": null, "open_time": "08:00", "closing_time": "17:00" }, "geometry": { "type": "Point", "coordinates": [ 122.5731268, 10.6932728 ] } },
{ "type": "Feature", "properties": { "name": "Iloilo Customs House (Museum of Philippine Maritime History)", "category": "Tourism", "type": "Cultural", "facebook": "https://www.facebook.com/nhcpmpmhofficial", "address": "District, Aduana Building, Iloilo River Wharf, The Philippines, Muelle Loney St, Iloilo City Proper, Iloilo City, 5000 Metro Iloilo", "contact_mobile": null, "contact_landline": "(033) 330 6270", "barangay": "Arsenal Aduana", "district": "City Proper", "municity": "Iloilo City", "province": "Iloilo", "email": "mpmh@nhcp.gov.ph", "url": null, "entry_fee": null, "open_time": "09:00", "closing_time": "16:00" }, "geometry": { "type": "Point", "coordinates": [ 122.5719872, 10.69497002 ] } },
{ "type": "Feature", "properties": { "name": "Iloilo Provincial Capitol Grounds", "category": "Tourism", "type": "MICE", "facebook": "https://www.facebook.com/pages/Iloilo%20Provincial%20Capitol/141271165941623/", "address": "PH39+2MJ, New Iloilo Provincial Capitol Building, Muelle Loney St, Iloilo City Proper, Iloilo City, 5000 Iloilo", "contact_mobile": null, "contact_landline": "335095093", "barangay": "President Roxas", "district": "City Proper", "municity": "Iloilo City", "province": "Iloilo", "email": "inquiries@iloilo.gov.ph", "url": "https://iloilo.gov.ph/en/governor", "entry_fee": null, "open_time": "08:00", "closing_time": "17:00" }, "geometry": { "type": "Point", "coordinates": [ 122.5691734, 10.70276485 ] } },
{ "type": "Feature", "properties": { "name": "Jalandoni Flyover", "category": "Tourism", "type": null, "facebook": null, "address": "Jalandoni Flyover, Aurora Subdivision, City Proper, Bolilao, Iloilo City, Western Visayas, 5000, Philippines", "contact_mobile": null, "contact_landline": null, "barangay": "San Agustin", "district": "City Proper", "municity": "Iloilo City", "province": "Iloilo", "email": null, "url": null, "entry_fee": null, "open_time": null, "closing_time": null }, "geometry": { "type": "Point", "coordinates": [ 122.5614337, 10.70067741 ] } },
{ "type": "Feature", "properties": { "name": "Museo Iloilo", "category": "Tourism", "type": "Cultural", "facebook": "https://www.facebook.com/profile.php?id=100064925880593", "address": "Iloilo Provincial Capitol Complex, Bonifacio Drive, Barangay President Roxas, Iloilo City Proper, Iloilo City, Philippines, 5000 5000 Iloilo City, Philippines", "contact_mobile": null, "contact_landline": "333372986;  (033) 315 4035", "barangay": "President Roxas", "district": "City Proper", "municity": "Iloilo City", "province": "Iloilo", "email": "museoiloiloicrfiofficial@gmail.com", "url": null, "entry_fee": null, "open_time": "09:00", "closing_time": "17:00" }, "geometry": { "type": "Point", "coordinates": [ 122.5686251, 10.70291842 ] } },
{ "type": "Feature", "properties": { "name": "Museum of Philippine Economic History", "category": "Tourism", "type": "Cultural", "facebook": "https://www.facebook.com/mpehofficial", "address": "Edificio Ynchausti Y Compañia, Ortiz Street corner J.M.Basa Street 5000 Iloilo City, Philippines", "contact_mobile": "0910 657 9737", "contact_landline": "333275335", "barangay": "Muelle Loney-Montes", "district": "City Proper", "municity": "Iloilo City", "province": "Iloilo", "email": "mpeh@nhcp.gov.ph", "url": null, "entry_fee": null, "open_time": "09:00", "closing_time": "16:00" }, "geometry": { "type": "Point", "coordinates": [ 122.5725035, 10.6932868 ] } },
{ "type": "Feature", "properties": { "name": "Plaza Libertad", "category": "Tourism", "type": "Cultural", "facebook": null, "address": "Plaza Libertad Zamora St, Iloilo City Proper, Iloilo City, 5000 Iloilo", "contact_mobile": null, "contact_landline": "775888", "barangay": "Zamora-Melliza", "district": "City Proper", "municity": "Iloilo City", "province": "Iloilo", "email": null, "url": "http://iloilocity.gov.ph/", "entry_fee": null, "open_time": null, "closing_time": null }, "geometry": { "type": "Point", "coordinates": [ 122.5737389, 10.69264597 ] } },
{ "type": "Feature", "properties": { "name": "Roberto's Iloilo", "category": "Tourism", "type": "Leisure and Entertainment", "facebook": null, "address": "61 JM Basa St, Iloilo City Proper, Iloilo City, Iloilo", "contact_mobile": null, "contact_landline": "333350484", "barangay": "Maria Clara", "district": "City Proper", "municity": "Iloilo City", "province": "Iloilo", "email": null, "url": null, "entry_fee": null, "open_time": "08:00", "closing_time": "17:30" }, "geometry": { "type": "Point", "coordinates": [ 122.5712589, 10.6937536 ] } },
{ "type": "Feature", "properties": { "name": "Robinsons Iloilo", "category": "Tourism", "type": "Leisure and Entertainment", "facebook": "https://www.facebook.com/RobIloilo", "address": "Corner De Leon, Quezon St, Iloilo City", "contact_mobile": null, "contact_landline": "333363852", "barangay": "Roxas Village", "district": "City Proper", "municity": "Iloilo City", "province": "Iloilo", "email": null, "url": "https://robinsonsmalls.com/mall-info/robinsons-place-iloilo", "entry_fee": null, "open_time": "09:00", "closing_time": "21:00" }, "geometry": { "type": "Point", "coordinates": [ 122.5662289, 10.69421971 ] } },
{ "type": "Feature", "properties": { "name": "San Jose De Placer Church", "category": "Tourism", "type": "Cultural", "facebook": "https://www.facebook.com/SanJoseparishplacer/", "address": "5000 Calasanz St, Iloilo City Proper, Iloilo City, Iloilo", "contact_mobile": null, "contact_landline": "(033) 336 4802", "barangay": "Zamora-Melliza", "district": "City Proper", "municity": "Iloilo City", "province": "Iloilo", "email": "sanjoseparishplacer@gmail.com", "url": "https://sanjosedeiloilo.info-aid.net/?fbclid=IwY2xjawKszqJleHRuA2FlbQIxMABicmlkETFleVZ5VlI4MFI3WEc5dGdyAR7hBgr2wpJDZ_Swv5WU2-sBrfXoQ91Z1ySRSma0OH4wIRqOJkql541hh9Xy7A_aem_RdXhFKqMk1nnwjpHMCzBeA", "entry_fee": null, "open_time": null, "closing_time": null }, "geometry": { "type": "Point", "coordinates": [ 122.5743325, 10.69304115 ] } },
{ "type": "Feature", "properties": { "name": "Sunburst Park", "category": "Tourism", "type": "Nature", "facebook": null, "address": "MHVC+FP8, JM Basa St, Iloilo City Proper, Iloilo City, 5000 Iloilo", "contact_mobile": null, "contact_landline": null, "barangay": "Arsenal Aduana", "district": "City Proper", "municity": "Iloilo City", "province": "Iloilo", "email": null, "url": null, "entry_fee": null, "open_time": null, "closing_time": null }, "geometry": { "type": "Point", "coordinates": [ 122.5718549, 10.69375999 ] } },
{ "type": "Feature", "properties": { "name": "University of the Philippines Visayas Main Building and Oblation Park", "category": "Tourism", "type": "Education", "facebook": null, "address": "MHX4+549, Iloilo City Proper, Iloilo City, Iloilo", "contact_mobile": null, "contact_landline": null, "barangay": "Inday", "district": "City Proper", "municity": "Iloilo City", "province": "Iloilo", "email": null, "url": null, "entry_fee": null, "open_time": null, "closing_time": null }, "geometry": { "type": "Point", "coordinates": [ 122.5553644, 10.69791809 ] } },
{ "type": "Feature", "properties": { "name": "Temple of Goddess Mother", "category": "Tourism", "type": "Cultural", "facebook": null, "address": "Chinese Temple, Iloilo City Proper, Iloilo City, Iloilo", "contact_mobile": null, "contact_landline": null, "barangay": "Jalandoni-Wilson", "district": "City Proper", "municity": "Iloilo City", "province": "Iloilo", "email": null, "url": null, "entry_fee": null, "open_time": null, "closing_time": null }, "geometry": { "type": "Point", "coordinates": [ 122.5603804, 10.69405624 ] } },
{ "type": "Feature", "properties": { "name": "Fort San Pedro", "category": "Tourism", "type": "Cultural", "facebook": null, "address": "MHQH+6VW, Fort San Pedro Dr, Iloilo City Proper, Iloilo City, Iloilo", "contact_mobile": "9062150474", "contact_landline": null, "barangay": "Veterans Village", "district": "City Proper", "municity": "Iloilo City", "province": "Iloilo", "email": null, "url": null, "entry_fee": null, "open_time": null, "closing_time": null }, "geometry": { "type": "Point", "coordinates": [ 122.579819, 10.68838864 ] } },
{ "type": "Feature", "properties": { "name": "Iloilo New Freedom Grandstand", "category": "Tourism", "type": "Leisure and Entertainment", "facebook": null, "address": "MHVF+J7C, Iloilo City Proper, Iloilo City, Iloilo", "contact_mobile": null, "contact_landline": null, "barangay": "Muelle Loney-Montes", "district": "City Proper", "municity": "Iloilo City", "province": "Iloilo", "email": null, "url": null, "entry_fee": null, "open_time": null, "closing_time": null }, "geometry": { "type": "Point", "coordinates": [ 122.5732385, 10.69423107 ] } },
{ "type": "Feature", "properties": { "name": "Beige Eatery", "category": "Tourism", "type": "Leisure and Entertainment", "facebook": "https://www.facebook.com/beigetalaba", "address": "Brgy.General Hughes, Iloilo City, Philippines", "contact_mobile": "0960 856 8271", "contact_landline": null, "barangay": "General Hughes-Montes", "district": "City Proper", "municity": "Iloilo City", "province": "Iloilo", "email": null, "url": null, "entry_fee": null, "open_time": "09:00", "closing_time": "22:00" }, "geometry": { "type": "Point", "coordinates": [ 122.5777935, 10.68889153 ] } },
{ "type": "Feature", "properties": { "name": "UPV Museum of Art and Cultural Heritage", "category": "Tourism", "type": "Cultural", "facebook": "https://www.facebook.com/profile.php?id=100067898149019", "address": "Delgado St., Iloilo City, Philippines", "contact_mobile": null, "contact_landline": "(033) 315 8556", "barangay": "Inday", "district": "City Proper", "municity": "Iloilo City", "province": "Iloilo", "email": "oica.upvisayas@up.edu.ph", "url": null, "entry_fee": null, "open_time": "08:30", "closing_time": "16:00" }, "geometry": { "type": "Point", "coordinates": [ 122.555325, 10.697809 ] } },
{ "type": "Feature", "properties": { "name": "River Queen Hotel", "category": "Tourism", "type": "Leisure and Entertainment", "facebook": "https://www.facebook.com/riverqueenhotel.iloilo/", "address": "PH39+V47, Bonifacio Dr, Iloilo City Proper, Iloilo City, 5000 Iloilo", "contact_mobile": null, "contact_landline": "333376667", "barangay": "Danao", "district": "City Proper", "municity": "Iloilo City", "province": "Iloilo", "email": null, "url": null, "entry_fee": null, "open_time": null, "closing_time": null }, "geometry": { "type": "Point", "coordinates": [ 122.5677954, 10.70466877 ] } },
{ "type": "Feature", "properties": { "name": "The Castle Hotel", "category": "Tourism", "type": "Leisure and Entertainment", "facebook": null, "address": "PH39+J4Q, Iloilo City Proper, Iloilo City, Iloilo", "contact_mobile": "9564187859", "contact_landline": null, "barangay": "Danao", "district": "City Proper", "municity": "Iloilo City", "province": "Iloilo", "email": null, "url": null, "entry_fee": null, "open_time": null, "closing_time": null }, "geometry": { "type": "Point", "coordinates": [ 122.5675875, 10.7039986 ] } },
{ "type": "Feature", "properties": { "name": "Zerenity Massage and Spa - Iloilo", "category": "Tourism", "type": "Wellness", "facebook": "https://www.facebook.com/profile.php?id=61562774888731", "address": "Castle Chateau Bonifacio Dr., Iloilo City, Philippines", "contact_mobile": "0926 015 1777", "contact_landline": null, "barangay": "Danao", "district": "City Proper", "municity": "Iloilo City", "province": "Iloilo", "email": null, "url": null, "entry_fee": null, "open_time": "14:00", "closing_time": "00:00" }, "geometry": { "type": "Point", "coordinates": [ 122.5673356, 10.70402199 ] } },
{ "type": "Feature", "properties": { "name": "Balay Remedios Iloilo", "category": "Tourism", "type": "Leisure and Entertainment", "facebook": "https://www.facebook.com/BalayRemedios", "address": "183 Bonifacio Dr, Iloilo City Proper, Iloilo City, , Iloilo City, Philippines", "contact_mobile": "0956 930 0028", "contact_landline": null, "barangay": "Danao", "district": "City Proper", "municity": "Iloilo City", "province": "Iloilo", "email": "balayremediosiloilo@gmail.com", "url": null, "entry_fee": null, "open_time": "11:00", "closing_time": "09:00" }, "geometry": { "type": "Point", "coordinates": [ 122.5677638, 10.70359924 ] } },
{ "type": "Feature", "properties": { "name": "St. Paul University Iloilo", "category": "Tourism", "type": "Education", "facebook": "https://www.facebook.com/spuiloilo", "address": "PH28+PXR, General Luna St, Iloilo City Proper, Iloilo City, Iloilo", "contact_mobile": null, "contact_landline": "333369289", "barangay": "Danao", "district": "City Proper", "municity": "Iloilo City", "province": "Iloilo", "email": null, "url": "http://spuiloilo.edu.ph/", "entry_fee": null, "open_time": "08:00", "closing_time": "05:00" }, "geometry": { "type": "Point", "coordinates": [ 122.5674026, 10.70185063 ] } },
{ "type": "Feature", "properties": { "name": "Days Hotel by Wyndham Iloilo", "category": "Tourism", "type": "Accommodation", "facebook": "https://www.facebook.com/daysiloilo", "address": "The Atrium at the Capitol, Corner Gen. Luna- Bonifacio Drive, Iloilo City, Philippines", "contact_mobile": null, "contact_landline": "333373297", "barangay": "Danao", "district": "City Proper", "municity": "Iloilo City", "province": "Iloilo", "email": null, "url": "https://www.wyndhamhotels.com/days-inn/iloilo-city-philippines/days-hotel-iloilo/overview?CID=LC:iqv0j1dklijly45:10433&iata=00093796", "entry_fee": null, "open_time": null, "closing_time": null }, "geometry": { "type": "Point", "coordinates": [ 122.5679751, 10.70138174 ] } },
{ "type": "Feature", "properties": { "name": "The Galleria Iloilo", "category": "Tourism", "type": "Leisure and Entertainment", "facebook": "https://www.facebook.com/profile.php?id=100063949486483", "address": "The Galleria Iloilo", "contact_mobile": "9228855724", "contact_landline": null, "barangay": "Danao", "district": "City Proper", "municity": "Iloilo City", "province": "Iloilo", "email": null, "url": null, "entry_fee": null, "open_time": "06:30", "closing_time": "20:30" }, "geometry": { "type": "Point", "coordinates": [ 122.5678411, 10.69983173 ] } },
{ "type": "Feature", "properties": { "name": "SM Delgado", "category": "Tourism", "type": "Leisure and Entertainment", "facebook": "https://www.facebook.com/SMDelgadoOfficial", "address": "Valeria St, Iloilo City Proper, Iloilo City, Iloilo", "contact_mobile": null, "contact_landline": "333380561", "barangay": "Danao", "district": "City Proper", "municity": "Iloilo City", "province": "Iloilo", "email": null, "url": "https://www.smsupermalls.com/", "entry_fee": null, "open_time": "09:00", "closing_time": "20:00" }, "geometry": { "type": "Point", "coordinates": [ 122.5671641, 10.69857474 ] } },
{ "type": "Feature", "properties": { "name": "Citadines Amigo Iloilo ", "category": "Tourism", "type": "Accommodation", "facebook": "https://www.facebook.com/citadinesamigo", "address": "Iznart St, Iloilo City Proper, Iloilo City, 5000 Iloilo", "contact_mobile": null, "contact_landline": "333303838", "barangay": "Danao", "district": "City Proper", "municity": "Iloilo City", "province": "Iloilo", "email": null, "url": "https://www.discoverasr.com/en/citadines/philippines/citadines-amigo-iloilo?utm_source=google&utm_medium=maps&utm_campaign=hq-google-maps-alwayson--all-en-ph-ph-citadinesamigoiloilo--gbp&--&cid=map::gg::hq:ind:::all:en:ph:ph:citadinesamigoiloilo:0:gbp:0:::", "entry_fee": null, "open_time": "Open 24 Hours", "closing_time": "Open 24 Hours" }, "geometry": { "type": "Point", "coordinates": [ 122.5688704, 10.69807815 ] } },
{ "type": "Feature", "properties": { "name": "Deco's Original La Paz Batchoy-", "category": "Tourism", "type": "Leisure and Entertainment", "facebook": "https://www.facebook.com/thefirstlapabatchoy", "address": "LaSalette Building, Valeria St, Iloilo City Proper, Iloilo City, 5000 Iloilo", "contact_mobile": null, "contact_landline": "333327424", "barangay": "Danao", "district": "City Proper", "municity": "Iloilo City", "province": "Iloilo", "email": "decosbatchoy@gmail.com", "url": null, "entry_fee": null, "open_time": "09:00", "closing_time": "19:00" }, "geometry": { "type": "Point", "coordinates": [ 122.5678641, 10.69847809 ] } },
{ "type": "Feature", "properties": { "name": "Century 21 Hotel - Iloilo", "category": "Tourism", "type": "Accommodation", "facebook": "https://www.facebook.com/profile.php?id=100068181079239", "address": "PH28+5F7, Quezon St, Iloilo City Proper, Iloilo City, Iloilo", "contact_mobile": null, "contact_landline": "(033) 335 8821", "barangay": "Sampaguita", "district": "City Proper", "municity": "Iloilo City", "province": "Iloilo", "email": null, "url": "ann2.net/hotels/century21", "entry_fee": null, "open_time": "Open 24 Hours", "closing_time": "Open 24 Hours" }, "geometry": { "type": "Point", "coordinates": [ 122.5661229, 10.70041036 ] } },
{ "type": "Feature", "properties": { "name": "Madison Hotel", "category": "Tourism", "type": "Accommodation", "facebook": "https://www.facebook.com/madisonhotelphl/?locale=tl_PH", "address": "Delgado, Iloilo City, Philippines", "contact_mobile": null, "contact_landline": "(033) 335 3788", "barangay": "Edganzon", "district": "City Proper", "municity": "Iloilo City", "province": "Iloilo", "email": "sales.mhp@thegrandhotels.com.ph", "url": null, "entry_fee": null, "open_time": "Open 24 Hours", "closing_time": "Open 24 Hours" }, "geometry": { "type": "Point", "coordinates": [ 122.5654033, 10.69763473 ] } },
{ "type": "Feature", "properties": { "name": "Archbishop of Jaro Residence & Chancery ", "category": "Tourism", "type": "Cultural", "facebook": "https://www.facebook.com/Jarosoccom", "address": "Archbishop’s Residence, Jaro, P.O. Box 209, 5000 Iloilo City", "contact_mobile": null, "contact_landline": "(033) 329-4442; 329-4252", "barangay": "Libertad, Santa Isabel", "district": "Jaro", "municity": "Iloilo City", "province": "Iloilo", "email": "abpofcjaro@gmail.com", "url": "https://www.rcajaro.com/", "entry_fee": null, "open_time": "08:00", "closing_time": "17:30" }, "geometry": { "type": "Point", "coordinates": [ 122.5562354, 10.72467856 ] } },
{ "type": "Feature", "properties": { "name": "Balantang National Shrine", "category": "Tourism", "type": "Cultural", "facebook": "https://www.facebook.com/BMCNS.PVAO/", "address": "Balantang Memorial Cemetery National Shrine, Quintin Salas, Jaro, Quintin Salas, Iloilo City, Western Visayas, 5000, Philippines", "contact_mobile": "9083494455", "contact_landline": null, "barangay": "Quintin Salas", "district": "Jaro", "municity": "Iloilo City", "province": "Iloilo", "email": "   balantangshrine.vmhd@pvao.gov.ph", "url": "https://pvao.gov.ph/military-shrines/balantang-memorial-cemetery-national-shrine/", "entry_fee": null, "open_time": null, "closing_time": null }, "geometry": { "type": "Point", "coordinates": [ 122.563812, 10.741954 ] } },
{ "type": "Feature", "properties": { "name": "Biscocho Haus", "category": "Tourism", "type": "Leisure and Entertainment", "facebook": "https://www.facebook.com/OriginalBiscochoHaus", "address": "8 Lopez Jaena Street, Jaro, Iloilo City", "contact_mobile": "09177991078; 09515772314", "contact_landline": "(033) 329 0864", "barangay": "Democracia", "district": "Jaro", "municity": "Iloilo City", "province": "Iloilo", "email": "admin@biscochohaus.com", "url": "https://biscochohaus.com/", "entry_fee": null, "open_time": "06:00", "closing_time": "19:00" }, "geometry": { "type": "Point", "coordinates": [ 122.5566879, 10.72632618 ] } },
{ "type": "Feature", "properties": { "name": "Casa Gamboa", "category": "Tourism", "type": "Cultural", "facebook": "https://www.facebook.com/tinukibcafeandsouvenirs", "address": "PHC6+V34, Casa Gamboa Cor, Commission Civil Street, M. Jayme St, Jaro, Iloilo City, Iloilo", "contact_mobile": null, "contact_landline": "333275144", "barangay": "Benedicto (Jaro)", "district": "Jaro", "municity": "Iloilo City", "province": "Iloilo", "email": "tinukib@gmail.com", "url": "https://visitiloilocity.com/landmarks/casa-gamboa/", "entry_fee": "100-200", "open_time": "09:00", "closing_time": "18:00" }, "geometry": { "type": "Point", "coordinates": [ 122.5602355, 10.72234538 ] } },
{ "type": "Feature", "properties": { "name": "Casa Mariquit", "category": "Tourism", "type": "Cultural", "facebook": "https://www.facebook.com/pages/Casa%20Mariquit%20Iloilo/436259813124617/", "address": "Santa Isabel St, Jaro, Iloilo City, 5000 Iloilo", "contact_mobile": "9161308410", "contact_landline": null, "barangay": "Democracia", "district": "Jaro", "municity": "Iloilo City", "province": "Iloilo", "email": null, "url": null, "entry_fee": "50", "open_time": "08:00", "closing_time": "17:00" }, "geometry": { "type": "Point", "coordinates": [ 122.5566806, 10.72696653 ] } },
{ "type": "Feature", "properties": { "name": "Central Philippine University", "category": "Tourism", "type": "Education", "facebook": "https://www.facebook.com/CentralPhilippineUniversity.CPU", "address": "Lopez Jaena Street, Mirasol Subdivision, Sambag, Jaro, Arguelles, Iloilo City, Western Visayas, 5000, Philippines", "contact_mobile": null, "contact_landline": "(033) 329 1971", "barangay": "Dungon A", "district": "Jaro", "municity": "Iloilo City", "province": "Iloilo", "email": "socialmedia@cpu.edu.ph", "url": "https://cpu.edu.ph/?fbclid=IwY2xjawKsls9leHRuA2FlbQIxMABicmlkETEzVHNXNjQyTFM5YUtZTGJNAR7O2fS3JOYEkwBykSRZxgdJh-A2TEiO5sur_UZWPXRz3cRZ5suHQ8Qd7vGt6A_aem_nGOAdOiKHCJqeadVHdRcGA", "entry_fee": null, "open_time": "08:00", "closing_time": "17:00" }, "geometry": { "type": "Point", "coordinates": [ 122.549314, 10.730639 ] } },
{ "type": "Feature", "properties": { "name": "Deocampo's Barquillos", "category": "Tourism", "type": "Leisure and Entertainment", "facebook": "https://www.facebook.com/pages/Original-Deocampo-Barquillos/113081085447043", "address": "46 Santa Isabel St, Jaro, Iloilo City, 5000 Iloilo", "contact_mobile": "9189429252", "contact_landline": "333235202; (033) 320 3445; (033)323-5202", "barangay": "Fajardo", "district": "Jaro", "municity": "Iloilo City", "province": "Iloilo", "email": null, "url": null, "entry_fee": null, "open_time": "07:00", "closing_time": "18:00" }, "geometry": { "type": "Point", "coordinates": [ 122.5545449, 10.72494185 ] } },
{ "type": "Feature", "properties": { "name": "Feast of Our Lady of Candles (Jaro Metropolitan Cathedral)", "category": "Tourism", "type": "Cultural", "facebook": "https://www.facebook.com/JaroCandelaria", "address": "PHF4+GH3, Jaro, Iloilo City, 5000 Iloilo", "contact_mobile": null, "contact_landline": "333291625", "barangay": "Seminario (Burgos Jalandoni)", "district": "Jaro", "municity": "Iloilo City", "province": "Iloilo", "email": "jarometropolitancathedral@gmail.com", "url": null, "entry_fee": null, "open_time": "08:00", "closing_time": "17:30" }, "geometry": { "type": "Point", "coordinates": [ 122.5564244, 10.72394803 ] } },
{ "type": "Feature", "properties": { "name": "Gallerie de Arsie (Musée d' Arsie)", "category": "Tourism", "type": "Cultural", "facebook": "https://www.facebook.com/MuseedArsie/", "address": "Metro Iloilo Modern Arts Park Building (MIMA), Beside San Agustin Church,  North Diversion Road, Sambag,, Jaro, Philippines, 5000", "contact_mobile": null, "contact_landline": null, "barangay": "Sambag", "district": "Jaro", "municity": "Iloilo City", "province": "Iloilo", "email": null, "url": null, "entry_fee": null, "open_time": "09:00", "closing_time": "18:00" }, "geometry": { "type": "Point", "coordinates": [ 122.5379207, 10.73851269 ] } },
{ "type": "Feature", "properties": { "name": "Graciano Lopez Jaena Shrine (Park)", "category": "Tourism", "type": "Cultural", "facebook": null, "address": "PHF4+VRJ, Jaro, Iloilo City, Iloilo", "contact_mobile": null, "contact_landline": null, "barangay": "Benedicto (Jaro)", "district": "Jaro", "municity": "Iloilo City", "province": "Iloilo", "email": null, "url": null, "entry_fee": null, "open_time": null, "closing_time": null }, "geometry": { "type": "Point", "coordinates": [ 122.5570097, 10.72475353 ] } },
{ "type": "Feature", "properties": { "name": "Jaro Belfry", "category": "Tourism", "type": null, "facebook": null, "address": "Jaro Belfry, Plaza Rizal Street, Remon Ville, Desamparados, Jaro, Calubihan, Iloilo City, Western Visayas, 5000, Philippines", "contact_mobile": null, "contact_landline": null, "barangay": "Benedicto (Jaro)", "district": "Jaro", "municity": "Iloilo City", "province": "Iloilo", "email": null, "url": null, "entry_fee": null, "open_time": null, "closing_time": null }, "geometry": { "type": "Point", "coordinates": [ 122.5567704, 10.72425434 ] } },
{ "type": "Feature", "properties": { "name": "Jaro Evangelical Church", "category": "Tourism", "type": "Cultural", "facebook": "https://www.facebook.com/JECIloilo", "address": "Plaza Rizal Street, Don Francisco Village, Desamparados, Jaro, Calubihan, Iloilo City, Western Visayas, 5000, Philippines", "contact_mobile": null, "contact_landline": "(033) 329 3242", "barangay": "Luna (Jaro)", "district": "Jaro", "municity": "Iloilo City", "province": "Iloilo", "email": null, "url": "jaroevangelicalchurch.org", "entry_fee": null, "open_time": "09:00", "closing_time": "17:00" }, "geometry": { "type": "Point", "coordinates": [ 122.5579898, 10.72325751 ] } },
{ "type": "Feature", "properties": { "name": "Lake Victoria", "category": "Tourism", "type": "Nature", "facebook": null, "address": "Tacas, Jaro, Iloilo City, Western Visayas, 5000, Philippines", "contact_mobile": null, "contact_landline": null, "barangay": "Tacas", "district": "Jaro", "municity": "Iloilo City", "province": "Iloilo", "email": null, "url": null, "entry_fee": null, "open_time": null, "closing_time": null }, "geometry": { "type": "Point", "coordinates": [ 122.5438803, 10.75725384 ] } },
{ "type": "Feature", "properties": { "name": "Lanit Ati Community", "category": "Tourism", "type": "Cultural", "facebook": null, "address": "QHC7+5H2, Jaro, Pavia, Iloilo", "contact_mobile": null, "contact_landline": null, "barangay": "Lanit", "district": "Jaro", "municity": "Iloilo City", "province": "Iloilo", "email": null, "url": null, "entry_fee": null, "open_time": null, "closing_time": null }, "geometry": { "type": "Point", "coordinates": [ 122.5638711, 10.77043524 ] } },
{ "type": "Feature", "properties": { "name": "Lizares Mansion", "category": "Tourism", "type": "Cultural", "facebook": null, "address": "Angelicum School R4, Jaro, Iloilo City, 5000 Iloilo", "contact_mobile": null, "contact_landline": null, "barangay": "Tabuc Suba (Jaro)", "district": "Jaro", "municity": "Iloilo City", "province": "Iloilo", "email": null, "url": null, "entry_fee": null, "open_time": null, "closing_time": null }, "geometry": { "type": "Point", "coordinates": [ 122.5586783, 10.73206005 ] } },
{ "type": "Feature", "properties": { "name": "Metro Iloilo Modern Arts Park", "category": "Tourism", "type": "Leisure and Entertainment", "facebook": "https://www.facebook.com/metroiloilomodernarts", "address": "Diversion Road, Sambag Jaro, 5000 Iloilo City, Philippines", "contact_mobile": "0995 562 6807", "contact_landline": null, "barangay": "Sambag", "district": "Jaro", "municity": "Iloilo City", "province": "Iloilo", "email": null, "url": null, "entry_fee": null, "open_time": null, "closing_time": null }, "geometry": { "type": "Point", "coordinates": [ 122.5378965, 10.73850241 ] } },
{ "type": "Feature", "properties": { "name": "Nelly Garden Mansion", "category": "Tourism", "type": "Cultural", "facebook": "https://www.facebook.com/nellygardeniloilo/", "address": "E. Lopez St., Brgy. Our Lady of Fatima 5000 Jaro, Philippines", "contact_mobile": "0949 818 2923", "contact_landline": "333203075", "barangay": "Our Lady Of Fatima", "district": "Jaro", "municity": "Iloilo City", "province": "Iloilo", "email": "nellygarden.events@gmail.com", "url": null, "entry_fee": null, "open_time": "09:00", "closing_time": "17:00" }, "geometry": { "type": "Point", "coordinates": [ 122.5622159, 10.718864 ] } },
{ "type": "Feature", "properties": { "name": "Robinson Jaro", "category": "Tourism", "type": "Leisure and Entertainment", "facebook": "https://www.facebook.com/RobJaroOfficial", "address": "PHC5+965, E Lopez St, Jaro, Iloilo City, Iloilo", "contact_mobile": null, "contact_landline": "333202640", "barangay": "San Vicente", "district": "Jaro", "municity": "Iloilo City", "province": "Iloilo", "email": null, "url": null, "entry_fee": null, "open_time": "10:00", "closing_time": "21:00" }, "geometry": { "type": "Point", "coordinates": [ 122.5581462, 10.72104565 ] } },
{ "type": "Feature", "properties": { "name": "Sanson-Montinola Ancestral-Antillean House", "category": "Tourism", "type": "Cultural", "facebook": null, "address": "PH96+X5H, Jaro, Iloilo City, Iloilo", "contact_mobile": null, "contact_landline": null, "barangay": "San Vicente", "district": "Jaro", "municity": "Iloilo City", "province": "Iloilo", "email": null, "url": null, "entry_fee": null, "open_time": null, "closing_time": null }, "geometry": { "type": "Point", "coordinates": [ 122.558915, 10.72032723 ] } },
{ "type": "Feature", "properties": { "name": "St. Vincent Ferrer Seminary", "category": "Tourism", "type": "Cultural", "facebook": "https://www.facebook.com/profile.php?id=100054410023631", "address": "Jaro Cathedral Seminario St, Jaro, Iloilo City, 5000 Iloilo", "contact_mobile": null, "contact_landline": "333291647", "barangay": "Seminario (Burgos Jalandoni)", "district": "Jaro", "municity": "Iloilo City", "province": "Iloilo", "email": "svfs1869@yahoo.com", "url": "https://svfs.tripod.com/", "entry_fee": null, "open_time": null, "closing_time": null }, "geometry": { "type": "Point", "coordinates": [ 122.557252, 10.72213022 ] } },
{ "type": "Feature", "properties": { "name": "Waterworld Iloilo", "category": "Tourism", "type": "Leisure and Entertainment", "facebook": "https://www.facebook.com/waterworldiloiloph", "address": "Datu Sumakwel St., Alta Tierra Village, 5000 Iloilo City, Philippines", "contact_mobile": "0956 034 2087", "contact_landline": "333292288", "barangay": "Cubay", "district": "Jaro", "municity": "Iloilo City", "province": "Iloilo", "email": null, "url": "https://waterworldiloilo.helixpay.ph/", "entry_fee": null, "open_time": "09:00", "closing_time": "17:00" }, "geometry": { "type": "Point", "coordinates": [ 122.5653696, 10.73471797 ] } },
{ "type": "Feature", "properties": { "name": "Byron’s Backribs Grille", "category": "Tourism", "type": "Leisure and Entertainment", "facebook": "https://www.facebook.com/byronsbackribspavia", "address": "QG3Q+9XX, Sen. Benigno S. Aquino Jr. Avenue, Pavia, Iloilo", "contact_mobile": "0961 527 6389", "contact_landline": null, "barangay": "Tacas", "district": "Jaro", "municity": "Iloilo City", "province": "Iloilo", "email": "byronsbackribspavia@yahoo.com", "url": null, "entry_fee": null, "open_time": "10:00", "closing_time": "20:00" }, "geometry": { "type": "Point", "coordinates": [ 122.5525417, 10.75509485 ] } },
{ "type": "Feature", "properties": { "name": "City Nest", "category": "Tourism", "type": "Accommodation", "facebook": null, "address": "Waling-Waling Street, Jaro, Iloilo City, Iloilo", "contact_mobile": "9673400926", "contact_landline": null, "barangay": "Dungon B", "district": "Jaro", "municity": "Iloilo City", "province": "Iloilo", "email": null, "url": null, "entry_fee": null, "open_time": null, "closing_time": null }, "geometry": { "type": "Point", "coordinates": [ 122.5429314, 10.73212849 ] } },
{ "type": "Feature", "properties": { "name": "Eon Centennial Resort Hotel & Waterpark", "category": "Tourism", "type": "Accommodation", "facebook": "https://www.facebook.com/eoncentennialresorthotelandwaterpark", "address": "Datu Sumakwel St., Alta Tierra Village, Quintin Salas Jaro, Iloilo City, Philippines", "contact_mobile": "0956 034 2087", "contact_landline": null, "barangay": "Cubay", "district": "Jaro", "municity": "Iloilo City", "province": "Iloilo", "email": "stay.resorts@eongroup.com.ph", "url": null, "entry_fee": null, "open_time": "Open 24 Hours", "closing_time": "Open 24 Hours" }, "geometry": { "type": "Point", "coordinates": [ 122.5651079, 10.73488824 ] } },
{ "type": "Feature", "properties": { "name": "GT Hotel Jaro ", "category": "Tourism", "type": "Accommodation", "facebook": "https://www.facebook.com/GThotelJaro", "address": "MacArthur Drive Tabuc Suba, Iloilo City, Philippines", "contact_mobile": null, "contact_landline": "(033) 323 3083", "barangay": "Tabuc Suba (Jaro)", "district": "Jaro", "municity": "Iloilo City", "province": "Iloilo", "email": "gthotel.jaro@gmail.com", "url": null, "entry_fee": null, "open_time": null, "closing_time": null }, "geometry": { "type": "Point", "coordinates": [ 122.559996, 10.733205 ] } },
{ "type": "Feature", "properties": { "name": "Philippine Science High School Western Visayas Campus", "category": "Tourism", "type": "Education", "facebook": "https://www.facebook.com/pshswvc", "address": "QH3Q+F53, Metropolis Ave, Barangay Bito-on, Jaro, Iloilo City, 5000 Iloilo", "contact_mobile": null, "contact_landline": "333292011", "barangay": "Bito-on", "district": "Jaro", "municity": "Iloilo City", "province": "Iloilo", "email": "iloilo@wvc.pshs.edu.ph", "url": "http://wvc.pshs.edu.ph/", "entry_fee": null, "open_time": "08:00", "closing_time": "17:00" }, "geometry": { "type": "Point", "coordinates": [ 122.5879719, 10.75360068 ] } },
{ "type": "Feature", "properties": { "name": "Payag sa Baybay Seafood and Grill", "category": "Tourism", "type": "Leisure and Entertainment", "facebook": "https://www.facebook.com/payagsabaybay", "address": "Bito-on, Jaro, Iloilo City, Iloilo", "contact_mobile": "9317138118", "contact_landline": null, "barangay": "Bito-on", "district": "Jaro", "municity": "Iloilo City", "province": "Iloilo", "email": null, "url": null, "entry_fee": null, "open_time": "09:00", "closing_time": "21:00" }, "geometry": { "type": "Point", "coordinates": [ 122.5941115, 10.75954219 ] } },
{ "type": "Feature", "properties": { "name": "Paluto Seafood Grill & Restaurant", "category": "Tourism", "type": "Leisure and Entertainment", "facebook": "https://www.facebook.com/palutophilippines", "address": "Coastal Road, Jaro, Iloilo City, 5000 Iloilo", "contact_mobile": "9278477110", "contact_landline": null, "barangay": "Bito-on", "district": "Jaro", "municity": "Iloilo City", "province": "Iloilo", "email": null, "url": null, "entry_fee": null, "open_time": "09:00", "closing_time": "22:00" }, "geometry": { "type": "Point", "coordinates": [ 122.5934717, 10.75962699 ] } },
{ "type": "Feature", "properties": { "name": "Ondoy's Sugbahan ", "category": "Tourism", "type": "Leisure and Entertainment", "facebook": "https://www.facebook.com/ondoyssugbahaniloilo", "address": "QH5V+QF4, Jaro, Iloilo City, Iloilo", "contact_mobile": "9985627501", "contact_landline": null, "barangay": "Bito-on", "district": "Jaro", "municity": "Iloilo City", "province": "Iloilo", "email": null, "url": null, "entry_fee": null, "open_time": "06:00", "closing_time": "22:00" }, "geometry": { "type": "Point", "coordinates": [ 122.5936986, 10.7593368 ] } },
{ "type": "Feature", "properties": { "name": "Costa del Estrella Food Park", "category": "Tourism", "type": "Leisure and Entertainment", "facebook": "https://www.facebook.com/photo/?fbid=551718921118540&set=a.109795911977512", "address": "Coastal Road Vll, Brgy Bitoon, Iloilo City, Philippines", "contact_mobile": "0933 946 0477", "contact_landline": null, "barangay": "Bito-on", "district": "Jaro", "municity": "Iloilo City", "province": "Iloilo", "email": "elisepavilion@gmail.com", "url": null, "entry_fee": null, "open_time": "Open 24 Hours", "closing_time": "Open 24 Hours" }, "geometry": { "type": "Point", "coordinates": [ 122.5935756, 10.75917608 ] } },
{ "type": "Feature", "properties": { "name": "Dayneto Seafood Grill & Restaurant", "category": "Tourism", "type": "Leisure and Entertainment", "facebook": "https://www.facebook.com/Daynetos", "address": "Costa del Estrella Food Park,Coastal Rd., Zone VII, Brgy. Bitoon, Jaro, Iloilo City, Philippines", "contact_mobile": "0951 559 0832", "contact_landline": null, "barangay": "Bito-on", "district": "Jaro", "municity": "Iloilo City", "province": "Iloilo", "email": "daynetosgrill@gmail.com", "url": null, "entry_fee": null, "open_time": "11:00", "closing_time": "20:00" }, "geometry": { "type": "Point", "coordinates": [ 122.5934241, 10.75897102 ] } },
{ "type": "Feature", "properties": { "name": "Samrio Food Hauz & Catering Services ", "category": "Tourism", "type": "Leisure and Entertainment", "facebook": "https://www.facebook.com/profile.php?id=100054259130672", "address": "Costa del Estrella, Brgy. Bito-on, Jaro, Iloilo City, Philippines", "contact_mobile": "0909 009 5647", "contact_landline": null, "barangay": "Bito-on", "district": "Jaro", "municity": "Iloilo City", "province": "Iloilo", "email": null, "url": null, "entry_fee": null, "open_time": "10:00", "closing_time": "21:00" }, "geometry": { "type": "Point", "coordinates": [ 122.5936837, 10.75899416 ] } },
{ "type": "Feature", "properties": { "name": "Elynna’s Cafe", "category": "Tourism", "type": "Leisure and Entertainment", "facebook": "https://www.facebook.com/ElynnasCafe", "address": "Coastal Road, Jaro, Leganes, Iloilo, Iloilo City, Philippines", "contact_mobile": "0917 806 4872", "contact_landline": null, "barangay": "Bito-on", "district": "Jaro", "municity": "Iloilo City", "province": "Iloilo", "email": null, "url": null, "entry_fee": null, "open_time": "06:00", "closing_time": "21:00" }, "geometry": { "type": "Point", "coordinates": [ 122.5938154, 10.75860587 ] } },
{ "type": "Feature", "properties": { "name": "Bugoy's Seafood Resto", "category": "Tourism", "type": "Leisure and Entertainment", "facebook": "https://www.facebook.com/p/Bugoys-Seafood-Restaurant-61569189862576/", "address": "Brgy. Bito-on, Jaro, Iloilo City, Philippines", "contact_mobile": "0961 204 1072", "contact_landline": null, "barangay": "Bito-on", "district": "Jaro", "municity": "Iloilo City", "province": "Iloilo", "email": "bugoys.seafood@gmail.com", "url": null, "entry_fee": null, "open_time": "10:00", "closing_time": "21:00" }, "geometry": { "type": "Point", "coordinates": [ 122.5934091, 10.75771042 ] } },
{ "type": "Feature", "properties": { "name": "Buljack Seafood- 2nd Branch", "category": "Tourism", "type": "Leisure and Entertainment", "facebook": null, "address": "QH4V+Q56, Jaro, Iloilo City, Iloilo", "contact_mobile": null, "contact_landline": null, "barangay": "Bito-on", "district": "Jaro", "municity": "Iloilo City", "province": "Iloilo", "email": null, "url": null, "entry_fee": null, "open_time": "09:00", "closing_time": "21:00" }, "geometry": { "type": "Point", "coordinates": [ 122.5928785, 10.75691317 ] } },
{ "type": "Feature", "properties": { "name": "Igma Seafood Restaurant", "category": "Tourism", "type": "Leisure and Entertainment", "facebook": "https://www.facebook.com/profile.php?id=61564055347382", "address": "Brgy. Bito-on, Jaro, Iloilo City, Philippines", "contact_mobile": "0917 624 7712", "contact_landline": null, "barangay": "Bito-on", "district": "Jaro", "municity": "Iloilo City", "province": "Iloilo", "email": null, "url": null, "entry_fee": null, "open_time": "07:30", "closing_time": "21:00" }, "geometry": { "type": "Point", "coordinates": [ 122.5925464, 10.75638584 ] } },
{ "type": "Feature", "properties": { "name": "Bebot and Mila Talabahan ", "category": "Tourism", "type": "Leisure and Entertainment", "facebook": "https://www.facebook.com/BAMtalabahan", "address": "Zone 6, 6 Richmond St, Jaro, Iloilo City, Iloilo", "contact_mobile": "9432850822", "contact_landline": null, "barangay": "Bito-on", "district": "Jaro", "municity": "Iloilo City", "province": "Iloilo", "email": null, "url": null, "entry_fee": null, "open_time": "09:00", "closing_time": "21:00" }, "geometry": { "type": "Point", "coordinates": [ 122.5927446, 10.75668836 ] } },
{ "type": "Feature", "properties": { "name": "Ker & Co Bldg", "category": "Tourism", "type": "Cultural", "facebook": null, "address": "MHVF+C57, Iloilo City Proper, Iloilo City, Iloilo", "contact_mobile": null, "contact_landline": null, "barangay": "Progreso-Lapuz", "district": "Lapuz", "municity": "Iloilo City", "province": "Iloilo", "email": null, "url": null, "entry_fee": null, "open_time": null, "closing_time": null }, "geometry": { "type": "Point", "coordinates": [ 122.573773, 10.69641025 ] } },
{ "type": "Feature", "properties": { "name": "Aria’s Burger and Coffee", "category": "Tourism", "type": "Leisure and Entertainment", "facebook": "https://www.facebook.com/profile.php?id=61571309425490", "address": "PH4Q+GHP Loboc, Lapuz, Iloilo City, Iloilo", "contact_mobile": "0931 019 2359", "contact_landline": null, "barangay": "Loboc-Lapuz", "district": "Lapuz", "municity": "Iloilo City", "province": "Iloilo", "email": "ariasburgercoffee.2025@gmail.com", "url": null, "entry_fee": null, "open_time": "10:00", "closing_time": "18:00" }, "geometry": { "type": "Point", "coordinates": [ 122.588955, 10.706328 ] } },
{ "type": "Feature", "properties": { "name": "Digz Batchoy", "category": "Tourism", "type": "Leisure and Entertainment", "facebook": "https://www.facebook.com/profile.php?id=100065513109104", "address": "198 railway, lapuz norte, Iloilo City, Philippines", "contact_mobile": "0951 704 8167", "contact_landline": null, "barangay": "Lapuz Norte", "district": "Lapuz", "municity": "Iloilo City", "province": "Iloilo", "email": null, "url": null, "entry_fee": null, "open_time": "08:00", "closing_time": "19:00" }, "geometry": { "type": "Point", "coordinates": [ 122.580605, 10.70028367 ] } },
{ "type": "Feature", "properties": { "name": "Kap Ising Pancit Molo", "category": "Tourism", "type": "Leisure and Entertainment", "facebook": "https://www.facebook.com/kappancitmolo", "address": "Barangay South San Jose Molo, Iloilo City Philippines", "contact_mobile": "9176767604; 09206758794", "contact_landline": null, "barangay": "South San Jose", "district": "Molo", "municity": "Iloilo City", "province": "Iloilo", "email": "kapisingatria@gmail.com", "url": "https://pancitmolo.com/", "entry_fee": null, "open_time": "08:00", "closing_time": "18:00" }, "geometry": { "type": "Point", "coordinates": [ 122.5382592, 10.69557425 ] } },
{ "type": "Feature", "properties": { "name": "Molo Church / Sta. Ana Parish of Molo", "category": "Tourism", "type": "Cultural", "facebook": "https://www.facebook.com/Sta.AnaParishMolo", "address": "132 San Pedro St, Molo, Iloilo City, 5000 Iloilo", "contact_mobile": null, "contact_landline": "333372258", "barangay": "San Pedro (Molo)", "district": "Molo", "municity": "Iloilo City", "province": "Iloilo", "email": "santaana.parishmolo@gmail.com", "url": null, "entry_fee": null, "open_time": "09:00", "closing_time": "17:00" }, "geometry": { "type": "Point", "coordinates": [ 122.5444604, 10.69746141 ] } },
{ "type": "Feature", "properties": { "name": "Molo Mansion / Yusay Consing Mansion", "category": "Tourism", "type": "Cultural", "facebook": "https://www.facebook.com/themolomansion/", "address": "Yusay-Consing Mansion, Locsin St, Molo, Iloilo City, 5000 Iloilo", "contact_mobile": "0950 749 1629", "contact_landline": null, "barangay": "North Avanceña", "district": "Molo", "municity": "Iloilo City", "province": "Iloilo", "email": "molomansioniloilo@gmail.com", "url": null, "entry_fee": null, "open_time": "10:00", "closing_time": "19:00" }, "geometry": { "type": "Point", "coordinates": [ 122.5435151, 10.69678185 ] } },
{ "type": "Feature", "properties": { "name": "Molo Plaza ", "category": "Tourism", "type": "Nature", "facebook": "https://www.facebook.com/pages/Molo%20Plaza%20Iloilo%20City/475943072512528/", "address": "MGWV+RJ5, San Pedro St, Molo, Iloilo City, 5000 Iloilo", "contact_mobile": "9228455261", "contact_landline": null, "barangay": "San Pedro (Molo)", "district": "Molo", "municity": "Iloilo City", "province": "Iloilo", "email": null, "url": null, "entry_fee": null, "open_time": null, "closing_time": null }, "geometry": { "type": "Point", "coordinates": [ 122.5441267, 10.69717192 ] } },
{ "type": "Feature", "properties": { "name": "Panaderia de Molo", "category": "Tourism", "type": "Cultural", "facebook": "https://www.facebook.com/PanaderiaDeMolo", "address": "Avanceña St, Molo, Iloilo City, 5000 Iloilo", "contact_mobile": "9086790035", "contact_landline": null, "barangay": "North Avanceña", "district": "Molo", "municity": "Iloilo City", "province": "Iloilo", "email": "panaderiademolo2016@gmail.com", "url": null, "entry_fee": null, "open_time": "09:00", "closing_time": "17:00" }, "geometry": { "type": "Point", "coordinates": [ 122.5419324, 10.69700126 ] } },
{ "type": "Feature", "properties": { "name": "Rosendo Mejica Landmark & Museum", "category": "Tourism", "type": "Cultural", "facebook": null, "address": "Baluarte, 251 Lopez Jaena St, Molo, Iloilo City, Iloilo", "contact_mobile": null, "contact_landline": "333351588", "barangay": "East Baluarte", "district": "Molo", "municity": "Iloilo City", "province": "Iloilo", "email": null, "url": null, "entry_fee": null, "open_time": null, "closing_time": null }, "geometry": { "type": "Point", "coordinates": [ 122.5479011, 10.69239826 ] } },
{ "type": "Feature", "properties": { "name": "Kai Royal Cafe", "category": "Tourism", "type": "Leisure and Entertainment", "facebook": null, "address": "Ground Floor, Motorlife Building, Infante St, Molo, Iloilo City, Iloilo", "contact_mobile": null, "contact_landline": null, "barangay": "Taal", "district": "Molo", "municity": "Iloilo City", "province": "Iloilo", "email": null, "url": null, "entry_fee": null, "open_time": "08:00", "closing_time": "02:30" }, "geometry": { "type": "Point", "coordinates": [ 122.554443, 10.6983378 ] } },
{ "type": "Feature", "properties": { "name": "Sofia Lodge", "category": "Tourism", "type": "Accommodation", "facebook": null, "address": "Baluarte - Calumpang - Villa - Oton Blvd, Molo, Iloilo City, Iloilo", "contact_mobile": null, "contact_landline": null, "barangay": "Infante", "district": "Molo", "municity": "Iloilo City", "province": "Iloilo", "email": null, "url": null, "entry_fee": null, "open_time": null, "closing_time": null }, "geometry": { "type": "Point", "coordinates": [ 122.5538691, 10.69254182 ] } },
{ "type": "Feature", "properties": { "name": "Green Dragon Lodge", "category": "Tourism", "type": "Accommodation", "facebook": null, "address": "MHV3+F7Q, 5000 Avanceña St, Molo, Iloilo City, 5000 Iloilo", "contact_mobile": null, "contact_landline": "333371634", "barangay": "Infante", "district": "Molo", "municity": "Iloilo City", "province": "Iloilo", "email": null, "url": null, "entry_fee": null, "open_time": null, "closing_time": null }, "geometry": { "type": "Point", "coordinates": [ 122.553177, 10.692503 ] } },
{ "type": "Feature", "properties": { "name": "Santacruzan Ciudad de Iloilo", "category": "Tourism", "type": "MICE", "facebook": "https://www.facebook.com/profile.php?id=100063916448857", "address": "MGMJ+C3J, Molo, Iloilo City, Iloilo", "contact_mobile": null, "contact_landline": null, "barangay": "Calumpang", "district": "Molo", "municity": "Iloilo City", "province": "Iloilo", "email": null, "url": null, "entry_fee": null, "open_time": null, "closing_time": null }, "geometry": { "type": "Point", "coordinates": [ 122.5301288, 10.68358193 ] } },
{ "type": "Feature", "properties": { "name": "Holy Rosary Academy", "category": "Tourism", "type": "Education", "facebook": "https://www.facebook.com/hramoloinc", "address": "5000 Avanceña St, Molo, Iloilo City, 5000 Iloilo", "contact_mobile": null, "contact_landline": "333378577", "barangay": "San Antonio", "district": "Molo", "municity": "Iloilo City", "province": "Iloilo", "email": "hramolo@yahoo.com", "url": null, "entry_fee": null, "open_time": "08:00", "closing_time": "17:00" }, "geometry": { "type": "Point", "coordinates": [ 122.5405791, 10.69460795 ] } },
{ "type": "Feature", "properties": { "name": "Ranza Café", "category": "Tourism", "type": "Leisure and Entertainment", "facebook": "https://www.facebook.com/ranzacafe", "address": "San Juan Street, Molo , Iloilo City, Philippines", "contact_mobile": "0995 192 1736", "contact_landline": null, "barangay": "San Antonio", "district": "Molo", "municity": "Iloilo City", "province": "Iloilo", "email": null, "url": null, "entry_fee": null, "open_time": "11:30", "closing_time": "21:30" }, "geometry": { "type": "Point", "coordinates": [ 122.5406622, 10.69402312 ] } },
{ "type": "Feature", "properties": { "name": "Make Room for Coffee", "category": "Tourism", "type": "Leisure and Entertainment", "facebook": "https://www.facebook.com/profile.php?id=61567801611268", "address": "Unit 3, JVS Building, Avanceña St., Molo, Iloilo City, Philippines", "contact_mobile": null, "contact_landline": null, "barangay": "North Avanceña", "district": "Molo", "municity": "Iloilo City", "province": "Iloilo", "email": null, "url": null, "entry_fee": null, "open_time": "10:00", "closing_time": "19:00" }, "geometry": { "type": "Point", "coordinates": [ 122.5388344, 10.69448284 ] } },
{ "type": "Feature", "properties": { "name": "Kofi & Kompany", "category": "Tourism", "type": "Leisure and Entertainment", "facebook": "https://www.facebook.com/Kofiandkompany", "address": "77 Avanceña St., North Fundidor, Molo, Iloilo City, Philippines", "contact_mobile": "0907 394 1104", "contact_landline": null, "barangay": "North Fundidor", "district": "Molo", "municity": "Iloilo City", "province": "Iloilo", "email": null, "url": null, "entry_fee": null, "open_time": "11:00", "closing_time": "21:00" }, "geometry": { "type": "Point", "coordinates": [ 122.5377618, 10.6936343 ] } },
{ "type": "Feature", "properties": { "name": "Elle. Massage Therapy & Wellness Iloilo", "category": "Tourism", "type": "Wellness", "facebook": "https://www.facebook.com/profile.php?id=61566501875782", "address": "Unit 2, 413 Avanceña St, Molo, Iloilo City, Philippines", "contact_mobile": "0948 234 6417", "contact_landline": null, "barangay": "North Fundidor", "district": "Molo", "municity": "Iloilo City", "province": "Iloilo", "email": "elle.massagetherapyiloilo@gmail.com", "url": "elleiloilo.com", "entry_fee": null, "open_time": "11:00", "closing_time": "22:30" }, "geometry": { "type": "Point", "coordinates": [ 122.5371329, 10.69333755 ] } },
{ "type": "Feature", "properties": { "name": "Nabe Unlimited Japanese Hotpot - North Grove Iloilo", "category": "Tourism", "type": "Leisure and Entertainment", "facebook": "https://www.facebook.com/nabeizakayahotpot", "address": "PHF9+53Q North Grove, Avanceña St, Molo, Iloilo City, Iloilo", "contact_mobile": null, "contact_landline": null, "barangay": "North Fundidor", "district": "Molo", "municity": "Iloilo City", "province": "Iloilo", "email": "partnership@fredleygroup.com", "url": null, "entry_fee": null, "open_time": "11:00", "closing_time": "22:00" }, "geometry": { "type": "Point", "coordinates": [ 122.5356315, 10.69268435 ] } },
{ "type": "Feature", "properties": { "name": "Tita Paz House of Pancit Molo", "category": "Tourism", "type": "Leisure and Entertainment", "facebook": null, "address": "MGRJ+36H, Avanceña St, Molo, Iloilo City, Iloilo", "contact_mobile": null, "contact_landline": "333356024", "barangay": "South Fundidor", "district": "Molo", "municity": "Iloilo City", "province": "Iloilo", "email": null, "url": null, "entry_fee": null, "open_time": "08:00", "closing_time": "18:30" }, "geometry": { "type": "Point", "coordinates": [ 122.5306232, 10.69016395 ] } },
{ "type": "Feature", "properties": { "name": "JD Bakery Cafe", "category": "Tourism", "type": "Leisure and Entertainment", "facebook": null, "address": "Citadel Building, Infante St, Molo, Iloilo City, 5000 Iloilo", "contact_mobile": null, "contact_landline": null, "barangay": "Taal", "district": "Molo", "municity": "Iloilo City", "province": "Iloilo", "email": null, "url": null, "entry_fee": null, "open_time": "07:30", "closing_time": "21:00" }, "geometry": { "type": "Point", "coordinates": [ 122.5543759, 10.69852295 ] } },
{ "type": "Feature", "properties": { "name": "Arevalo Beach Area", "category": "Tourism", "type": "Sun and Beach", "facebook": null, "address": " Villa de Arevalo, Iloilo City, Philippines", "contact_mobile": null, "contact_landline": null, "barangay": "Yulo Drive", "district": "Arevalo", "municity": "Iloilo City", "province": "Iloilo", "email": null, "url": null, "entry_fee": null, "open_time": "07:30", "closing_time": "20:00" }, "geometry": { "type": "Point", "coordinates": [ 122.5157125, 10.68174759 ] } },
{ "type": "Feature", "properties": { "name": "Arevalo Church & 1581 Sto. Nino Statue", "category": "Tourism", "type": "Cultural", "facebook": "https://www.facebook.com/SNAP1581/", "address": "MGQ8+685, Arroyo St, Villa Arevalo District, Iloilo City, 5000 Iloilo", "contact_mobile": null, "contact_landline": null, "barangay": "Santa Filomena", "district": "Arevalo", "municity": "Iloilo City", "province": "Iloilo", "email": null, "url": null, "entry_fee": null, "open_time": "08:00", "closing_time": "18:00" }, "geometry": { "type": "Point", "coordinates": [ 122.5159164, 10.68816111 ] } },
{ "type": "Feature", "properties": { "name": "Arevalo Plaza", "category": "Tourism", "type": "Cultural", "facebook": null, "address": "Sofia Reyes de Veyra Monument, Yulo Dr, Villa Arevalo District, Iloilo City, 5000 Iloilo", "contact_mobile": "9103774994", "contact_landline": null, "barangay": "Santa Filomena", "district": "Arevalo", "municity": "Iloilo City", "province": "Iloilo", "email": null, "url": "http://www.iloilocity.gov.ph/", "entry_fee": null, "open_time": null, "closing_time": null }, "geometry": { "type": "Point", "coordinates": [ 122.5159245, 10.6887486 ] } },
{ "type": "Feature", "properties": { "name": "Breakthrough Restaurant", "category": "Tourism", "type": "Sun and Beach", "facebook": "https://www.facebook.com/breakthroughrestaurantiloilo", "address": "Breakthrough Restaurant , Sto. Niño Norte, Arevalo, Iloilo City 5000 Iloilo City, Philippines", "contact_mobile": null, "contact_landline": "(033) 337 3027", "barangay": "Santo Niño Sur", "district": "Arevalo", "municity": "Iloilo City", "province": "Iloilo", "email": "inq.breakthroughrestaurants@gmail.com", "url": "https://breakthroughrestaurants.com/?fbclid=IwY2xjawKqHKhleHRuA2FlbQIxMABicmlkETF1QXQ1MjNoQzVJemVtcDdSAR4vt_jcx2T-p7lGCVY-o9ZBHGmvMBh0DP_zuIOZ1ZXdqrhSHA7sqJSS9Zc0dg_aem_z8qmTaZN9Gk24OhlfMQ_ug", "entry_fee": null, "open_time": "10:00", "closing_time": "21:00" }, "geometry": { "type": "Point", "coordinates": [ 122.5173646, 10.68007534 ] } },
{ "type": "Feature", "properties": { "name": "Camiña Balay na Bato – Avanceña Ancestral House", "category": "Tourism", "type": "Cultural", "facebook": "https://www.facebook.com/BalayNgaBatoIloilo/", "address": "20 Osmeña Street brgy Sta. Felomina arevalo 5000 Iloilo City, Philippines", "contact_mobile": "0947 891 1467", "contact_landline": "333363858", "barangay": "Santa Filomena", "district": "Arevalo", "municity": "Iloilo City", "province": "Iloilo", "email": "Lolarufina1865@gmail.com", "url": null, "entry_fee": null, "open_time": "08:00", "closing_time": "17:00" }, "geometry": { "type": "Point", "coordinates": [ 122.5151136, 10.68979455 ] } },
{ "type": "Feature", "properties": { "name": "Glory''s Café  3rd Gen Arevalo", "category": "Tourism", "type": "Leisure and Entertainment", "facebook": "https://www.facebook.com/3rdGenGlorysCafe/", "address": "Sayson Heritage House, 1927 Avanceña, Quezon St, Villa Arevalo District, Iloilo City", "contact_mobile": "9176205688", "contact_landline": null, "barangay": "San Jose (Arevalo)", "district": "Arevalo", "municity": "Iloilo City", "province": "Iloilo", "email": "cafeglorys@gmail.com", "url": null, "entry_fee": null, "open_time": "07:00", "closing_time": "21:00" }, "geometry": { "type": "Point", "coordinates": [ 122.5199289, 10.68748982 ] } },
{ "type": "Feature", "properties": { "name": "Sinamay House", "category": "Tourism", "type": "Cultural", "facebook": null, "address": "MGQ8+R47, Osmeña St, Villa Arevalo District, Iloilo City, Iloilo", "contact_mobile": null, "contact_landline": null, "barangay": "Santa Filomena", "district": "Arevalo", "municity": "Iloilo City", "province": "Iloilo", "email": null, "url": null, "entry_fee": null, "open_time": "08:00", "closing_time": "17:00" }, "geometry": { "type": "Point", "coordinates": [ 122.5153592, 10.68977413 ] } },
{ "type": "Feature", "properties": { "name": "Tatoy's Manokan and Seafoods", "category": "Tourism", "type": "Sun and Beach", "facebook": "https://www.facebook.com/tatoysiloilo/", "address": "Sto. Nino Sur Arevalo Iloilo City 5000 Iloilo City, Philippines", "contact_mobile": null, "contact_landline": "333371360", "barangay": "Santo Niño Sur", "district": "Arevalo", "municity": "Iloilo City", "province": "Iloilo", "email": "tatoysresort@yahoo.com", "url": null, "entry_fee": null, "open_time": "08:00", "closing_time": "21:00" }, "geometry": { "type": "Point", "coordinates": [ 122.5107988, 10.68038389 ] } },
{ "type": "Feature", "properties": { "name": "Iloilo Sunset Boulevard", "category": "Tourism", "type": "Leisure and Entertainment", "facebook": null, "address": "MGXC+4CM, Iloilo Sunset Blvd, Villa Arevalo District, Iloilo City, Iloilo", "contact_mobile": null, "contact_landline": null, "barangay": "So-oc", "district": "Arevalo", "municity": "Iloilo City", "province": "Iloilo", "email": null, "url": null, "entry_fee": null, "open_time": "Open 24 Hours", "closing_time": "Open 24 Hours" }, "geometry": { "type": "Point", "coordinates": [ 122.5211559, 10.69807412 ] } },
{ "type": "Feature", "properties": { "name": "3rd Gen Glory's Cafe", "category": "Tourism", "type": "Leisure and Entertainment", "facebook": "https://www.facebook.com/3rdGenGlorysCafe", "address": "Quezon Street Villa Arevalo, Iloilo City, Iloilo City, Philippines", "contact_mobile": "0917 620 5688", "contact_landline": null, "barangay": "Quezon", "district": "Arevalo", "municity": "Iloilo City", "province": "Iloilo", "email": "cafeglorys@gmail.com", "url": "3rdGengloryscafe.com", "entry_fee": null, "open_time": "07:00", "closing_time": "21:00" }, "geometry": { "type": "Point", "coordinates": [ 122.519929, 10.68730943 ] } },
{ "type": "Feature", "properties": { "name": "Iloilo Coffee House", "category": "Tourism", "type": "Leisure and Entertainment", "facebook": "https://www.facebook.com/iloilocoffeehouse", "address": "77 Quezon St., Dulonan, Arevalo, Iloilo City, Philippines", "contact_mobile": null, "contact_landline": "(033) 331 2867", "barangay": "Dulonan", "district": "Arevalo", "municity": "Iloilo City", "province": "Iloilo", "email": "hello@iloilocoffeehouse.com", "url": null, "entry_fee": null, "open_time": "08:00", "closing_time": "20:00" }, "geometry": { "type": "Point", "coordinates": [ 122.5245852, 10.68831411 ] } },
{ "type": "Feature", "properties": { "name": "Salam-Ukan Villa", "category": "Tourism", "type": "Leisure and Entertainment", "facebook": null, "address": "MGQF+6QG, San Jose Steet unhan, Villa Arevalo District, Iloilo City", "contact_mobile": null, "contact_landline": null, "barangay": "Dulonan", "district": "Arevalo", "municity": "Iloilo City", "province": "Iloilo", "email": null, "url": null, "entry_fee": null, "open_time": "09:00", "closing_time": "22:00" }, "geometry": { "type": "Point", "coordinates": [ 122.5244641, 10.68803396 ] } },
{ "type": "Feature", "properties": { "name": "Panaderia de Iloilo ", "category": "Tourism", "type": "Leisure and Entertainment", "facebook": "https://www.facebook.com/panaderiadeiloilo", "address": "24 Osmena Street, Arevalo, Iloilo City, Philippines", "contact_mobile": null, "contact_landline": "(033) 337 4357", "barangay": "Santa Filomena", "district": "Arevalo", "municity": "Iloilo City", "province": "Iloilo", "email": "panaderiadeiloilo@gmail.com", "url": null, "entry_fee": null, "open_time": "06:30", "closing_time": "19:00" }, "geometry": { "type": "Point", "coordinates": [ 122.5145819, 10.68977229 ] } },
{ "type": "Feature", "properties": { "name": "Festive Walk iloilo", "category": "Tourism", "type": "Leisure and Entertainment", "facebook": "https://www.facebook.com/FestiveWalkIloilo", "address": "Megaworld Blvd, Mandurriao, Iloilo City, Iloilo", "contact_mobile": null, "contact_landline": "335175782", "barangay": "Abeto Mirasol Taft South (Quirino Abeto)", "district": "Mandurriao", "municity": "Iloilo City", "province": "Iloilo", "email": "ifwmconcierge@megaworld-lifestyle.com", "url": "https://megaworld-lifestylemalls.com/malls/festive-walk-mall-iloilo", "entry_fee": null, "open_time": "10:00", "closing_time": "21:00" }, "geometry": { "type": "Point", "coordinates": [ 122.5469477, 10.71802213 ] } },
{ "type": "Feature", "properties": { "name": "Iloilo Convention Center", "category": "Tourism", "type": "MICE", "facebook": "https://www.facebook.com/iloiloconventioncenter", "address": "PG7W+R27, Megaworld Blvd, Mandurriao, Iloilo City, Iloilo", "contact_mobile": "0968 865 9179", "contact_landline": "333232269", "barangay": "Abeto Mirasol Taft South (Quirino Abeto)", "district": "Mandurriao", "municity": "Iloilo City", "province": "Iloilo", "email": "iloiloconventioncenter@gmail.com", "url": "http://www.iloiloconventioncenter.com/", "entry_fee": null, "open_time": "08:00", "closing_time": "17:00" }, "geometry": { "type": "Point", "coordinates": [ 122.5450796, 10.71463177 ] } },
{ "type": "Feature", "properties": { "name": "Iloilo Esplanade 1", "category": "Tourism", "type": "Nature", "facebook": null, "address": "PH33+287, Iloilo Riverside Blvd, Mandurriao, Iloilo City, Iloilo", "contact_mobile": null, "contact_landline": null, "barangay": "San Rafael", "district": "Mandurriao", "municity": "Iloilo City", "province": "Iloilo", "email": null, "url": null, "entry_fee": null, "open_time": "Open 24 Hours", "closing_time": "Open 24 Hours" }, "geometry": { "type": "Point", "coordinates": [ 122.5532874, 10.7025424 ] } },
{ "type": "Feature", "properties": { "name": "Bourbon Street Bar and Grill", "category": "Tourism", "type": "Leisure and Entertainment", "facebook": "https://www.facebook.com/bourbonstreetiloilo/", "address": "The Avenue Complex, Bldg. 7, Glicerio T. Pison Street, Smallville Barangay, San Rafael, Mandurriao, Iloilo City, 5000 Iloilo", "contact_mobile": "9338513671", "contact_landline": null, "barangay": "San Rafael", "district": "Mandurriao", "municity": "Iloilo City", "province": "Iloilo", "email": null, "url": null, "entry_fee": null, "open_time": "10:00", "closing_time": "23:00" }, "geometry": { "type": "Point", "coordinates": [ 122.550544, 10.70476447 ] } },
{ "type": "Feature", "properties": { "name": "Smallville 21 Hotel", "category": "Tourism", "type": "Accommodation", "facebook": null, "address": "Smallville Complex G. T, Glicerio Pison Ave, Mandurriao, Iloilo City, 5000 Iloilo", "contact_mobile": null, "contact_landline": "335016821", "barangay": "San Rafael", "district": "Mandurriao", "municity": "Iloilo City", "province": "Iloilo", "email": null, "url": null, "entry_fee": null, "open_time": null, "closing_time": null }, "geometry": { "type": "Point", "coordinates": [ 122.5510363, 10.70442481 ] } },
{ "type": "Feature", "properties": { "name": "Monkey Business Sports Bar", "category": "Tourism", "type": "Leisure and Entertainment", "facebook": null, "address": "Riverside Boardwalk Dr. Rizalina Bernardo, Donato Pison Ave, Mandurriao, Iloilo City, 5000 Iloilo", "contact_mobile": "9283537154", "contact_landline": null, "barangay": "San Rafael", "district": "Mandurriao", "municity": "Iloilo City", "province": "Iloilo", "email": null, "url": "http://monkeybusiness.bar/", "entry_fee": null, "open_time": "11:30", "closing_time": "00:00" }, "geometry": { "type": "Point", "coordinates": [ 122.5513861, 10.70247266 ] } },
{ "type": "Feature", "properties": { "name": "Troi Oi", "category": "Tourism", "type": "Leisure and Entertainment", "facebook": "https://www.facebook.com/troioirestaurant/", "address": "Dr. Rizalina Bernardo Pison Ave. cor Paciencia T. Pison Ave. Brgy. San, Rafael,, Mandurriao, Iloilo City, 5000 Iloilo", "contact_mobile": null, "contact_landline": "333300872", "barangay": "San Rafael", "district": "Mandurriao", "municity": "Iloilo City", "province": "Iloilo", "email": null, "url": null, "entry_fee": null, "open_time": "11:00", "closing_time": "21:00" }, "geometry": { "type": "Point", "coordinates": [ 122.5512553, 10.70249374 ] } },
{ "type": "Feature", "properties": { "name": "Kogi & Vegi Korean Restaurant", "category": "Tourism", "type": "Leisure and Entertainment", "facebook": "https://www.facebook.com/p/Kogi-Vegi-100057220069002/", "address": "Riverside Boardwalk, Diversion Rd, San Rafael, Iloilo City, 5000 Iloilo", "contact_mobile": "9173283875", "contact_landline": null, "barangay": "San Rafael", "district": "Mandurriao", "municity": "Iloilo City", "province": "Iloilo", "email": null, "url": null, "entry_fee": null, "open_time": "11:00", "closing_time": "21:00" }, "geometry": { "type": "Point", "coordinates": [ 122.5511182, 10.70275637 ] } },
{ "type": "Feature", "properties": { "name": "Jardin Mediterranean Restaurant", "category": "Tourism", "type": "Leisure and Entertainment", "facebook": "https://www.facebook.com/jardiniloilo/", "address": "Riverside, Boardwalk Smallville, Iloilo City, 5000 Iloilo", "contact_mobile": "9951084760", "contact_landline": null, "barangay": "San Rafael", "district": "Mandurriao", "municity": "Iloilo City", "province": "Iloilo", "email": "dining@jardin.ph", "url": null, "entry_fee": null, "open_time": "11:00", "closing_time": "22:00" }, "geometry": { "type": "Point", "coordinates": [ 122.550626, 10.70260351 ] } },
{ "type": "Feature", "properties": { "name": "Riverside Boardwalk", "category": "Tourism", "type": "Nature", "facebook": null, "address": "PH32+2C3, Diversion Rd, Mandurriao, Iloilo City, 5000 Iloilo", "contact_mobile": null, "contact_landline": null, "barangay": "San Rafael", "district": "Mandurriao", "municity": "Iloilo City", "province": "Iloilo", "email": null, "url": null, "entry_fee": null, "open_time": null, "closing_time": null }, "geometry": { "type": "Point", "coordinates": [ 122.5510399, 10.70251271 ] } },
{ "type": "Feature", "properties": { "name": "Iloilo Museum of Contemporary Art", "category": "Tourism", "type": "Cultural", "facebook": "https://www.facebook.com/ILOMOCA", "address": "Casa de Emperador, Iloilo Business Park, Mandurriao, Iloilo City, Philippines", "contact_mobile": null, "contact_landline": "335018621", "barangay": "Buhang Taft North", "district": "Mandurriao", "municity": "Iloilo City", "province": "Iloilo", "email": "ilomoca.ph@gmail.com", "url": "https://www.ilomoca.org/?fbclid=IwY2xjawKssrNleHRuA2FlbQIxMABicmlkETFtaG1raVlJQ2xRY21DSnJXAR6M9PBQRq0KLaiULAw7PbnNU4HCI3OJZEm5LCIpNniFTlu7j3Ny7d9CgkgVOQ_aem_YX2HpkLBJbYUVddrQndvjQ", "entry_fee": "150;120;100", "open_time": "10:00", "closing_time": "18:00" }, "geometry": { "type": "Point", "coordinates": [ 122.5482365, 10.71837681 ] } },
{ "type": "Feature", "properties": { "name": "Madge Café Atria", "category": "Tourism", "type": "Leisure and Entertainment", "facebook": "https://www.facebook.com/madgecafeatriaofficialpage/", "address": "Shops at Atria, Donato Pison Ave, Brgy. San Rafael Mandurriao, Iloilo City, 5000 Iloilo", "contact_mobile": null, "contact_landline": "335016673", "barangay": "San Rafael", "district": "Mandurriao", "municity": "Iloilo City", "province": "Iloilo", "email": null, "url": null, "entry_fee": null, "open_time": "10:00", "closing_time": "21:00" }, "geometry": { "type": "Point", "coordinates": [ 122.5488089, 10.70669109 ] } },
{ "type": "Feature", "properties": { "name": "Mandurriao Plaza - Serapion Torre Park", "category": "Tourism", "type": "Nature", "facebook": null, "address": "Niceville Subdivision, Mandurriao, Pale Benidicto Rizal, Iloilo City, Western Visayas, 5000, Philippines", "contact_mobile": null, "contact_landline": null, "barangay": "Oñate de Leon", "district": "Mandurriao", "municity": "Iloilo City", "province": "Iloilo", "email": null, "url": null, "entry_fee": null, "open_time": null, "closing_time": null }, "geometry": { "type": "Point", "coordinates": [ 122.5368475, 10.71732563 ] } },
{ "type": "Feature", "properties": { "name": "Martin Delgado Monument Park", "category": "Tourism", "type": "Cultural", "facebook": null, "address": "PG9X+854, Mandurriao, Iloilo City, Iloilo", "contact_mobile": null, "contact_landline": null, "barangay": "Buhang Taft North", "district": "Mandurriao", "municity": "Iloilo City", "province": "Iloilo", "email": null, "url": null, "entry_fee": null, "open_time": null, "closing_time": null }, "geometry": { "type": "Point", "coordinates": [ 122.5484834, 10.71856568 ] } },
{ "type": "Feature", "properties": { "name": "Netong's Lapaz Batchoy Atria", "category": "Tourism", "type": "Leisure and Entertainment", "facebook": "https://www.facebook.com/netongsbatchoyofficial", "address": "Unit 10 & 11, Shops at Atria Ayala, Donato Pison Ave, Brgy. San Rafael Mandurriao, Iloilo City, 5000 Iloilo", "contact_mobile": "0915 097 4227", "contact_landline": "335016335", "barangay": "San Rafael", "district": "Mandurriao", "municity": "Iloilo City", "province": "Iloilo", "email": "operations.netongs@yahoo.com", "url": null, "entry_fee": null, "open_time": "09:30", "closing_time": "23:00" }, "geometry": { "type": "Point", "coordinates": [ 122.5488537, 10.70729379 ] } },
{ "type": "Feature", "properties": { "name": "Pison Monument Park", "category": "Tourism", "type": "Cultural", "facebook": null, "address": "PG5X+6HX, Donato Pison Ave, San Rafael Mandurriao, Iloilo City, 5000 Iloilo", "contact_mobile": null, "contact_landline": null, "barangay": "San Rafael", "district": "Mandurriao", "municity": "Iloilo City", "province": "Iloilo", "email": null, "url": null, "entry_fee": null, "open_time": null, "closing_time": null }, "geometry": { "type": "Point", "coordinates": [ 122.5489668, 10.70829236 ] } },
{ "type": "Feature", "properties": { "name": "Plazuela De Iloilo", "category": "Tourism", "type": "Leisure and Entertainment", "facebook": "https://www.facebook.com/plazueladeiloilo", "address": "Benigno Aquino Ave, Mandurriao, Iloilo City, Iloilo", "contact_mobile": null, "contact_landline": "(033) 329 5973", "barangay": "Buhang Taft North", "district": "Mandurriao", "municity": "Iloilo City", "province": "Iloilo", "email": "admin@plazuela.ph", "url": null, "entry_fee": null, "open_time": "09:00", "closing_time": "22:00" }, "geometry": { "type": "Point", "coordinates": [ 122.5517174, 10.71213273 ] } },
{ "type": "Feature", "properties": { "name": "Punot", "category": "Tourism", "type": "Leisure and Entertainment", "facebook": "https://www.facebook.com/punotrestaurant", "address": "Riverside Boardwalk, Diversion Rd, Mandurriao, Iloilo City, 5000 Iloilo", "contact_mobile": "9070184376", "contact_landline": "(033) 351 0486", "barangay": "San Rafael", "district": "Mandurriao", "municity": "Iloilo City", "province": "Iloilo", "email": "punotrestaurant.ilo@gmail.com", "url": null, "entry_fee": null, "open_time": "11:00", "closing_time": "21:00" }, "geometry": { "type": "Point", "coordinates": [ 122.5508759, 10.70275459 ] } },
{ "type": "Feature", "properties": { "name": "SM City Iloilo", "category": "Tourism", "type": "Leisure and Entertainment", "facebook": "https://www.facebook.com/smcityiloilo", "address": "Benigno Aquino Ave, Mandurriao, Iloilo City, Iloilo", "contact_mobile": null, "contact_landline": "(033) 320 9601", "barangay": "Buhang Taft North", "district": "Mandurriao", "municity": "Iloilo City", "province": "Iloilo", "email": null, "url": "https://www.smsupermalls.com/?fbclid=IwY2xjawKs0F9leHRuA2FlbQIxMABicmlkETFleVZ5VlI4MFI3WEc5dGdyAR7ZsJ0e99FINloND86BGCJlvhYTGwuUJEzKen5FgszGdxsUqqW-5oTUi75z2w_aem_7mx0le57GS614VExRwkN1A", "entry_fee": null, "open_time": "10:00", "closing_time": "22:00" }, "geometry": { "type": "Point", "coordinates": [ 122.5510452, 10.71458243 ] } },
{ "type": "Feature", "properties": { "name": "Ted's Lapaz Batchoy Sen Benigno Aquino Avenue", "category": "Tourism", "type": "Leisure and Entertainment", "facebook": "https://www.facebook.com/tedslapazbatchoy", "address": "PH33+J3P, Benigno Aquino Ave. Diversion Rd, Mandurriao, Iloilo City, 5000 Iloilo", "contact_mobile": "9477416185", "contact_landline": null, "barangay": "San Rafael", "district": "Mandurriao", "municity": "Iloilo City", "province": "Iloilo", "email": null, "url": null, "entry_fee": null, "open_time": "Open 24 Hours", "closing_time": "Open 24 Hours" }, "geometry": { "type": "Point", "coordinates": [ 122.5527696, 10.70414272 ] } },
{ "type": "Feature", "properties": { "name": "Brandy Museum", "category": "Tourism", "type": "Cultural", "facebook": "https://www.facebook.com/people/Brandy-Museum-Ph/61559699973209/", "address": "PG9X+974, Festive Walk Mall, Iloilo Business Park Brgy. Buhang Ralk North, Mandurriao, Iloilo City, 5000 Iloilo", "contact_mobile": "0991 591 4594", "contact_landline": null, "barangay": "Buhang Taft North", "district": "Mandurriao", "municity": "Iloilo City", "province": "Iloilo", "email": null, "url": null, "entry_fee": null, "open_time": "10:00", "closing_time": "19:30" }, "geometry": { "type": "Point", "coordinates": [ 122.5481929, 10.71851393 ] } },
{ "type": "Feature", "properties": { "name": "K-Town Iloilo", "category": "Tourism", "type": "Leisure and Entertainment", "facebook": null, "address": "PG8W+JW3, Mandurriao, Iloilo City, Iloilo", "contact_mobile": null, "contact_landline": null, "barangay": "Buhang Taft North", "district": "Mandurriao", "municity": "Iloilo City", "province": "Iloilo", "email": null, "url": null, "entry_fee": null, "open_time": "Open 24 Hours", "closing_time": "Open 24 Hours" }, "geometry": { "type": "Point", "coordinates": [ 122.5477249, 10.71668666 ] } },
{ "type": "Feature", "properties": { "name": "Yesha’s Place", "category": "Tourism", "type": "Accommodation", "facebook": null, "address": "Block 8, Lot 8, AIM II Subdivision, Dungon C, Mandurriao, Iloilo City, Iloilo", "contact_mobile": "9171802579", "contact_landline": null, "barangay": "Dungon", "district": "Mandurriao", "municity": "Iloilo City", "province": "Iloilo", "email": null, "url": null, "entry_fee": null, "open_time": null, "closing_time": null }, "geometry": { "type": "Point", "coordinates": [ 122.5406694, 10.72564766 ] } },
{ "type": "Feature", "properties": { "name": "Palanaguan Cafe", "category": "Tourism", "type": "Leisure and Entertainment", "facebook": "https://www.facebook.com/profile.php?id=100092871439656&mibextid=LQQJ4d", "address": "Phase 2 (near single goal basketball court, Barangay 22 NHA, Mandurriao, Iloilo City, 5000 Iloilo", "contact_mobile": "9064527423", "contact_landline": null, "barangay": "PHHC Block 22 NHA", "district": "Mandurriao", "municity": "Iloilo City", "province": "Iloilo", "email": "palanaguancafe@gmail.com", "url": null, "entry_fee": null, "open_time": "10:00", "closing_time": "19:00" }, "geometry": { "type": "Point", "coordinates": [ 122.5433063, 10.72446784 ] } },
{ "type": "Feature", "properties": { "name": "Ribshack", "category": "Tourism", "type": "Leisure and Entertainment", "facebook": "https://www.facebook.com/ribshackgrill", "address": "PH72+X6R, SM City Iloilo Driveway, Mandurriao, Iloilo City, Iloilo", "contact_mobile": null, "contact_landline": null, "barangay": "Bakhaw", "district": "Mandurriao", "municity": "Iloilo City", "province": "Iloilo", "email": null, "url": null, "entry_fee": null, "open_time": "10:00", "closing_time": "22:00" }, "geometry": { "type": "Point", "coordinates": [ 122.5508984, 10.71780192 ] } },
{ "type": "Feature", "properties": { "name": "The Mango Tree Restaurant", "category": "Tourism", "type": "Leisure and Entertainment", "facebook": "https://www.facebook.com/themangotreerestaurant", "address": "Guzman St, Iloilo City, Philippines", "contact_mobile": "0929 358 9696", "contact_landline": null, "barangay": "Guzman-Jesena", "district": "Mandurriao", "municity": "Iloilo City", "province": "Iloilo", "email": "themangotreerestaurant@gmail.com", "url": null, "entry_fee": null, "open_time": "10:00", "closing_time": "20:30" }, "geometry": { "type": "Point", "coordinates": [ 122.535012, 10.72019603 ] } },
{ "type": "Feature", "properties": { "name": "Shortcut to Coffee", "category": "Tourism", "type": "Leisure and Entertainment", "facebook": "https://www.facebook.com/shortcuttocoffee", "address": "45 Guzman Street, Mandurriao, Iloilo City, Philippines", "contact_mobile": null, "contact_landline": null, "barangay": "Guzman-Jesena", "district": "Mandurriao", "municity": "Iloilo City", "province": "Iloilo", "email": "shortcuttocoffee@gmail.com", "url": null, "entry_fee": null, "open_time": "08:00", "closing_time": "18:00" }, "geometry": { "type": "Point", "coordinates": [ 122.5331476, 10.72130407 ] } },
{ "type": "Feature", "properties": { "name": "Peling's Kansi House", "category": "Tourism", "type": "Leisure and Entertainment", "facebook": "https://www.facebook.com/profile.php?id=61571322167667", "address": "Guzman-Jesena, Iloilo City, Philippines", "contact_mobile": null, "contact_landline": null, "barangay": "Guzman-Jesena", "district": "Mandurriao", "municity": "Iloilo City", "province": "Iloilo", "email": null, "url": null, "entry_fee": null, "open_time": "11:00", "closing_time": "21:00" }, "geometry": { "type": "Point", "coordinates": [ 122.5319279, 10.72231081 ] } },
{ "type": "Feature", "properties": { "name": "Hulungdon Restaurant", "category": "Tourism", "type": "Leisure and Entertainment", "facebook": "https://www.facebook.com/hulungdonrestaurant", "address": "55 Guzman St. Mandurriao, Iloilo City, Philippines", "contact_mobile": "0929 702 4769", "contact_landline": null, "barangay": "Guzman-Jesena", "district": "Mandurriao", "municity": "Iloilo City", "province": "Iloilo", "email": "yangerochi06@yahoo.com", "url": null, "entry_fee": null, "open_time": "09:00", "closing_time": "00:00" }, "geometry": { "type": "Point", "coordinates": [ 122.5315272, 10.72255618 ] } },
{ "type": "Feature", "properties": { "name": "Richmonde Hotel Iloilo", "category": "Tourism", "type": "Accommodation", "facebook": "https://www.facebook.com/RichmondeHotelIloilo", "address": "Megaworld Boulevard corner Enterprise Road, Iloilo Business Park, Mandurriao, Philippines", "contact_mobile": "63 917 580 9642", "contact_landline": "(033) 328 7888", "barangay": "Abeto Mirasol Taft South (Quirino Abeto)", "district": "Mandurriao", "municity": "Iloilo City", "province": "Iloilo", "email": "inquiry@richmondeiloilo.com", "url": "richmondehoteliloilo.com.ph", "entry_fee": null, "open_time": "Open 24 Hours", "closing_time": "Open 24 Hours" }, "geometry": { "type": "Point", "coordinates": [ 122.5456846, 10.71542722 ] } },
{ "type": "Feature", "properties": { "name": "The Granary", "category": "Tourism", "type": "Leisure and Entertainment", "facebook": null, "address": "UG Richmonde Hotel Iloilo Megaworld Boulevard, Iloilo Business Park, Mandurriao, Iloilo City, 5000 Iloilo", "contact_mobile": null, "contact_landline": null, "barangay": "Abeto Mirasol Taft South (Quirino Abeto)", "district": "Mandurriao", "municity": "Iloilo City", "province": "Iloilo", "email": null, "url": null, "entry_fee": null, "open_time": "09:00", "closing_time": "22:00" }, "geometry": { "type": "Point", "coordinates": [ 122.5455935, 10.71529456 ] } },
{ "type": "Feature", "properties": { "name": "Courtyard Iloilo", "category": "Tourism", "type": "Accommodation", "facebook": "https://www.facebook.com/CourtyardbyMarriottIloilo", "address": "Iloilo Business Park, Mandurriao, Iloilo City, Philippines", "contact_mobile": null, "contact_landline": "(033) 330 7600", "barangay": "Abeto Mirasol Taft South (Quirino Abeto)", "district": "Mandurriao", "municity": "Iloilo City", "province": "Iloilo", "email": "atyourservice.ilocy@courtyard.com", "url": "marriott.com/en-us/hotels/ilocy-courtyard-iloilo/overview/?scid=d2406702-e8ea-4b45-bb9b-69cddaaef03d", "entry_fee": null, "open_time": "Open 24 Hours", "closing_time": "Open 24 Hours" }, "geometry": { "type": "Point", "coordinates": [ 122.5448703, 10.71367353 ] } },
{ "type": "Feature", "properties": { "name": "Belmont Hotel Iloilo", "category": "Tourism", "type": "Accommodation", "facebook": "https://www.facebook.com/profile.php?id=61576232456897", "address": "Iloilo Business Park, Enterprise Road, Mandurriao, Iloilo City, Philippines", "contact_mobile": "9285035321", "contact_landline": null, "barangay": "San Rafael", "district": "Mandurriao", "municity": "Iloilo City", "province": "Iloilo", "email": "careers@belmontiloilo.com", "url": "megaworldinternational.com/properties/belmont-hotel-iloilo", "entry_fee": null, "open_time": null, "closing_time": null }, "geometry": { "type": "Point", "coordinates": [ 122.5458035, 10.71246663 ] } },
{ "type": "Feature", "properties": { "name": "Ateneo de Iloílo - Santa Maria Catholic School", "category": "Tourism", "type": "Education", "facebook": "https://www.facebook.com/AteneodeIloiloSMCS", "address": "Atria Park District, Donato Pison Avenue, San Rafael, Mandurriao, Iloilo City, Philippines", "contact_mobile": "0998 860 5312", "contact_landline": null, "barangay": "San Rafael", "district": "Mandurriao", "municity": "Iloilo City", "province": "Iloilo", "email": "info@adi.edu.ph", "url": "adi.edu.ph", "entry_fee": null, "open_time": "08:00", "closing_time": "17:00" }, "geometry": { "type": "Point", "coordinates": [ 122.5476506, 10.70552113 ] } },
{ "type": "Feature", "properties": { "name": "Solana Premier & Solana Garden Events Place ", "category": "Tourism", "type": "MICE", "facebook": "https://www.facebook.com/solanapremiere", "address": "Esplanade 1, Iloilo City, Philippines", "contact_mobile": "0928 631 5558", "contact_landline": null, "barangay": "Tabucan", "district": "Mandurriao", "municity": "Iloilo City", "province": "Iloilo", "email": "solanapremiere@gmail.com", "url": null, "entry_fee": null, "open_time": "10:30", "closing_time": "17:00" }, "geometry": { "type": "Point", "coordinates": [ 122.5441051, 10.70184036 ] } },
{ "type": "Feature", "properties": { "name": "Deco's Lapaz Batchoy Lapaz Market", "category": "Tourism", "type": "Leisure and Entertainment", "facebook": "https://www.facebook.com/profile.php?id=100075636563464", "address": "18 Huervana St, La Paz, Iloilo City, 5000 Iloilo", "contact_mobile": "0999 966 1078", "contact_landline": null, "barangay": "Burgos-Mabini-Plaza", "district": "La Paz", "municity": "Iloilo City", "province": "Iloilo", "email": null, "url": null, "entry_fee": null, "open_time": "07:00", "closing_time": "18:30" }, "geometry": { "type": "Point", "coordinates": [ 122.5707671, 10.71133957 ] } },
{ "type": "Feature", "properties": { "name": "Hinactacan Mangrove Park", "category": "Tourism", "type": "Nature", "facebook": null, "address": "PHMW+7P7, La Paz, Iloilo City, Iloilo", "contact_mobile": null, "contact_landline": null, "barangay": "Ingore", "district": "La Paz", "municity": "Iloilo City", "province": "Iloilo", "email": null, "url": null, "entry_fee": null, "open_time": null, "closing_time": null }, "geometry": { "type": "Point", "coordinates": [ 122.5968706, 10.73332211 ] } },
{ "type": "Feature", "properties": { "name": "Jalandoni Bridge", "category": "Tourism", "type": null, "facebook": null, "address": "PH26+GFV, Jalandoni Bridge, Iloilo City Proper, Iloilo City, Iloilo", "contact_mobile": null, "contact_landline": null, "barangay": "Luna (La Paz)", "district": "La Paz", "municity": "Iloilo City", "province": "Iloilo", "email": null, "url": null, "entry_fee": null, "open_time": null, "closing_time": null }, "geometry": { "type": "Point", "coordinates": [ 122.5611643, 10.70146538 ] } },
{ "type": "Feature", "properties": { "name": "Lapaz Market", "category": "Tourism", "type": "Leisure and Entertainment", "facebook": null, "address": "18 Huervana St, La Paz, Iloilo City, 5000 Iloilo", "contact_mobile": null, "contact_landline": "333207514", "barangay": "Railway", "district": "La Paz", "municity": "Iloilo City", "province": "Iloilo", "email": null, "url": null, "entry_fee": null, "open_time": null, "closing_time": null }, "geometry": { "type": "Point", "coordinates": [ 122.567643, 10.7087603 ] } },
{ "type": "Feature", "properties": { "name": "Lapaz Plaza", "category": "Tourism", "type": "Nature", "facebook": null, "address": "Javellana Street, Railway, La Paz, Tabuc Suba, Iloilo City, Western Visayas, 5000, Philippines", "contact_mobile": null, "contact_landline": null, "barangay": "Burgos-Mabini-Plaza", "district": "La Paz", "municity": "Iloilo City", "province": "Iloilo", "email": null, "url": null, "entry_fee": null, "open_time": null, "closing_time": null }, "geometry": { "type": "Point", "coordinates": [ 122.5709079, 10.71185332 ] } },
{ "type": "Feature", "properties": { "name": "Lopez Boat House - Eugenio Lopez House", "category": "Tourism", "type": "Cultural", "facebook": null, "address": "38 Luna St, La Paz, Iloilo City, Iloilo", "contact_mobile": null, "contact_landline": null, "barangay": "San Nicolas", "district": "La Paz", "municity": "Iloilo City", "province": "Iloilo", "email": null, "url": null, "entry_fee": null, "open_time": null, "closing_time": null }, "geometry": { "type": "Point", "coordinates": [ 122.5653412, 10.71204569 ] } },
{ "type": "Feature", "properties": { "name": "Madge Café Lapaz", "category": "Tourism", "type": "Leisure and Entertainment", "facebook": null, "address": "Lapaz Public Market, Cor. Rizal-Huervana Sts., La Paz, Iloilo City, 5000 Iloilo", "contact_mobile": "9519601423", "contact_landline": null, "barangay": "Railway", "district": "La Paz", "municity": "Iloilo City", "province": "Iloilo", "email": null, "url": null, "entry_fee": null, "open_time": null, "closing_time": null }, "geometry": { "type": "Point", "coordinates": [ 122.5679555, 10.70894246 ] } },
{ "type": "Feature", "properties": { "name": "Netong's Lapaz Batchoy Lapaz Market", "category": "Tourism", "type": "Cruise and Nautical", "facebook": "https://www.facebook.com/netongslapazbatchoyofficial", "address": "Public Market, Rizal St, La Paz, Iloilo City, Iloilo", "contact_mobile": "0915 097 4227", "contact_landline": "333962189", "barangay": "Railway", "district": "La Paz", "municity": "Iloilo City", "province": "Iloilo", "email": "operations.netongs@yahoo.com", "url": null, "entry_fee": null, "open_time": "06:00", "closing_time": "20:00" }, "geometry": { "type": "Point", "coordinates": [ 122.5675579, 10.70914809 ] } },
{ "type": "Feature", "properties": { "name": "PEDC Eco Park", "category": "Tourism", "type": "Nature", "facebook": null, "address": "PHHR+529, La Paz, Iloilo City, Iloilo", "contact_mobile": null, "contact_landline": null, "barangay": "Ingore", "district": "La Paz", "municity": "Iloilo City", "province": "Iloilo", "email": null, "url": null, "entry_fee": null, "open_time": null, "closing_time": null }, "geometry": { "type": "Point", "coordinates": [ 122.5901358, 10.72807735 ] } },
{ "type": "Feature", "properties": { "name": "Saint Clement's Church", "category": "Tourism", "type": "Cultural", "facebook": "https://www.facebook.com/stclementschurchiloilo/", "address": "Luna Street, La Paz 5000 Iloilo City, Philippines", "contact_mobile": null, "contact_landline": "333200717", "barangay": "Bantud", "district": "La Paz", "municity": "Iloilo City", "province": "Iloilo", "email": "redemptorist.iloilo@gmail.com", "url": "https://stclementsiloilo.wordpress.com/?fbclid=IwY2xjawKszRVleHRuA2FlbQIxMABicmlkETFleVZ5VlI4MFI3WEc5dGdyAR5K-7Lvzxy7t8DnRpIB-byiSxl3cRQwhdvu3wrph0_llHMfsp8ouWPYDn2Icw_aem_9q7REClMQ_nMu0HIijtgWg", "entry_fee": null, "open_time": "08:00", "closing_time": "17:00" }, "geometry": { "type": "Point", "coordinates": [ 122.5653242, 10.7103482 ] } },
{ "type": "Feature", "properties": { "name": "Ted's Lapaz Batchoy Lapaz Market", "category": "Tourism", "type": "Leisure and Entertainment", "facebook": "https://www.facebook.com/tedslapazbatchoy", "address": "PH59+G27, Lapaz Public Market Rizal St., Lapaz, Iloilo City, 5000 Iloilo", "contact_mobile": "9477416185", "contact_landline": null, "barangay": "Railway", "district": "La Paz", "municity": "Iloilo City", "province": "Iloilo", "email": null, "url": null, "entry_fee": null, "open_time": "07:00", "closing_time": "19:00" }, "geometry": { "type": "Point", "coordinates": [ 122.5676688, 10.70885815 ] } },
{ "type": "Feature", "properties": { "name": "Iloilo City Garden of Love", "category": "Tourism", "type": "Leisure and Entertainment", "facebook": null, "address": "PH26+V3Q, La Paz, Iloilo City, Iloilo", "contact_mobile": null, "contact_landline": "333331111", "barangay": "Nabitasan", "district": "La Paz", "municity": "Iloilo City", "province": "Iloilo", "email": null, "url": null, "entry_fee": null, "open_time": "06:00", "closing_time": "21:30" }, "geometry": { "type": "Point", "coordinates": [ 122.5608755, 10.702269 ] } },
{ "type": "Feature", "properties": { "name": "Urban Inn Iloilo", "category": "Tourism", "type": "Accommodation", "facebook": "https://www.facebook.com/UrbanInnIloilo", "address": "Luna Street, Iloilo City, Philippines", "contact_mobile": "0917 320 8996", "contact_landline": null, "barangay": "San Nicolas", "district": "La Paz", "municity": "Iloilo City", "province": "Iloilo", "email": "urbaninniloilo.frontdesk@gmail.com", "url": "www.urbaninniloilo.com", "entry_fee": null, "open_time": "Open 24 Hours", "closing_time": "Open 24 Hours" }, "geometry": { "type": "Point", "coordinates": [ 122.5665266, 10.70976548 ] } },
{ "type": "Feature", "properties": { "name": "Inday's Pata-Linaga-an sa La Grangja", "category": "Tourism", "type": "Leisure and Entertainment", "facebook": "https://www.facebook.com/p/Indays-Pata-Nilagaan-sa-La-granja-100084818053555/", "address": "0163 Zone 2 Barangay Baldoza La Paz, Iloilo City, Philippines", "contact_mobile": "0949 178 1978", "contact_landline": null, "barangay": "Baldoza", "district": "La Paz", "municity": "Iloilo City", "province": "Iloilo", "email": null, "url": null, "entry_fee": null, "open_time": "Open 24 Hours", "closing_time": "Open 24 Hours" }, "geometry": { "type": "Point", "coordinates": [ 122.5756863, 10.71426576 ] } },
{ "type": "Feature", "properties": { "name": "Lapaz District Plaza", "category": "Tourism", "type": "Nature", "facebook": null, "address": "La Paz, Iloilo City, Iloilo", "contact_mobile": null, "contact_landline": null, "barangay": "Burgos-Mabini-Plaza", "district": "La Paz", "municity": "Iloilo City", "province": "Iloilo", "email": null, "url": null, "entry_fee": null, "open_time": null, "closing_time": null }, "geometry": { "type": "Point", "coordinates": [ 122.5709116, 10.71180636 ] } },
{ "type": "Feature", "properties": { "name": "St. Therese MTC Colleges - Magdalo Site ", "category": "Tourism", "type": "Education", "facebook": "https://www.facebook.com/STMTCCMAGDALOOFFICIAL/", "address": "Magdalo, La Paz, Iloilo City, Philippines", "contact_mobile": "0999 672 0480", "contact_landline": null, "barangay": "Magdalo", "district": "La Paz", "municity": "Iloilo City", "province": "Iloilo", "email": "registrar.magdalo@stmtcc.edu.ph", "url": "stmtcc.edu.ph", "entry_fee": null, "open_time": null, "closing_time": null }, "geometry": { "type": "Point", "coordinates": [ 122.5670778, 10.71123635 ] } },
{ "type": "Feature", "properties": { "name": "Balay Sang Amo Food Products", "category": "Tourism", "type": "Leisure and Entertainment", "facebook": "https://www.facebook.com/balaysangamo/", "address": "59 Rizal St, La Paz, Iloilo City, 5000 Iloilo", "contact_mobile": "9977282781", "contact_landline": null, "barangay": "Rizal (La Paz)", "district": "La Paz", "municity": "Iloilo City", "province": "Iloilo", "email": null, "url": null, "entry_fee": null, "open_time": "06:00", "closing_time": "21:00" }, "geometry": { "type": "Point", "coordinates": [ 122.5696249, 10.70683848 ] } }
]
}
