{
"type": "FeatureCollection",
"name": "TOURISM_SAN_MIGUEL_TourismSpots_Insights",
"crs": { "type": "name", "properties": { "name": "urn:ogc:def:crs:OGC:1.3:CRS84" } },
"features": [
{ "type": "Feature", "properties": { "name": "Kandingan Sa Hi-Way", "category": "Tourism", "type": "Leisure and Entertainment", "address": "Brgy. 1 Roxas St, San Miguel, 5025 Iloilo", "contact_mobile": "9219914948", "contact_landline": null, "email": null, "barangay": "Barangay 1", "district": null, "municity": "San Miguel", "province": "Iloilo", "facebook": null, "url": null, "entry_fee": null, "open_time": "08:00", "closing_time": "17:00" }, "geometry": { "type": "Point", "coordinates": [ 122.472923, 10.776856 ] } },
{ "type": "Feature", "properties": { "name": "Ching's Arrozcaldohan ", "category": "Tourism", "type": "Leisure and Entertainment", "address": "Brgy. 09, Salazar St. San Miguel, Iloilo City, Philippines", "contact_mobile": "0909 038 1579", "contact_landline": null, "email": null, "barangay": "Barangay 9", "district": null, "municity": "San Miguel", "province": "Iloilo", "facebook": "https://www.facebook.com/profile.php?id=100063615593355&locale=tl_PH", "url": null, "entry_fee": null, "open_time": "08:00", "closing_time": "20:00" }, "geometry": { "type": "Point", "coordinates": [ 122.4658252, 10.78195731 ] } },
{ "type": "Feature", "properties": { "name": "San Miguel Municipal Gym", "category": "Tourism", "type": "MICE", "address": "San Miguel Municipal Gym", "contact_mobile": null, "contact_landline": null, "email": null, "barangay": "Barangay 1", "district": null, "municity": "San Miguel", "province": "Iloilo", "facebook": null, "url": null, "entry_fee": null, "open_time": null, "closing_time": null }, "geometry": { "type": "Point", "coordinates": [ 122.4653599, 10.78188946 ] } },
{ "type": "Feature", "properties": { "name": "San Miguel Plaza", "category": "Tourism", "type": "Nature", "address": "QFJ8+H7V, San Miguel, Iloilo", "contact_mobile": null, "contact_landline": null, "email": null, "barangay": "Barangay 1", "district": null, "municity": "San Miguel", "province": "Iloilo", "facebook": null, "url": null, "entry_fee": null, "open_time": null, "closing_time": null }, "geometry": { "type": "Point", "coordinates": [ 122.4656662, 10.78148478 ] } },
{ "type": "Feature", "properties": { "name": "Leonora S. Salapantan National High School", "category": "Tourism", "type": "Education", "address": "San Miguel, Iloilo, San Miguel, Philippines", "contact_mobile": null, "contact_landline": null, "email": "302516@deped.gov.ph", "barangay": "Barangay 10", "district": null, "municity": "San Miguel", "province": "Iloilo", "facebook": "https://www.facebook.com/lssnhsofficial?locale=tl_PH", "url": null, "entry_fee": null, "open_time": "08:00", "closing_time": "16:30" }, "geometry": { "type": "Point", "coordinates": [ 122.4601312, 10.77212752 ] } },
{ "type": "Feature", "properties": { "name": "Popoy's Original Lapaz Special Batchoy", "category": "Tourism", "type": "Leisure and Entertainment", "address": "QFG4+MP5, Iloilo City - Aleosan Rd, San Miguel, Iloilo", "contact_mobile": "0907 096 0874", "contact_landline": null, "email": null, "barangay": "Igtambo", "district": null, "municity": "San Miguel", "province": "Iloilo", "facebook": "https://www.facebook.com/popoysbatchoy.iloilo/", "url": "https://popoysbatchoys.com/", "entry_fee": null, "open_time": "07:00", "closing_time": "18:00" }, "geometry": { "type": "Point", "coordinates": [ 122.456861, 10.77662182 ] } },
{ "type": "Feature", "properties": { "name": "Chillax Café", "category": "Tourism", "type": "Leisure and Entertainment", "address": "San Agustin St San Miguel, Iloilo", "contact_mobile": null, "contact_landline": null, "email": null, "barangay": "Barangay 16", "district": null, "municity": "San Miguel", "province": "Iloilo", "facebook": null, "url": null, "entry_fee": null, "open_time": "09:00", "closing_time": "20:00" }, "geometry": { "type": "Point", "coordinates": [ 122.4588491, 10.77492966 ] } },
{ "type": "Feature", "properties": { "name": "JB's Coffee Mix Shop", "category": "Tourism", "type": "Leisure and Entertainment", "address": "Municipality of, Brgy, San Miguel, Iloilo", "contact_mobile": null, "contact_landline": null, "email": null, "barangay": "Santo Niño", "district": null, "municity": "San Miguel", "province": "Iloilo", "facebook": "https://www.facebook.com/brewingclubcompany?locale=tl_PH", "url": null, "entry_fee": null, "open_time": "08:00", "closing_time": "22:00" }, "geometry": { "type": "Point", "coordinates": [ 122.4770551, 10.78671294 ] } },
{ "type": "Feature", "properties": { "name": "Golden Haven Memorial Park", "category": "Tourism", "type": "Cultural", "address": "Aleosan Rd, San Miguel, 5025 Iloilo", "contact_mobile": "9998872928", "contact_landline": null, "email": "ghiloilo@goldenhaven.com.ph", "barangay": "San Jose", "district": null, "municity": "San Miguel", "province": "Iloilo", "facebook": "https://www.facebook.com/OfficialGoldenHavenIloilo", "url": "http://www.goldenhaven.com.ph/", "entry_fee": null, "open_time": "08:00", "closing_time": "17:00" }, "geometry": { "type": "Point", "coordinates": [ 122.4950131, 10.76871888 ] } },
{ "type": "Feature", "properties": { "name": "Gallo Agri Tourism Park", "category": "Tourism", "type": "Nature", "address": "Canal 3 San Jose San Miguel Iloilo Philippines , San Miguel, Philippines", "contact_mobile": "9367906957", "contact_landline": null, "email": null, "barangay": "San Jose", "district": null, "municity": "San Miguel", "province": "Iloilo", "facebook": "https://www.facebook.com/GalloAgritourismPark", "url": null, "entry_fee": null, "open_time": "08:00", "closing_time": "20:00" }, "geometry": { "type": "Point", "coordinates": [ 122.4845895, 10.76156397 ] } },
{ "type": "Feature", "properties": { "name": "Camp Goducate ", "category": "Tourism", "type": "MICE", "address": "Brgy. Sto. Anghel 5025 San Miguel, Philippines", "contact_mobile": "0969 150 0109", "contact_landline": "333353344", "email": "goducate.mktg@gmail.com", "barangay": "Santo Angel", "district": null, "municity": "San Miguel", "province": "Iloilo", "facebook": "https://www.facebook.com/gtc.iloilo", "url": null, "entry_fee": null, "open_time": "Open 24 Hours", "closing_time": "Open 24 Hours" }, "geometry": { "type": "Point", "coordinates": [ 122.4227547, 10.76881644 ] } }
]
}
