{
"type": "FeatureCollection",
"name": "TOURISM_LEGANES_TourismSpots_Insights",
"crs": { "type": "name", "properties": { "name": "urn:ogc:def:crs:OGC:1.3:CRS84" } },
"features": [
{ "type": "Feature", "properties": { "name": "Farmer's Cafe", "category": "Tourism", "type": "Leisure and Entertainment", "address": "Iloilo Radial By-Pass Rd 4, Leganes, 5000 Iloilo", "contact_mobile": null, "contact_landline": null, "email": null, "barangay": "San Vicente", "district": null, "municity": "Leganes", "province": "Iloilo", "facebook": "https://www.facebook.com/p/Farmers-Cafe-100065473059519/", "url": null, "entry_fee": null, "open_time": "19:00", "closing_time": "19:00" }, "geometry": { "type": "Point", "coordinates": [ 122.5802712, 10.79553463 ] } },
{ "type": "Feature", "properties": { "name": "Leganes Town Plaza", "category": "Tourism", "type": "Cultural", "address": "QHPQ+4H2, Jaro, Leganes, Iloilo", "contact_mobile": null, "contact_landline": null, "email": null, "barangay": "Poblacion", "district": null, "municity": "Leganes", "province": "Iloilo", "facebook": null, "url": null, "entry_fee": null, "open_time": "Open 24 Hours", "closing_time": "Open 24 Hours" }, "geometry": { "type": "Point", "coordinates": [ 122.5897803, 10.78542542 ] } },
{ "type": "Feature", "properties": { "name": "Lagoon Fountain", "category": "Tourism", "type": "Cultural", "address": "QHPQ+4W8, Brgy.Poblacion, Leganes, Iloilo City, 5003 Iloilo", "contact_mobile": null, "contact_landline": null, "email": null, "barangay": "Poblacion", "district": null, "municity": "Leganes", "province": "Iloilo", "facebook": null, "url": null, "entry_fee": null, "open_time": "Open 24 Hours", "closing_time": "Open 24 Hours" }, "geometry": { "type": "Point", "coordinates": [ 122.5905166, 10.78533619 ] } },
{ "type": "Feature", "properties": { "name": "Tibz Batchoyan", "category": "Tourism", "type": "Leisure and Entertainment", "address": "QHMQ+C43, Hilado St, Subd, Leganes, Iloilo", "contact_mobile": "0938 013 7074", "contact_landline": null, "email": null, "barangay": "Poblacion", "district": null, "municity": "Leganes", "province": "Iloilo", "facebook": "https://www.facebook.com/tibzbatchoyan/", "url": null, "entry_fee": null, "open_time": "19:00", "closing_time": "19:00" }, "geometry": { "type": "Point", "coordinates": [ 122.5877952, 10.78350464 ] } },
{ "type": "Feature", "properties": { "name": "Barco's Milktea", "category": "Tourism", "type": "Leisure and Entertainment", "address": "QHMV+W24, Leganes, Iloilo", "contact_mobile": "9164163646", "contact_landline": null, "email": null, "barangay": "Poblacion", "district": null, "municity": "Leganes", "province": "Iloilo", "facebook": null, "url": null, "entry_fee": null, "open_time": null, "closing_time": null }, "geometry": { "type": "Point", "coordinates": [ 122.5925998, 10.78475052 ] } },
{ "type": "Feature", "properties": { "name": "Huervana Farm", "category": "Tourism", "type": "Nature", "address": "Brgy. Cari Minor, Leganes, Philippines", "contact_mobile": "0963 039 9135", "contact_landline": null, "email": "huervanafarm@gmail.com", "barangay": "Cari Minor", "district": null, "municity": "Leganes", "province": "Iloilo", "facebook": "https://www.facebook.com/p/Huervana-Farm-100075884982098/", "url": null, "entry_fee": null, "open_time": "Open 24 Hours", "closing_time": "Open 24 Hours" }, "geometry": { "type": "Point", "coordinates": [ 122.5998863, 10.79082456 ] } },
{ "type": "Feature", "properties": { "name": "La Maison Du Leganes", "category": "Tourism", "type": "Leisure and Entertainment", "address": "Calle Progreso, Leganes, 5003 Iloilo", "contact_mobile": null, "contact_landline": "333295587", "email": null, "barangay": "Guinobatan", "district": null, "municity": "Leganes", "province": "Iloilo", "facebook": "https://www.facebook.com/lamaisonduleganes/", "url": null, "entry_fee": null, "open_time": "22:00", "closing_time": "22:00" }, "geometry": { "type": "Point", "coordinates": [ 122.5960963, 10.78076093 ] } },
{ "type": "Feature", "properties": { "name": "Leganes Prosperity Garden", "category": "Tourism", "type": "Nature", "address": "QHJW+8P6, Leganes, Iloilo", "contact_mobile": null, "contact_landline": null, "email": null, "barangay": "Guinobatan", "district": null, "municity": "Leganes", "province": "Iloilo", "facebook": null, "url": null, "entry_fee": null, "open_time": "16:00", "closing_time": "16:00" }, "geometry": { "type": "Point", "coordinates": [ 122.5967674, 10.78078699 ] } },
{ "type": "Feature", "properties": { "name": "Marie's Garden Inland Resort", "category": "Tourism", "type": "Leisure and Entertainment", "address": "QHPV+2Q8, Leganes, Iloilo", "contact_mobile": "9989355934", "contact_landline": null, "email": null, "barangay": "Guinobatan", "district": null, "municity": "Leganes", "province": "Iloilo", "facebook": "https://www.facebook.com/profile.php?id=100065464569756#", "url": null, "entry_fee": null, "open_time": "17:00", "closing_time": "17:00" }, "geometry": { "type": "Point", "coordinates": [ 122.5944492, 10.78504167 ] } },
{ "type": "Feature", "properties": { "name": "Whitehaven Gardens Leganes Site", "category": "Tourism", "type": "Cultural", "address": "Calle Progreso, Leganes, Iloilo", "contact_mobile": "9236851936", "contact_landline": null, "email": null, "barangay": "Napnud", "district": null, "municity": "Leganes", "province": "Iloilo", "facebook": null, "url": "http://whitehavengardens.com/", "entry_fee": null, "open_time": "19:00", "closing_time": "19:00" }, "geometry": { "type": "Point", "coordinates": [ 122.6008633, 10.77762226 ] } },
{ "type": "Feature", "properties": { "name": "Whitehaven Gardens Leganes Site", "category": "Tourism", "type": "Cultural", "address": "Calle Progreso, Leganes, Iloilo", "contact_mobile": "9236851936", "contact_landline": null, "email": null, "barangay": "Napnud", "district": null, "municity": "Leganes", "province": "Iloilo", "facebook": null, "url": "https://whitehavengardens.com/", "entry_fee": null, "open_time": "19:00", "closing_time": "19:00" }, "geometry": { "type": "Point", "coordinates": [ 122.6003168, 10.77744101 ] } },
{ "type": "Feature", "properties": { "name": "Coastal Hotel", "category": "Tourism", "type": "Accommodation", "address": "Napnud, Leganes, Leganes, Philippines", "contact_mobile": null, "contact_landline": "(033) 325 0593", "email": "coastalhotelinc@gmail.com", "barangay": "Napnud", "district": null, "municity": "Leganes", "province": "Iloilo", "facebook": "https://www.facebook.com/coastalhotelIloilo", "url": null, "entry_fee": null, "open_time": "Open 24 Hours", "closing_time": "Open 24 Hours" }, "geometry": { "type": "Point", "coordinates": [ 122.6004839, 10.77489863 ] } },
{ "type": "Feature", "properties": { "name": "TreeView Farm Stays", "category": "Tourism", "type": "Accommodation", "address": "NIA Road, Leganes, 5003 Iloilo", "contact_mobile": "9171782906", "contact_landline": null, "email": null, "barangay": "Cagamutan Norte", "district": null, "municity": "Leganes", "province": "Iloilo", "facebook": null, "url": null, "entry_fee": null, "open_time": null, "closing_time": null }, "geometry": { "type": "Point", "coordinates": [ 122.5932845, 10.80226157 ] } },
{ "type": "Feature", "properties": { "name": "Uncommon Grounds Bistro", "category": "Tourism", "type": "Leisure and Entertainment", "address": "NIA Road, Cagamutan Norte, Leganes, Philippines, Leganes, Philippines", "contact_mobile": "9171782906", "contact_landline": null, "email": "uncommongrounds.ph@gmail.com", "barangay": "Cagamutan Norte", "district": null, "municity": "Leganes", "province": "Iloilo", "facebook": "https://www.facebook.com/p/Uncommon-Grounds-Bistro-61567135876248/", "url": null, "entry_fee": null, "open_time": "21:00", "closing_time": "21:00" }, "geometry": { "type": "Point", "coordinates": [ 122.5928687, 10.80144567 ] } },
{ "type": "Feature", "properties": { "name": "Zarcrème Coffee", "category": "Tourism", "type": "Leisure and Entertainment", "address": "QH7W+R84, Coastal Road, Jaro, Leganes, 5000 Iloilo", "contact_mobile": null, "contact_landline": "(033) 326 0113", "email": null, "barangay": "Camangay", "district": null, "municity": "Leganes", "province": "Iloilo", "facebook": "https://www.facebook.com/zarcremecoffee", "url": null, "entry_fee": null, "open_time": "Open 24 Hours", "closing_time": "Open 24 Hours" }, "geometry": { "type": "Point", "coordinates": [ 122.5958419, 10.76450297 ] } },
{ "type": "Feature", "properties": { "name": "Sea Garden Resort ", "category": "Tourism", "type": "Leisure and Entertainment", "address": "Camangay, Leganes, Iloilo City, Philippines", "contact_mobile": "0907 723 2074", "contact_landline": null, "email": "seagardenresort@yahoo.com.ph", "barangay": "Camangay", "district": null, "municity": "Leganes", "province": "Iloilo", "facebook": "https://www.facebook.com/seagardenresort", "url": null, "entry_fee": null, "open_time": "Open 24 Hours", "closing_time": "Open 24 Hours" }, "geometry": { "type": "Point", "coordinates": [ 122.595054, 10.761165 ] } },
{ "type": "Feature", "properties": { "name": "Tytche Grill and Seafood Restaurant", "category": "Tourism", "type": "Leisure and Entertainment", "address": "QH7W+Q26, Jaro, Leganes, Iloilo", "contact_mobile": "9199370817", "contact_landline": null, "email": null, "barangay": "Camangay", "district": null, "municity": "Leganes", "province": "Iloilo", "facebook": null, "url": null, "entry_fee": null, "open_time": "20:00", "closing_time": "20:00" }, "geometry": { "type": "Point", "coordinates": [ 122.5950067, 10.76440425 ] } },
{ "type": "Feature", "properties": { "name": "Kumidor Seafood Restaurant", "category": "Tourism", "type": "Leisure and Entertainment", "address": "QH7W+FC7, Coastal Road, Jaro, Leganes, Iloilo", "contact_mobile": null, "contact_landline": "333934929", "email": null, "barangay": "Camangay", "district": null, "municity": "Leganes", "province": "Iloilo", "facebook": null, "url": null, "entry_fee": null, "open_time": "21:00", "closing_time": "21:00" }, "geometry": { "type": "Point", "coordinates": [ 122.5960181, 10.7636781 ] } },
{ "type": "Feature", "properties": { "name": "Nick Seafood Grill and Restaurant", "category": "Tourism", "type": "Leisure and Entertainment", "address": "Jaro, Leganes, Iloilo", "contact_mobile": "9154244600", "contact_landline": null, "email": null, "barangay": "Camangay", "district": null, "municity": "Leganes", "province": "Iloilo", "facebook": null, "url": null, "entry_fee": null, "open_time": "21:00", "closing_time": "21:00" }, "geometry": { "type": "Point", "coordinates": [ 122.5955605, 10.76263791 ] } },
{ "type": "Feature", "properties": { "name": "Gua-An Multi-Purpose Hall", "category": "Tourism", "type": "MICE", "address": "QJJ7+JV3, Coastal Rd, Leganes, Iloilo", "contact_mobile": null, "contact_landline": null, "email": null, "barangay": "Gua-an", "district": null, "municity": "Leganes", "province": "Iloilo", "facebook": null, "url": null, "entry_fee": null, "open_time": null, "closing_time": null }, "geometry": { "type": "Point", "coordinates": [ 122.6146638, 10.78150782 ] } },
{ "type": "Feature", "properties": { "name": "Katunggan Park", "category": "Tourism", "type": "Nature", "address": "QJJF+9Q9, Gua an, Leganes, Iloilo City, Iloilo", "contact_mobile": null, "contact_landline": null, "email": null, "barangay": "Nabitasan", "district": null, "municity": "Leganes", "province": "Iloilo", "facebook": null, "url": null, "entry_fee": null, "open_time": "Open 24 Hours", "closing_time": "Open 24 Hours" }, "geometry": { "type": "Point", "coordinates": [ 122.6258452, 10.78152158 ] } }
]
}
