{
"type": "FeatureCollection",
"name": "BOUNDARIES_Cabatuan_Municipal",
"crs": { "type": "name", "properties": { "name": "urn:ogc:def:crs:OGC:1.3:CRS84" } },
"features": [
{ "type": "Feature", "properties": { "psgc": "0603012000", "admin_type": "Municipality", "region": "Region VI (Western Visayas)", "province": "Iloilo", "municity": "Cabatuan", "barangay": null, "population": "62,717" }, "geometry": { "type": "MultiPolygon", "coordinates": [ [ [ [ 122.468910621411339, 10.822484527751877 ], [ 122.468755146238223, 10.822371647119654 ], [ 122.468679124450034, 10.822316452535587 ], [ 122.468597601370192, 10.822321809030083 ], [ 122.468230367850197, 10.822700325011017 ], [ 122.467776829464825, 10.822701749287916 ], [ 122.467548237651627, 10.822909677333783 ], [ 122.467491157608222, 10.823235381944292 ], [ 122.467078927107082, 10.823551871473663 ], [ 122.46661965913718, 10.823121316704812 ], [ 122.466205473482816, 10.823108579917797 ], [ 122.46584092418432, 10.822980032110259 ], [ 122.465408058982121, 10.822943740395473 ], [ 122.465003395299831, 10.822909813115418 ], [ 122.464997530242655, 10.82290659726841 ], [ 122.464994091457058, 10.822909033074874 ], [ 122.464895407617306, 10.822900759354214 ], [ 122.464751111208557, 10.822948394516782 ], [ 122.46392570445245, 10.823567598305415 ], [ 122.462711222533116, 10.823373853462282 ], [ 122.46265244567364, 10.823623174835992 ], [ 122.462043994532436, 10.823209255925182 ], [ 122.461380673138251, 10.822925198791419 ], [ 122.461195868889675, 10.822846059228581 ], [ 122.460858088051324, 10.82283968326246 ], [ 122.460439190474162, 10.822831776133171 ], [ 122.46020798554062, 10.822827411898567 ], [ 122.460088718626778, 10.822825160610998 ], [ 122.459777149782838, 10.82281927942365 ], [ 122.459507238593318, 10.823334072636614 ], [ 122.459363142851885, 10.823608901960435 ], [ 122.45921048025987, 10.824099570541719 ], [ 122.459033529098193, 10.824668304337647 ], [ 122.458563791275694, 10.824472448720654 ], [ 122.45811706625399, 10.824286188214131 ], [ 122.457908980247836, 10.824690139332501 ], [ 122.457736703555085, 10.825024574905534 ], [ 122.457376983773329, 10.825559980708073 ], [ 122.457804750423492, 10.826093471517035 ], [ 122.457862543680406, 10.826190786013775 ], [ 122.457751089305333, 10.826554301505258 ], [ 122.457395022217881, 10.826652350970399 ], [ 122.457201120751037, 10.826993687787702 ], [ 122.457224849052281, 10.827074216065055 ], [ 122.457277394551738, 10.827330287741018 ], [ 122.457390600108241, 10.82788197602793 ], [ 122.457474432091075, 10.828006860629179 ], [ 122.457474432091075, 10.82802617926988 ], [ 122.45749893537716, 10.828043363202637 ], [ 122.457935217497379, 10.828693293178929 ], [ 122.458016779581783, 10.828860334095586 ], [ 122.45739555640067, 10.829148403136834 ], [ 122.457387411183888, 10.829229693699205 ], [ 122.457373810507235, 10.829233638275838 ], [ 122.457373810507235, 10.829365430621046 ], [ 122.45733664579916, 10.829736340334154 ], [ 122.457380720990116, 10.829887302635392 ], [ 122.457750909134816, 10.830072787589398 ], [ 122.45781371332356, 10.830163473300491 ], [ 122.457742860955108, 10.830382638286183 ], [ 122.457509362058943, 10.831104911702861 ], [ 122.457362201841306, 10.830929677391534 ], [ 122.457261896661166, 10.830756889403927 ], [ 122.4571712683925, 10.830690331899149 ], [ 122.457093765340446, 10.830633413568558 ], [ 122.457022902228687, 10.83058137161775 ], [ 122.456901095823355, 10.830651304617763 ], [ 122.456766193380147, 10.830831105079856 ], [ 122.456633138448751, 10.830885302111717 ], [ 122.456591952897043, 10.831104841114652 ], [ 122.456332483171281, 10.831089877136042 ], [ 122.456212434333906, 10.831114551458077 ], [ 122.456168064909221, 10.831195759160519 ], [ 122.456166351501281, 10.831195759160519 ], [ 122.456166351501281, 10.831198895147141 ], [ 122.45615147096629, 10.831226130435097 ], [ 122.456107913606516, 10.83130585184545 ], [ 122.456118429919059, 10.831375714859469 ], [ 122.456132811353385, 10.831398929814611 ], [ 122.456202133517792, 10.831505786375685 ], [ 122.456217299700697, 10.831535432144063 ], [ 122.456238198179221, 10.831640336295953 ], [ 122.456049244717065, 10.83183237919472 ], [ 122.455187760394082, 10.832360053006839 ], [ 122.454808241398553, 10.832369762291764 ], [ 122.454703719673191, 10.832561075400287 ], [ 122.454548042059756, 10.832710129082011 ], [ 122.454260895607305, 10.832956879185028 ], [ 122.454083287613329, 10.833141833321484 ], [ 122.454083329730338, 10.833337659272335 ], [ 122.453822007341458, 10.833453973655796 ], [ 122.45380797150726, 10.833685713859429 ], [ 122.453861576408229, 10.833868286495042 ], [ 122.454017386959279, 10.834027665388199 ], [ 122.454099107592597, 10.83411893613834 ], [ 122.454178824537607, 10.834219601598956 ], [ 122.45441985681822, 10.834398855389821 ], [ 122.454461171778959, 10.834426312027645 ], [ 122.454698818515908, 10.834509282789034 ], [ 122.454707970227076, 10.834638675419761 ], [ 122.454680918811064, 10.834680245766409 ], [ 122.454563073765073, 10.834819748436656 ], [ 122.454507934259425, 10.834907448356889 ], [ 122.454477853468433, 10.835365865375925 ], [ 122.454409928973433, 10.83568602905614 ], [ 122.454195502522808, 10.835891269805821 ], [ 122.453898041586427, 10.836140547530817 ], [ 122.453724003088482, 10.836291675079764 ], [ 122.453558401051453, 10.836451091436533 ], [ 122.453432147028863, 10.836621705724784 ], [ 122.453523453618203, 10.836867393089006 ], [ 122.453525177856406, 10.836914160731784 ], [ 122.453514173972607, 10.836946911583347 ], [ 122.453502091481923, 10.83698605336796 ], [ 122.453385856314114, 10.837136585456111 ], [ 122.453361171642428, 10.837156215400023 ], [ 122.453060794203097, 10.837277528579168 ], [ 122.452727408567327, 10.837430388683877 ], [ 122.452616323540184, 10.837487960757649 ], [ 122.452446031339022, 10.83755731293728 ], [ 122.452432087901371, 10.837593103516495 ], [ 122.452419041338914, 10.837642676918087 ], [ 122.452387375647675, 10.837753751367051 ], [ 122.452367659056137, 10.837900687603719 ], [ 122.452349052910535, 10.837955757850773 ], [ 122.45229984503662, 10.838053003677439 ], [ 122.452268283276695, 10.838112631731544 ], [ 122.452165375619174, 10.838241883968264 ], [ 122.451990448058098, 10.838316735257216 ], [ 122.451702821530517, 10.838332480049759 ], [ 122.451634182311082, 10.838353200245507 ], [ 122.451588069437022, 10.838339891612433 ], [ 122.451587910903768, 10.838367168245508 ], [ 122.451363930768309, 10.838547439183937 ], [ 122.451395484122571, 10.838644294781826 ], [ 122.451582379323128, 10.838900817748923 ], [ 122.451545961142813, 10.839075268623237 ], [ 122.451472763543791, 10.839145806219967 ], [ 122.451383809994965, 10.839233755520725 ], [ 122.45115312929326, 10.839440744130131 ], [ 122.450915556237959, 10.839413131822614 ], [ 122.450833256830791, 10.839396684370863 ], [ 122.45078143043753, 10.839416752728239 ], [ 122.450736992643641, 10.839441434890585 ], [ 122.450499866120978, 10.839634624864056 ], [ 122.450255128871916, 10.83993252431058 ], [ 122.450018718725715, 10.840224556238459 ], [ 122.449909331260159, 10.84035968001789 ], [ 122.449886151145662, 10.840389932832826 ], [ 122.449877502511924, 10.840410121034544 ], [ 122.449875930480644, 10.840413790571901 ], [ 122.44987032606646, 10.840441335806609 ], [ 122.449869306194131, 10.840488186178209 ], [ 122.44986783118334, 10.840759195629548 ], [ 122.449855656742642, 10.840766880671536 ], [ 122.449424888296591, 10.840753379742122 ], [ 122.449287826460903, 10.840851301158141 ], [ 122.449107253001202, 10.840972988284394 ], [ 122.448933118982112, 10.841111229499349 ], [ 122.448554014192666, 10.84154472232659 ], [ 122.448515055210294, 10.841603410799765 ], [ 122.448422505806761, 10.84163990260071 ], [ 122.448396639093119, 10.841626969451259 ], [ 122.44810943031149, 10.841436006725079 ], [ 122.447972547394215, 10.841445733812064 ], [ 122.448023002371059, 10.841645228973794 ], [ 122.447884071481795, 10.841752331446759 ], [ 122.447656555777243, 10.841765482469091 ], [ 122.447556640092913, 10.841786335902357 ], [ 122.447473352978832, 10.841815503520102 ], [ 122.447423367966962, 10.841839251132781 ], [ 122.447343751715451, 10.841882209214138 ], [ 122.447290969961955, 10.841916973337883 ], [ 122.447221529636124, 10.841958122169844 ], [ 122.447115958567878, 10.842031325099649 ], [ 122.447071475125497, 10.842078055116964 ], [ 122.446666287858591, 10.842602423447978 ], [ 122.446618896927902, 10.843167286107143 ], [ 122.446583347489749, 10.843367461896078 ], [ 122.446562858523308, 10.843438144211564 ], [ 122.44653223292174, 10.843491343347189 ], [ 122.44652569212559, 10.843524398040193 ], [ 122.446507095786046, 10.84357395574064 ], [ 122.446477464329064, 10.843593166121371 ], [ 122.446434882588775, 10.843614177996757 ], [ 122.446413603912688, 10.843618712485888 ], [ 122.446387697723438, 10.843625071529953 ], [ 122.446346087638531, 10.84362311885417 ], [ 122.446278576993421, 10.843624769155506 ], [ 122.446217543365705, 10.843624600013962 ], [ 122.445713476569594, 10.843660868893679 ], [ 122.445698622303908, 10.843689307065128 ], [ 122.445675817702693, 10.843987817788825 ], [ 122.445382988676428, 10.844283742142737 ], [ 122.445162429081975, 10.844511883752498 ], [ 122.445105932556785, 10.844553986666304 ], [ 122.445067042087302, 10.844578683340178 ], [ 122.444992050440746, 10.844620734902131 ], [ 122.444922611065408, 10.84466096447856 ], [ 122.444853175434645, 10.84469935667085 ], [ 122.444785224048303, 10.844709651029774 ], [ 122.444757895564138, 10.844713791184082 ], [ 122.444721783075678, 10.844736658146427 ], [ 122.444681054333245, 10.844755837531334 ], [ 122.444642180742022, 10.844772265994997 ], [ 122.44460331279295, 10.844785938402485 ], [ 122.444549607347398, 10.844819780757609 ], [ 122.444347216118828, 10.845206905352798 ], [ 122.44431567648229, 10.845254589563309 ], [ 122.444194997630603, 10.845479956900908 ], [ 122.443738275227588, 10.84587585607648 ], [ 122.443434516957353, 10.846088147316692 ], [ 122.443104742349149, 10.846360080619693 ], [ 122.442984306537909, 10.846465394740934 ], [ 122.442910159627843, 10.846546033025245 ], [ 122.442853618995443, 10.846609265201698 ], [ 122.442858191831093, 10.846634082517747 ], [ 122.442865538949505, 10.84665890755385 ], [ 122.442871955645344, 10.84668648606633 ], [ 122.442878366679381, 10.846716820628588 ], [ 122.442884783377394, 10.846744399140823 ], [ 122.442892085198011, 10.846791272575459 ], [ 122.442893813914154, 10.846850073452885 ], [ 122.442883522618672, 10.846907922193481 ], [ 122.442786307499489, 10.846963691655706 ], [ 122.442766900721153, 10.846957206825529 ], [ 122.44268274930316, 10.846956053923209 ], [ 122.442530176862832, 10.846949198399045 ], [ 122.442425665585176, 10.846955338254427 ], [ 122.442120490501111, 10.84695632580733 ], [ 122.441398837870452, 10.847118760220246 ], [ 122.441326647778212, 10.847147038313942 ], [ 122.441282211889757, 10.84716988163917 ], [ 122.441236834198321, 10.847200990526362 ], [ 122.441184968019215, 10.847239430820885 ], [ 122.441157115360241, 10.847292637078132 ], [ 122.441088588284813, 10.84733838040346 ], [ 122.44103393262867, 10.847384162397358 ], [ 122.440536831066353, 10.847627146731551 ], [ 122.440477604522357, 10.847647192596289 ], [ 122.440107337005259, 10.847821628512778 ], [ 122.440019345993733, 10.847888447069309 ], [ 122.439650040353214, 10.848255766549546 ], [ 122.439622744019601, 10.848287057762489 ], [ 122.439440870415041, 10.848694143816095 ], [ 122.439380600690669, 10.848755411230274 ], [ 122.439356481131384, 10.848798768058378 ], [ 122.439312236209787, 10.848813688447521 ], [ 122.438763942557202, 10.848998585478993 ], [ 122.438735499853166, 10.849008177002656 ], [ 122.43864733624217, 10.848964207344281 ], [ 122.438613305275069, 10.848947235149279 ], [ 122.438556938427737, 10.848977121317771 ], [ 122.438448234864396, 10.849034756845812 ], [ 122.438519586351646, 10.849312796718074 ], [ 122.438686447662491, 10.849963015786221 ], [ 122.438758288206017, 10.850242961395068 ], [ 122.438793419896555, 10.850379861284983 ], [ 122.43895088802725, 10.85099347735142 ], [ 122.439892009594828, 10.854660805538984 ], [ 122.440395515714073, 10.856390239600755 ], [ 122.440666546108034, 10.857117192766559 ], [ 122.441150208823075, 10.858834057289554 ], [ 122.441719752984611, 10.860676700165115 ], [ 122.442203071248898, 10.862240376902514 ], [ 122.442715601056634, 10.86389856157459 ], [ 122.442849992012611, 10.864333355843913 ], [ 122.44319891932092, 10.865462238311986 ], [ 122.443612679441003, 10.866800873994595 ], [ 122.443790054736468, 10.867374735244645 ], [ 122.444231445964306, 10.868802765687679 ], [ 122.44446081377076, 10.869544838002664 ], [ 122.445003334330323, 10.870248648458313 ], [ 122.447276760340003, 10.873197957876272 ], [ 122.450871500674268, 10.8778614047964 ], [ 122.451152043853455, 10.878225352704529 ], [ 122.451666248068676, 10.878892428443196 ], [ 122.452508368622304, 10.880675215572689 ], [ 122.453463077010767, 10.882696353544008 ], [ 122.455104665398608, 10.886171631088459 ], [ 122.45546209546643, 10.886928318146948 ], [ 122.456292319445382, 10.88836892744578 ], [ 122.457573170985782, 10.890591468213435 ], [ 122.457940455627039, 10.891228782580319 ], [ 122.458705282237702, 10.892564971495428 ], [ 122.458706754100234, 10.892558467983495 ], [ 122.459548036923223, 10.894018266650439 ], [ 122.459897378679713, 10.894609460392187 ], [ 122.462031735459931, 10.89822144878948 ], [ 122.463140480497813, 10.900097786545897 ], [ 122.464575483643586, 10.904110630710962 ], [ 122.464799645240788, 10.9047374764151 ], [ 122.464872324707372, 10.904940717344738 ], [ 122.464999534727269, 10.905296447565679 ], [ 122.465164437586452, 10.905757582078309 ], [ 122.465390009131809, 10.906388370562834 ], [ 122.466082020363231, 10.908323511430178 ], [ 122.466316668583872, 10.908979681938117 ], [ 122.467682618256035, 10.912799424903701 ], [ 122.468250844598288, 10.914002372160171 ], [ 122.469146420147538, 10.915898324652728 ], [ 122.469588477225486, 10.916834168892205 ], [ 122.469971946014709, 10.917645980477905 ], [ 122.470525011782442, 10.918421051518596 ], [ 122.47111896003814, 10.92125856454529 ], [ 122.471497485597297, 10.923066922756215 ], [ 122.471696437107482, 10.923585175814228 ], [ 122.471771357174518, 10.923780336704501 ], [ 122.471598301788291, 10.924489567334254 ], [ 122.471957269252016, 10.925329604017055 ], [ 122.472104855067172, 10.926559485810085 ], [ 122.472121142184491, 10.926695211787717 ], [ 122.472145260792132, 10.926896200184679 ], [ 122.475299551752343, 10.931362176494671 ], [ 122.475794563752686, 10.932063035069405 ], [ 122.476149363165504, 10.932565374832105 ], [ 122.476466589810116, 10.933014517507154 ], [ 122.476574581617569, 10.933167416798904 ], [ 122.477945544824436, 10.935108483517542 ], [ 122.478281357346944, 10.935583940851389 ], [ 122.481599965616581, 10.94028256444107 ], [ 122.482691626661151, 10.941828183543787 ], [ 122.483663987914895, 10.943204893041656 ], [ 122.483862923026479, 10.943524101848322 ], [ 122.484627415116975, 10.944750796351698 ], [ 122.485050344913972, 10.94455559798385 ], [ 122.485899778619299, 10.944163551658315 ], [ 122.487017603245633, 10.943647632600008 ], [ 122.487474897738608, 10.94343657360325 ], [ 122.488789047021839, 10.942759208464164 ], [ 122.490411451500322, 10.941922956259614 ], [ 122.49043351306311, 10.941911037576556 ], [ 122.490651495079987, 10.941798640599099 ], [ 122.49082365744998, 10.941709869377078 ], [ 122.49139895273683, 10.941413232744793 ], [ 122.491916319219072, 10.941146465652386 ], [ 122.492264122036033, 10.941004182681812 ], [ 122.492602891013604, 10.940792452070836 ], [ 122.494484085730335, 10.939822461045019 ], [ 122.494922159979808, 10.938836793983683 ], [ 122.495701025016416, 10.938526451495735 ], [ 122.496438372796959, 10.938232651756445 ], [ 122.497036311118038, 10.938462297569178 ], [ 122.497441086914336, 10.938617756858941 ], [ 122.498755309662783, 10.937851126922347 ], [ 122.499740976724127, 10.937084496985753 ], [ 122.500945680910206, 10.938289201171829 ], [ 122.501383755159679, 10.936427385611529 ], [ 122.502040866533903, 10.935551237112563 ], [ 122.502609385558685, 10.935201379251158 ], [ 122.502972980850544, 10.934977628302324 ], [ 122.502980917342342, 10.934696068470492 ], [ 122.50346460784472, 10.934675088613597 ], [ 122.504559793468431, 10.934784607175969 ], [ 122.505654979092142, 10.935551237112563 ], [ 122.506749345374971, 10.935786661054616 ], [ 122.507674185390727, 10.935832903055404 ], [ 122.507901932510123, 10.935844290411374 ], [ 122.508339512053439, 10.93586616938854 ], [ 122.508727472355417, 10.935733502832587 ], [ 122.509083099382636, 10.935283041931452 ], [ 122.509591249451816, 10.934639385177162 ], [ 122.50984119789284, 10.93432278381853 ], [ 122.51025475871171, 10.933798940114633 ], [ 122.511033085523991, 10.933831370398478 ], [ 122.512883204208606, 10.933908458677003 ], [ 122.51354031558283, 10.932046643116703 ], [ 122.514306945519422, 10.931718087429591 ], [ 122.514207273865651, 10.932635321305781 ], [ 122.515292612580751, 10.932375198803815 ], [ 122.515511649705502, 10.931499050304849 ], [ 122.516387798204462, 10.931389531742479 ], [ 122.516982760850595, 10.930667077100752 ], [ 122.517274137055566, 10.930313263137563 ], [ 122.517523535132597, 10.930004387084171 ], [ 122.517778431380947, 10.929700905742452 ], [ 122.517921058077647, 10.929527716182177 ], [ 122.519044377875204, 10.928928612290148 ], [ 122.519243358529593, 10.928822489274475 ], [ 122.519552379975948, 10.928657677836421 ], [ 122.519560315450263, 10.928670933529444 ], [ 122.519344799388463, 10.929856271869289 ], [ 122.520549503574543, 10.930294346118771 ], [ 122.52076625219064, 10.930204034195398 ], [ 122.522079556611502, 10.929656824020038 ], [ 122.522732978473769, 10.929384564910762 ], [ 122.523496672362057, 10.929066359123974 ], [ 122.523663668979651, 10.928996777199975 ], [ 122.524136802295388, 10.928799638318416 ], [ 122.524492171819887, 10.928651567683211 ], [ 122.525164218208573, 10.928627566026472 ], [ 122.525881561310598, 10.928601946629971 ], [ 122.526737151131144, 10.928571389850667 ], [ 122.52755869156627, 10.928542049120841 ], [ 122.527969864733635, 10.928130875953473 ], [ 122.528156816542449, 10.927943924144666 ], [ 122.528677983426434, 10.927422757260679 ], [ 122.528982432877086, 10.927118307810023 ], [ 122.529892931979319, 10.927118307810023 ], [ 122.530296655625534, 10.927118307810023 ], [ 122.530740635101807, 10.927248890008926 ], [ 122.531108474397243, 10.927357078036994 ], [ 122.531401066492961, 10.927443134535734 ], [ 122.532158471185838, 10.927665900621875 ], [ 122.532442505492995, 10.927325059453288 ], [ 122.532706063997693, 10.927008789247651 ], [ 122.532892444639003, 10.926769156994537 ], [ 122.533216029658391, 10.926353119112468 ], [ 122.533472693934286, 10.926023122186315 ], [ 122.533722792966188, 10.926139835067874 ], [ 122.534326698006751, 10.926421657420134 ], [ 122.534647839017822, 10.9265715232253 ], [ 122.534852495314823, 10.926667029497235 ], [ 122.535115472369839, 10.926789752122911 ], [ 122.536101139431182, 10.926680233560539 ], [ 122.537524880741998, 10.926461196435799 ], [ 122.538388982029602, 10.925501258697469 ], [ 122.53880577380265, 10.925026654184768 ], [ 122.539129322453022, 10.924658226448246 ], [ 122.539277177739933, 10.924489862313127 ], [ 122.539466075179249, 10.924489862313127 ], [ 122.540481881926013, 10.924489862313127 ], [ 122.541153710015266, 10.925422842381852 ], [ 122.541796104674461, 10.925256492249721 ], [ 122.542163971763785, 10.925038551227077 ], [ 122.542379418612569, 10.92506535354835 ], [ 122.543329364547645, 10.924818418000239 ], [ 122.543885660972037, 10.923863912980218 ], [ 122.544755157929714, 10.923621060962114 ], [ 122.545957810044541, 10.923285158127049 ], [ 122.546173536992157, 10.923177294653243 ], [ 122.546833958543502, 10.922847083877567 ], [ 122.548476736979069, 10.922956602439937 ], [ 122.548836468022714, 10.92290264278339 ], [ 122.549172385837139, 10.922852255111227 ], [ 122.549487856705639, 10.922804934480951 ], [ 122.550335436157496, 10.922677797563171 ], [ 122.550201654336391, 10.921875106636527 ], [ 122.550048997259026, 10.920958014788821 ], [ 122.5508861453512, 10.920643022809857 ], [ 122.551023043554167, 10.919547837186151 ], [ 122.55170753456899, 10.918863346171335 ], [ 122.551459776311205, 10.916964328020452 ], [ 122.55055918904101, 10.916767836252408 ], [ 122.550536706359964, 10.916826510566334 ], [ 122.549876371520313, 10.916637207328355 ], [ 122.550612348945279, 10.915577789300215 ], [ 122.550137530203344, 10.915261243472253 ], [ 122.549793101242415, 10.915031624164964 ], [ 122.550201654336391, 10.913942149247672 ], [ 122.549106468712679, 10.912162472609149 ], [ 122.549654061524535, 10.910930388782479 ], [ 122.551115472940182, 10.910443251643931 ], [ 122.552528923786767, 10.909972101361737 ], [ 122.55351150251218, 10.908611607741939 ], [ 122.554308600425287, 10.907507933708397 ], [ 122.555626364010877, 10.906660799974802 ], [ 122.556225175266775, 10.906275849881727 ], [ 122.555676176311465, 10.905208888445244 ], [ 122.555354359869895, 10.904590010672994 ], [ 122.554906882633617, 10.903729477526282 ], [ 122.554523105057399, 10.902991443725869 ], [ 122.554339728455702, 10.902638796414923 ], [ 122.553956468543518, 10.902173409378696 ], [ 122.553956468543518, 10.902166270995679 ], [ 122.550773462625685, 10.898301192381171 ], [ 122.548582722307771, 10.895641007709433 ], [ 122.547803188855909, 10.894590332187345 ], [ 122.547400479973831, 10.894047550650631 ], [ 122.546835059727158, 10.892762504635471 ], [ 122.54669985037026, 10.89243592564805 ], [ 122.546435375822966, 10.891797124962645 ], [ 122.545307873840443, 10.889073804149488 ], [ 122.544557928071455, 10.887262416716823 ], [ 122.544221652878576, 10.88677173815779 ], [ 122.542695856008891, 10.884545359806868 ], [ 122.541590964587115, 10.882933148908762 ], [ 122.541233704931159, 10.88241185070749 ], [ 122.541064099888473, 10.882164370192388 ], [ 122.540718240695, 10.881659707064482 ], [ 122.540441137826875, 10.881131290715686 ], [ 122.539739968793157, 10.879794208991475 ], [ 122.538870120444514, 10.878135467270345 ], [ 122.538306417229947, 10.877060523526669 ], [ 122.537503893941036, 10.87553016612177 ], [ 122.535011938230738, 10.873414680311045 ], [ 122.534587164934891, 10.873054079247213 ], [ 122.533727590372521, 10.872304572074112 ], [ 122.532483957085773, 10.871492252677776 ], [ 122.530602273846824, 10.869761104097943 ], [ 122.527615420397993, 10.86701319892502 ], [ 122.527045937066518, 10.865998806740825 ], [ 122.525456446649599, 10.863167526935701 ], [ 122.524936125701814, 10.86224070524746 ], [ 122.523127776403513, 10.859019583059856 ], [ 122.522846335993407, 10.858518267329355 ], [ 122.522486637411831, 10.857877554230903 ], [ 122.521918385724234, 10.856865355912403 ], [ 122.521916825132948, 10.856862576109163 ], [ 122.521586633408603, 10.85627442210016 ], [ 122.521383693437642, 10.855912935276887 ], [ 122.521383693437642, 10.85558716833703 ], [ 122.521383693437642, 10.855426188294471 ], [ 122.521383693437642, 10.855221062877058 ], [ 122.521383693437642, 10.855090623816427 ], [ 122.521383693437642, 10.854085218858105 ], [ 122.521498461680196, 10.853760503164755 ], [ 122.521383693437642, 10.852602330329198 ], [ 122.521306187972741, 10.851986400135916 ], [ 122.521283582966049, 10.851806759820764 ], [ 122.521120754674712, 10.850512775440777 ], [ 122.520103076079891, 10.849861335201041 ], [ 122.519472756357445, 10.849457852575783 ], [ 122.519084763510165, 10.8487521623364 ], [ 122.516175196767932, 10.843460175988643 ], [ 122.513098992852974, 10.837865106150735 ], [ 122.511127515611463, 10.83427933838141 ], [ 122.510598049164329, 10.833316332732091 ], [ 122.510050918820355, 10.832321199584362 ], [ 122.509082069369924, 10.831631073718418 ], [ 122.507631512460009, 10.830597820468286 ], [ 122.50640466787074, 10.829370975879014 ], [ 122.505420777952565, 10.828387085960847 ], [ 122.503762727071987, 10.825900009639978 ], [ 122.50241835610052, 10.823480141891322 ], [ 122.502257185588448, 10.823190034969596 ], [ 122.501875057240895, 10.822502203943996 ], [ 122.500999308937693, 10.82092585699824 ], [ 122.49876225066464, 10.818909856678903 ], [ 122.497941888710628, 10.817287073336871 ], [ 122.493466117425783, 10.817078088197867 ], [ 122.492666311907556, 10.817040743245061 ], [ 122.489819240279701, 10.817320455262506 ], [ 122.489737679416578, 10.817328467855123 ], [ 122.489723796271008, 10.817329831660007 ], [ 122.48929707984091, 10.817371749966503 ], [ 122.487083241287863, 10.817589225452449 ], [ 122.486154348004746, 10.817680474887897 ], [ 122.485441610607523, 10.817725267463848 ], [ 122.484993110731679, 10.817833526069837 ], [ 122.483796028318238, 10.818122477037971 ], [ 122.48043366556918, 10.818934081953932 ], [ 122.477531126414974, 10.819634694952034 ], [ 122.476649152027349, 10.819835465309461 ], [ 122.475543953775798, 10.820087049767134 ], [ 122.474735057022812, 10.820271184921735 ], [ 122.473672033897429, 10.821443695527423 ], [ 122.472828572508561, 10.82128146202156 ], [ 122.471883183012949, 10.82122000304634 ], [ 122.471456350551094, 10.821334889007861 ], [ 122.47097199740891, 10.821465257200131 ], [ 122.470449339857581, 10.821605935383486 ], [ 122.470170340334334, 10.821749050659305 ], [ 122.469806177840454, 10.821935851034985 ], [ 122.469660313620125, 10.822032902834806 ], [ 122.469489191693214, 10.822135726399008 ], [ 122.46917110063616, 10.82238888706302 ], [ 122.468996826611402, 10.82246639431661 ], [ 122.468910621411339, 10.822484527751877 ] ] ] ] } }
]
}
