{
"type": "FeatureCollection",
"name": "BOUNDARIES_Leganes_Barangay",
"crs": { "type": "name", "properties": { "name": "urn:ogc:def:crs:OGC:1.3:CRS84" } },
"features": [
{ "type": "Feature", "properties": { "psgc": "0603026015", "admin_type": "Barangay", "region": "Region VI (Western Visayas)", "province": "Iloilo", "municity": "Leganes", "barangay": "Lapayon", "population": "2594" }, "geometry": { "type": "MultiPolygon", "coordinates": [ [ [ [ 122.558587397461935, 10.804607955533998 ], [ 122.562005884078474, 10.805491418182097 ], [ 122.576051993946464, 10.808218010186211 ], [ 122.57705790406439, 10.802410300676208 ], [ 122.574745742417889, 10.791495460716593 ], [ 122.571112266277069, 10.783254104264806 ], [ 122.571008887741698, 10.781575909850288 ], [ 122.558688937661955, 10.791632029216064 ], [ 122.557599698669762, 10.799468289500172 ], [ 122.558587397461935, 10.804607955533998 ] ] ] ] } },
{ "type": "Feature", "properties": { "psgc": "0603026020", "admin_type": "Barangay", "region": "Region VI (Western Visayas)", "province": "Iloilo", "municity": "Leganes", "barangay": "San Vicente", "population": "1056" }, "geometry": { "type": "MultiPolygon", "coordinates": [ [ [ [ 122.577057800341663, 10.802410273691466 ], [ 122.588384993255502, 10.800234002552834 ], [ 122.585337044631899, 10.790332561819524 ], [ 122.582156312961772, 10.785562057978593 ], [ 122.579034961209913, 10.786931007283489 ], [ 122.574745741995969, 10.791495457343501 ], [ 122.577057800341663, 10.802410273691466 ] ] ] ] } },
{ "type": "Feature", "properties": { "psgc": "0603026012", "admin_type": "Barangay", "region": "Region VI (Western Visayas)", "province": "Iloilo", "municity": "Leganes", "barangay": "Guihaman", "population": "2363" }, "geometry": { "type": "MultiPolygon", "coordinates": [ [ [ [ 122.574745740309481, 10.791495459030045 ], [ 122.579034966269646, 10.786931019089309 ], [ 122.582156318021404, 10.785562056292051 ], [ 122.586683992941644, 10.782774822833085 ], [ 122.593122929467754, 10.776732615940649 ], [ 122.584659058122597, 10.777452298931383 ], [ 122.571112503236506, 10.783254233707225 ], [ 122.574745740309481, 10.791495459030045 ] ] ] ] } },
{ "type": "Feature", "properties": { "psgc": "0603026019", "admin_type": "Barangay", "region": "Region VI (Western Visayas)", "province": "Iloilo", "municity": "Leganes", "barangay": "Poblacion", "population": "4015" }, "geometry": { "type": "MultiPolygon", "coordinates": [ [ [ [ 122.585337022706739, 10.79033265457957 ], [ 122.590114009631336, 10.788539599623242 ], [ 122.593951290122021, 10.785664402661121 ], [ 122.589518668945047, 10.780114793747499 ], [ 122.586683976076287, 10.782774868369827 ], [ 122.582156301155976, 10.785562068097869 ], [ 122.585337022706739, 10.79033265457957 ] ] ] ] } },
{ "type": "Feature", "properties": { "psgc": "0603026005", "admin_type": "Barangay", "region": "Region VI (Western Visayas)", "province": "Iloilo", "municity": "Leganes", "barangay": "Cagamutan Sur", "population": "2030" }, "geometry": { "type": "MultiPolygon", "coordinates": [ [ [ [ 122.588384996206884, 10.800234004661005 ], [ 122.594773108888404, 10.79806916148428 ], [ 122.597863136298244, 10.796336920296417 ], [ 122.593951290121964, 10.785664402766514 ], [ 122.590113981231696, 10.788539659977035 ], [ 122.585337061844854, 10.790332741889651 ], [ 122.588384996206884, 10.800234004661005 ] ] ] ] } },
{ "type": "Feature", "properties": { "psgc": "0603026010", "admin_type": "Barangay", "region": "Region VI (Western Visayas)", "province": "Iloilo", "municity": "Leganes", "barangay": "Cari Minor", "population": "1084" }, "geometry": { "type": "MultiPolygon", "coordinates": [ [ [ [ 122.597863134655185, 10.7963369136971 ], [ 122.609635820547609, 10.793563084951279 ], [ 122.610559993875896, 10.793224372511956 ], [ 122.610116580651123, 10.793341810094482 ], [ 122.609829247154124, 10.793331663832772 ], [ 122.609739441943958, 10.793300577413868 ], [ 122.609521837011599, 10.792930994433565 ], [ 122.609539107244331, 10.792682303082334 ], [ 122.609577101756315, 10.792412887451832 ], [ 122.609849971433363, 10.792222914891862 ], [ 122.610098662784594, 10.792153833960965 ], [ 122.610205738227492, 10.792115839448972 ], [ 122.610267911065293, 10.791946591168271 ], [ 122.610561505021607, 10.791977677587175 ], [ 122.610618928545449, 10.791918095284277 ], [ 122.610618928545463, 10.791598595978881 ], [ 122.610226894262624, 10.791396534256005 ], [ 122.609822770816876, 10.791277369650206 ], [ 122.609673383303786, 10.791152160462957 ], [ 122.609549037628184, 10.790823162529557 ], [ 122.609551628163118, 10.790424220153625 ], [ 122.60996870428346, 10.789739455426101 ], [ 122.610146587680475, 10.789293883421813 ], [ 122.60994884351598, 10.788690720543491 ], [ 122.609153549299464, 10.787764604311562 ], [ 122.608818965523938, 10.787040145033062 ], [ 122.607906638494455, 10.78656710256665 ], [ 122.607500788027096, 10.786513375953175 ], [ 122.606796162531936, 10.786513375953175 ], [ 122.606367860760372, 10.786278500788123 ], [ 122.59395127852703, 10.785664409091074 ], [ 122.597863134655185, 10.7963369136971 ] ] ] ] } },
{ "type": "Feature", "properties": { "psgc": "0603026007", "admin_type": "Barangay", "region": "Region VI (Western Visayas)", "province": "Iloilo", "municity": "Leganes", "barangay": "Calaboa", "population": "1769" }, "geometry": { "type": "MultiPolygon", "coordinates": [ [ [ [ 122.57605307045759, 10.808218874288634 ], [ 122.576079839318325, 10.808335448359525 ], [ 122.576151510784129, 10.808432161662786 ], [ 122.576291399669202, 10.80853405603586 ], [ 122.576429561530986, 10.808592774827122 ], [ 122.576598809811685, 10.808705031339832 ], [ 122.57666184616113, 10.808920909248885 ], [ 122.576722939609425, 10.809111745320488 ], [ 122.576746686179419, 10.809174349914114 ], [ 122.576825049860403, 10.809228319391377 ], [ 122.577204131468704, 10.809222274809922 ], [ 122.577289619120748, 10.809150603344115 ], [ 122.57739021822637, 10.809097497378486 ], [ 122.577429939761629, 10.809089294017943 ], [ 122.577453686331651, 10.809151466855754 ], [ 122.577541764518529, 10.809219252519197 ], [ 122.577600483309794, 10.809253792984647 ], [ 122.577903575894069, 10.809461035777337 ], [ 122.578411320736222, 10.80981248501328 ], [ 122.578490763806755, 10.809850479525274 ], [ 122.578556390691105, 10.809898836176902 ], [ 122.579267924279378, 10.810373767576824 ], [ 122.579573607398629, 10.810510202415346 ], [ 122.579673774748429, 10.810548196927339 ], [ 122.579967368704743, 10.811027445885443 ], [ 122.580157341264766, 10.811327947934847 ], [ 122.580433664988362, 10.81155591500681 ], [ 122.580533832338162, 10.811614633798074 ], [ 122.580818791178146, 10.811640539147158 ], [ 122.5809444321212, 10.811874334922669 ], [ 122.581152970181378, 10.811959822574654 ], [ 122.581278827002336, 10.812057291450593 ], [ 122.581321786706212, 10.812153734906468 ], [ 122.581371654503172, 10.812321310133372 ], [ 122.581451745207431, 10.81234246616846 ], [ 122.581573500348128, 10.812420560002062 ], [ 122.581680144035218, 10.812540102394202 ], [ 122.581844643001915, 10.812695750366631 ], [ 122.582235382017302, 10.813195183909233 ], [ 122.582421900530733, 10.813319529584849 ], [ 122.582546246206348, 10.813430059074285 ], [ 122.582850202302296, 10.813367886236477 ], [ 122.583050537001895, 10.813226270328137 ], [ 122.583413211889109, 10.813164097490329 ], [ 122.583834605567588, 10.812953400651091 ], [ 122.584041848360286, 10.812863595440923 ], [ 122.584266361385701, 10.812905043999463 ], [ 122.584986530090333, 10.812594179810423 ], [ 122.585500319513912, 10.812276407528289 ], [ 122.58553313295613, 10.812143642614224 ], [ 122.585533132956087, 10.811965327461339 ], [ 122.58550153382717, 10.811765721349667 ], [ 122.586556461706891, 10.811034313501343 ], [ 122.586962312175956, 10.810709201370274 ], [ 122.587023621502141, 10.810731220916999 ], [ 122.587220070399397, 10.811008408152253 ], [ 122.58734743836574, 10.811257855076191 ], [ 122.587454513808652, 10.81142883038018 ], [ 122.587542591995543, 10.811650752870706 ], [ 122.58774724425335, 10.811726526016789 ], [ 122.587817188695894, 10.811666080202249 ], [ 122.587944124906429, 10.81174984083097 ], [ 122.587999389651159, 10.811804242064058 ], [ 122.588185908164604, 10.811795606947694 ], [ 122.588242036420965, 10.811727389528427 ], [ 122.588500226400214, 10.811834464971328 ], [ 122.588668611169297, 10.811774019156786 ], [ 122.588821452728922, 10.811826693366601 ], [ 122.589481175619056, 10.812365092871834 ], [ 122.589704825132884, 10.812484041599733 ], [ 122.59007268108995, 10.812653289880449 ], [ 122.590439673535386, 10.812769000439713 ], [ 122.590945691354221, 10.812781953114255 ], [ 122.591241012333839, 10.812747412648804 ], [ 122.591460344289459, 10.812612704833542 ], [ 122.59173148694326, 10.812391645854648 ], [ 122.591824746199975, 10.81226730017902 ], [ 122.591679676245107, 10.811859722686684 ], [ 122.59163477364001, 10.811756101290328 ], [ 122.591800567874188, 10.811642117754335 ], [ 122.592059621365081, 10.811669750126697 ], [ 122.592221961552696, 10.811621393475063 ], [ 122.592237504762167, 10.811552312544158 ], [ 122.592277226297426, 10.811459053287438 ], [ 122.592440429996699, 10.811465097868892 ], [ 122.592607951254124, 10.811427103356889 ], [ 122.592895500629012, 10.811379610216893 ], [ 122.593141601445353, 10.811302757681263 ], [ 122.593468008843885, 10.81117927551727 ], [ 122.593603580170779, 10.811164595819456 ], [ 122.593676115148199, 10.811230222703811 ], [ 122.593753831195471, 10.811280306378716 ], [ 122.593855725568559, 10.811302757681261 ], [ 122.594126868222361, 10.811195682238358 ], [ 122.594515448458694, 10.810997074562009 ], [ 122.594715783158307, 10.810969442189649 ], [ 122.594867761206302, 10.810941809817287 ], [ 122.5949748366492, 10.811055793353278 ], [ 122.595061187812831, 10.811086879772185 ], [ 122.595320241303725, 10.811052339306732 ], [ 122.595437678886256, 10.810934901724195 ], [ 122.595607407499358, 10.810722485236766 ], [ 122.595886342742247, 10.810625770539263 ], [ 122.596190654812517, 10.810313194799855 ], [ 122.596525725306648, 10.81009905487532 ], [ 122.596393180548816, 10.809441507898573 ], [ 122.588384994820089, 10.800234005798993 ], [ 122.577057902857092, 10.802410299671466 ], [ 122.57605307045759, 10.808218874288634 ] ] ] ] } },
{ "type": "Feature", "properties": { "psgc": "0603026013", "admin_type": "Barangay", "region": "Region VI (Western Visayas)", "province": "Iloilo", "municity": "Leganes", "barangay": "Guinobatan", "population": "3104" }, "geometry": { "type": "MultiPolygon", "coordinates": [ [ [ [ 122.593951362854952, 10.785664307897166 ], [ 122.606380641407782, 10.786277401158889 ], [ 122.605936796426761, 10.78536985042922 ], [ 122.605931615356965, 10.785107342891807 ], [ 122.605834902053758, 10.784527063072266 ], [ 122.605579302609442, 10.784340544558841 ], [ 122.604674342414683, 10.784022772276712 ], [ 122.604294397294765, 10.783235249664477 ], [ 122.604252948736232, 10.782689510310384 ], [ 122.604087154502068, 10.782337197562805 ], [ 122.603327264262205, 10.781238810761531 ], [ 122.602950773188809, 10.780986665363756 ], [ 122.602670995418663, 10.780451288149296 ], [ 122.602242693647099, 10.779466884884002 ], [ 122.602101077738766, 10.77940125799965 ], [ 122.600546756793563, 10.779563598187259 ], [ 122.599849039391501, 10.779349447301476 ], [ 122.599075332965441, 10.778997134553897 ], [ 122.598716112124777, 10.77897641027463 ], [ 122.59852959361136, 10.779026493949532 ], [ 122.598381069609928, 10.778974683251358 ], [ 122.598282629283403, 10.778867607808467 ], [ 122.598242907748158, 10.778603373247782 ], [ 122.598101291839811, 10.778133622917677 ], [ 122.597607363183883, 10.777266657234909 ], [ 122.596833656757866, 10.776789998811712 ], [ 122.596688586802983, 10.776776182625532 ], [ 122.596412263079387, 10.77684526355643 ], [ 122.596139393402339, 10.77690052830115 ], [ 122.595793988747857, 10.776731280020451 ], [ 122.595227525114495, 10.776188994712903 ], [ 122.594194765197614, 10.776118186758737 ], [ 122.593750920216593, 10.776600026251753 ], [ 122.593415877701744, 10.776695012531738 ], [ 122.593122283745458, 10.776731280020458 ], [ 122.589518660794326, 10.780114761473818 ], [ 122.593951362854952, 10.785664307897166 ] ] ] ] } },
{ "type": "Feature", "properties": { "psgc": "0603026017", "admin_type": "Barangay", "region": "Region VI (Western Visayas)", "province": "Iloilo", "municity": "Leganes", "barangay": "Napnud", "population": "1882" }, "geometry": { "type": "MultiPolygon", "coordinates": [ [ [ [ 122.595224205991769, 10.776188670896051 ], [ 122.595790777564247, 10.776728311699205 ], [ 122.5961361822187, 10.776907922119539 ], [ 122.596419414035381, 10.776838841188642 ], [ 122.596675013479697, 10.776783576443924 ], [ 122.596854623900029, 10.776797392630105 ], [ 122.597628330326089, 10.777274051053299 ], [ 122.598111896842369, 10.778137562689521 ], [ 122.5982293344249, 10.778579680647265 ], [ 122.598281145123096, 10.778864639487217 ], [ 122.598379585449621, 10.778975168976654 ], [ 122.598529836474327, 10.779025252651556 ], [ 122.598714627964483, 10.778975168976654 ], [ 122.599076439340053, 10.778998483790833 ], [ 122.599846691719577, 10.779348206003503 ], [ 122.600546136144914, 10.779564947424193 ], [ 122.602101320601207, 10.779401311969226 ], [ 122.602242720631878, 10.779466507097471 ], [ 122.602670806526916, 10.780451342119129 ], [ 122.602950800174227, 10.780986503454381 ], [ 122.603326643609975, 10.781238001218638 ], [ 122.604087397365092, 10.782335092753193 ], [ 122.604255782134175, 10.782698631152044 ], [ 122.604297230692708, 10.783237462413046 ], [ 122.604673721766133, 10.784024121513642 ], [ 122.605581272495783, 10.784341893795771 ], [ 122.605835144916796, 10.784525821774286 ], [ 122.605932721731719, 10.785106101593824 ], [ 122.605938766313116, 10.785369472642873 ], [ 122.606381747782564, 10.786278750395818 ], [ 122.606797960391205, 10.786511898537599 ], [ 122.607499995351432, 10.78651362556087 ], [ 122.607906709332127, 10.786567163282315 ], [ 122.612795048704712, 10.775543573734309 ], [ 122.612021342278638, 10.775067347066928 ], [ 122.611456605668579, 10.774785842273522 ], [ 122.610713985661448, 10.775127792881465 ], [ 122.610240349528951, 10.774331635152869 ], [ 122.609663523755941, 10.77408898838309 ], [ 122.609769735687138, 10.773880882078759 ], [ 122.609616570310664, 10.773811477331002 ], [ 122.609852039139909, 10.773325590127195 ], [ 122.609616462371619, 10.773024872199885 ], [ 122.605881342789075, 10.775476705551981 ], [ 122.603558064731857, 10.774182085731372 ], [ 122.599917931429388, 10.774673315913432 ], [ 122.599496105995144, 10.773915152696828 ], [ 122.595224205991769, 10.776188670896051 ] ] ] ] } },
{ "type": "Feature", "properties": { "psgc": "0603026004", "admin_type": "Barangay", "region": "Region VI (Western Visayas)", "province": "Iloilo", "municity": "Leganes", "barangay": "Cagamutan Norte", "population": "2470" }, "geometry": { "type": "MultiPolygon", "coordinates": [ [ [ [ 122.596393149601766, 10.809441636219077 ], [ 122.596525458084599, 10.810100905218667 ], [ 122.596854782457939, 10.810688505483055 ], [ 122.597046425301812, 10.810819763205677 ], [ 122.59709055610864, 10.810999375700717 ], [ 122.597025191930015, 10.811210930415948 ], [ 122.596852850242442, 10.811334411402088 ], [ 122.596856112312238, 10.811443217213768 ], [ 122.597018490584219, 10.811604687259109 ], [ 122.597270117174858, 10.811726006589186 ], [ 122.597657689721729, 10.811785157106538 ], [ 122.597797578606801, 10.811831786734894 ], [ 122.597854570374793, 10.81192850003815 ], [ 122.597932286422051, 10.812346439670081 ], [ 122.597951283678043, 10.812508779857691 ], [ 122.598003094376224, 10.812576133765317 ], [ 122.598034180795125, 10.81259340399804 ], [ 122.598201702052549, 10.812553682462774 ], [ 122.598483206845955, 10.812398250368254 ], [ 122.598695630708477, 10.812313626227905 ], [ 122.598861424942626, 10.812348166693353 ], [ 122.59897022740877, 10.812418974647523 ], [ 122.59916538103856, 10.812602039114402 ], [ 122.599320813133076, 10.812798919767459 ], [ 122.599376077877835, 10.812931900559436 ], [ 122.599439977738911, 10.813016524699785 ], [ 122.599576412577434, 10.813025159816148 ], [ 122.599712847415958, 10.812980257211064 ], [ 122.599875187603573, 10.812838641302724 ], [ 122.60000989541885, 10.812591676974765 ], [ 122.600092792535918, 10.81253813925332 ], [ 122.600208503095175, 10.812522596043868 ], [ 122.600303489375165, 10.812600312091131 ], [ 122.60040192970169, 10.812697025394389 ], [ 122.600483099795497, 10.812866273675088 ], [ 122.600450286353322, 10.81304415707215 ], [ 122.600410564818048, 10.813125327165954 ], [ 122.600414018864612, 10.813174979085039 ], [ 122.600590606994231, 10.813325230109738 ], [ 122.600667891285667, 10.813311845679376 ], [ 122.600779284286745, 10.813329979423738 ], [ 122.600944646765072, 10.813343363854102 ], [ 122.601079354580335, 10.813343363854102 ], [ 122.601163978720678, 10.813369269203189 ], [ 122.601203700255951, 10.813422806924635 ], [ 122.601267600117026, 10.813771665625671 ], [ 122.601405761978825, 10.814080802791439 ], [ 122.601714899144596, 10.814324313072856 ], [ 122.601942866216532, 10.814547099075002 ], [ 122.602160471148849, 10.81486487135713 ], [ 122.602188103521272, 10.814959857637113 ], [ 122.602220916963446, 10.815110108661816 ], [ 122.602248549335798, 10.815158465313445 ], [ 122.602319357289971, 10.815179189592714 ], [ 122.602402254407053, 10.815103200568727 ], [ 122.602602589106652, 10.814816514705502 ], [ 122.602612951246314, 10.814788882333138 ], [ 122.60263712957213, 10.814735344611693 ], [ 122.602895319551379, 10.81411966081507 ], [ 122.602941949179751, 10.81384333709148 ], [ 122.602962673459018, 10.813610188949701 ], [ 122.602967854528828, 10.813378767831193 ], [ 122.603206183740411, 10.81267586935931 ], [ 122.603264902531677, 10.81255497773024 ], [ 122.60334434560221, 10.812454810380439 ], [ 122.603606853139624, 10.812195756889572 ], [ 122.603917717328656, 10.811929795305614 ], [ 122.604176770819535, 10.81175018488528 ], [ 122.604297662448602, 10.811694920140562 ], [ 122.6048089856953, 10.811587412971393 ], [ 122.604871913621849, 10.811589140881239 ], [ 122.604932174454461, 10.811589139758414 ], [ 122.604994457660709, 10.811586979120218 ], [ 122.597862989613375, 10.796336933934541 ], [ 122.594776330159817, 10.798069254993459 ], [ 122.588384998193845, 10.800234005799023 ], [ 122.596393149601766, 10.809441636219077 ] ] ] ] } },
{ "type": "Feature", "properties": { "psgc": "0603026001", "admin_type": "Barangay", "region": "Region VI (Western Visayas)", "province": "Iloilo", "municity": "Leganes", "barangay": "M.V. Hechanova", "population": "1036" }, "geometry": { "type": "MultiPolygon", "coordinates": [ [ [ [ 122.597398668275474, 10.770063619265377 ], [ 122.59991755870216, 10.774672895964379 ], [ 122.603558123760976, 10.774182421354951 ], [ 122.605881185940603, 10.775476825297806 ], [ 122.609616453939807, 10.773024884006492 ], [ 122.609328540270724, 10.77265799949995 ], [ 122.608858789940555, 10.772147232367059 ], [ 122.608563468960909, 10.771878680248159 ], [ 122.608580739193627, 10.771792329084526 ], [ 122.607983189141294, 10.771022076704922 ], [ 122.607579065695518, 10.770493607583489 ], [ 122.607013465573743, 10.770029038323141 ], [ 122.607036780387929, 10.769990180299507 ], [ 122.607054050620647, 10.7699495952526 ], [ 122.607019510155197, 10.769837770495696 ], [ 122.607001808166657, 10.769826544844424 ], [ 122.606995547707314, 10.769676509697616 ], [ 122.606948162506271, 10.769624267243616 ], [ 122.606877786307905, 10.76958967280869 ], [ 122.606777187202283, 10.769606889071936 ], [ 122.60666018137556, 10.769791248806298 ], [ 122.606601894340102, 10.769792112317933 ], [ 122.6064542338503, 10.769682662218026 ], [ 122.606436100105938, 10.769664096717845 ], [ 122.606418398117384, 10.769595447542754 ], [ 122.6064425764432, 10.769533058827028 ], [ 122.60648359324594, 10.769456206291391 ], [ 122.60637781307048, 10.769386693604666 ], [ 122.606281099767202, 10.769255439835945 ], [ 122.606210291813028, 10.769245077696308 ], [ 122.606153300045037, 10.769163907602493 ], [ 122.606098035300306, 10.769037834903589 ], [ 122.60600823009014, 10.768797832638164 ], [ 122.605976711915403, 10.768723138881622 ], [ 122.60594173969416, 10.768573157704292 ], [ 122.605918101063111, 10.768497735359805 ], [ 122.605876760443522, 10.768428573474685 ], [ 122.605865103036436, 10.768330402995527 ], [ 122.605871039678959, 10.768278322449968 ], [ 122.605817933713325, 10.768203156460498 ], [ 122.605800285694286, 10.768138986752025 ], [ 122.605776539124292, 10.768030346194278 ], [ 122.605765313473057, 10.767977240228644 ], [ 122.605711775751615, 10.767855485087921 ], [ 122.605636650239248, 10.767839510122649 ], [ 122.605581817250339, 10.767820944622468 ], [ 122.605512196624687, 10.767734701397794 ], [ 122.60538817476592, 10.767653585273456 ], [ 122.605300096579015, 10.767613270073939 ], [ 122.605235117328391, 10.767509108982807 ], [ 122.605152759906062, 10.767405001861151 ], [ 122.605129121275027, 10.767318003063803 ], [ 122.605157617159023, 10.767251944423631 ], [ 122.60515157257754, 10.76720574655109 ], [ 122.605057449809195, 10.767177250667096 ], [ 122.604911516342668, 10.767147027759828 ], [ 122.604692184387062, 10.766997640246762 ], [ 122.604536752292546, 10.766853865559332 ], [ 122.604455582198753, 10.766663892999363 ], [ 122.604443493035845, 10.766651803836456 ], [ 122.604291514987864, 10.76676060630262 ], [ 122.603987558891916, 10.766620717417553 ], [ 122.603965107589374, 10.766568906719376 ], [ 122.603880483449018, 10.766532639230656 ], [ 122.603780316099218, 10.766532639230656 ], [ 122.603583435446168, 10.766456650206667 ], [ 122.603286387443305, 10.766363390949955 ], [ 122.603097278395026, 10.7662571790187 ], [ 122.602860244450881, 10.766089226005452 ], [ 122.597398668275474, 10.770063619265377 ] ] ] ] } },
{ "type": "Feature", "properties": { "psgc": "0603026002", "admin_type": "Barangay", "region": "Region VI (Western Visayas)", "province": "Iloilo", "municity": "Leganes", "barangay": "Bigke", "population": "974" }, "geometry": { "type": "MultiPolygon", "coordinates": [ [ [ [ 122.595538691194392, 10.766118949694901 ], [ 122.597398857166198, 10.770062310506331 ], [ 122.602860244449957, 10.766089185528218 ], [ 122.602659316085877, 10.765792002601554 ], [ 122.602606641876051, 10.765735010833554 ], [ 122.602511655596032, 10.765702197391375 ], [ 122.602455527339671, 10.765661612344463 ], [ 122.602274189896036, 10.765538993692106 ], [ 122.602203813697713, 10.765410330458296 ], [ 122.602197337360479, 10.765301527992118 ], [ 122.602220652174665, 10.765290302340846 ], [ 122.602209426523387, 10.76526612401503 ], [ 122.602180067127748, 10.765266987526665 ], [ 122.602003478998114, 10.765353122812391 ], [ 122.601944760206891, 10.765353338690298 ], [ 122.601920797758979, 10.765336068457572 ], [ 122.601886473171447, 10.765261158823124 ], [ 122.601827754380182, 10.765191214380582 ], [ 122.601761695740009, 10.765132927345133 ], [ 122.601722405960572, 10.765077878478316 ], [ 122.601709237408116, 10.765058881222316 ], [ 122.601550351267065, 10.764977279372687 ], [ 122.601491632475799, 10.764988936779776 ], [ 122.601479327435001, 10.765012251593957 ], [ 122.601432266050821, 10.765034702896502 ], [ 122.601412837038978, 10.765054995419954 ], [ 122.601385204666613, 10.765068811606135 ], [ 122.601354118247713, 10.765065357559591 ], [ 122.601317850758974, 10.765060176489772 ], [ 122.601297126479707, 10.765023909001046 ], [ 122.601298853502982, 10.764996276628684 ], [ 122.6011615551528, 10.76474067718433 ], [ 122.601050162151722, 10.76477349062651 ], [ 122.601005259546625, 10.764715635346876 ], [ 122.600995760918636, 10.764694047555968 ], [ 122.600947404267032, 10.764612877462149 ], [ 122.600859326080126, 10.764560203252334 ], [ 122.600683169706315, 10.764544228287061 ], [ 122.60047139347752, 10.764543364775427 ], [ 122.600377378648147, 10.764566787528564 ], [ 122.600294697408998, 10.764567111345428 ], [ 122.600200358762734, 10.764613093340063 ], [ 122.600194314181266, 10.764653678386976 ], [ 122.600153189439581, 10.764734632602879 ], [ 122.600094470648287, 10.764728803899338 ], [ 122.600041364682667, 10.764757947417067 ], [ 122.600017510173743, 10.764804253228565 ], [ 122.599999808185188, 10.764821091705473 ], [ 122.599930295498467, 10.7648098660542 ], [ 122.599853227084921, 10.764804037350661 ], [ 122.599853227084921, 10.764711425727665 ], [ 122.599882802358465, 10.764647525866579 ], [ 122.599876541899135, 10.764583626005491 ], [ 122.599804438677495, 10.764578660813584 ], [ 122.599753059735136, 10.764583841883402 ], [ 122.599639507954961, 10.764648173500309 ], [ 122.599569995268226, 10.764693507861216 ], [ 122.59954095968952, 10.764734740541847 ], [ 122.599441062187111, 10.764751956805103 ], [ 122.599427731726237, 10.764711317788715 ], [ 122.599397724696885, 10.764681742515171 ], [ 122.599357139649968, 10.764618922043629 ], [ 122.599321519795012, 10.764601435933001 ], [ 122.59930511307391, 10.764578984630456 ], [ 122.599251143596675, 10.764543634622845 ], [ 122.599192640683313, 10.764555507907843 ], [ 122.599157020828315, 10.764555292029934 ], [ 122.599139534717679, 10.764520751564481 ], [ 122.599050593019129, 10.764491608046757 ], [ 122.598997918809317, 10.764497652628211 ], [ 122.598945244599506, 10.764479734761759 ], [ 122.598924304442349, 10.764412866579423 ], [ 122.598903688101998, 10.764341249083081 ], [ 122.59883881679032, 10.764271871320052 ], [ 122.598762719827405, 10.764260429790868 ], [ 122.59865639995725, 10.764086243302978 ], [ 122.598610417962618, 10.763982406028711 ], [ 122.598561197799341, 10.763934912888713 ], [ 122.598525793822262, 10.763918937923441 ], [ 122.598503342519706, 10.763919369679259 ], [ 122.598450287993799, 10.763844026602447 ], [ 122.595538691194392, 10.766118949694901 ] ] ] ] } },
{ "type": "Feature", "properties": { "psgc": "0603026008", "admin_type": "Barangay", "region": "Region VI (Western Visayas)", "province": "Iloilo", "municity": "Leganes", "barangay": "Camangay", "population": "877" }, "geometry": { "type": "MultiPolygon", "coordinates": [ [ [ [ 122.591576522018556, 10.763498245847746 ], [ 122.591615164164267, 10.76351702722584 ], [ 122.592265820182348, 10.763839764699956 ], [ 122.595538637223399, 10.766118976679586 ], [ 122.598450290522507, 10.763844028288657 ], [ 122.598401933870861, 10.763788763543925 ], [ 122.598336738742304, 10.763783582474106 ], [ 122.598271543613805, 10.763701980624461 ], [ 122.598288813846537, 10.763662259089186 ], [ 122.598289245602359, 10.763615629460817 ], [ 122.598241968340275, 10.763557342425356 ], [ 122.598170728630279, 10.763545685018263 ], [ 122.598101108004627, 10.763540396009494 ], [ 122.59802436340793, 10.763517135164786 ], [ 122.597960463546841, 10.763430460184283 ], [ 122.597866124900577, 10.7634356412541 ], [ 122.597810860155846, 10.763419234533007 ], [ 122.597794453434759, 10.763395919718823 ], [ 122.5977337917423, 10.763373900172091 ], [ 122.597693422573286, 10.763316476648269 ], [ 122.597665574323017, 10.763256894345359 ], [ 122.597629306834278, 10.763241351135903 ], [ 122.597578359647727, 10.763192994484262 ], [ 122.597540581013646, 10.76310210988453 ], [ 122.597499132455113, 10.76307275048889 ], [ 122.597463728478019, 10.763033028953615 ], [ 122.597500643600512, 10.762898105260419 ], [ 122.597564543461601, 10.762807436538594 ], [ 122.597556771856873, 10.762778077142951 ], [ 122.59748337336778, 10.762628689629848 ], [ 122.59751186925179, 10.762588104582935 ], [ 122.597517050321599, 10.762554427629114 ], [ 122.597498916577209, 10.762463758907293 ], [ 122.597441061297545, 10.762398563778738 ], [ 122.597403066785574, 10.762304441010372 ], [ 122.597378024948114, 10.762222407404911 ], [ 122.597345211505925, 10.762130875171447 ], [ 122.597381478994649, 10.762039342937985 ], [ 122.597343484482707, 10.761992713309617 ], [ 122.597281311644878, 10.76197026200707 ], [ 122.59723640903978, 10.761930540471793 ], [ 122.597196687504507, 10.761877002750335 ], [ 122.59717596322524, 10.761801013726329 ], [ 122.59717596322524, 10.761738840888505 ], [ 122.597156965969234, 10.761662851864498 ], [ 122.597103428247777, 10.761597224980129 ], [ 122.59705852564268, 10.76151001030485 ], [ 122.596998079828126, 10.761478923885939 ], [ 122.596920363780853, 10.761494467095394 ], [ 122.596872007129207, 10.761503102211758 ], [ 122.59679256405866, 10.7614685617463 ], [ 122.596726937174282, 10.761484104955757 ], [ 122.59670448587174, 10.761525553514305 ], [ 122.596644040057186, 10.761515191374668 ], [ 122.596635404940827, 10.761478923885939 ], [ 122.596671672429551, 10.761363213326655 ], [ 122.596682034569199, 10.761320469500651 ], [ 122.596721756104472, 10.761266931779193 ], [ 122.596842647733567, 10.76116849145264 ], [ 122.596668218383016, 10.761071778149358 ], [ 122.596561142940089, 10.76097161079953 ], [ 122.596486880939352, 10.760867989403158 ], [ 122.59643852428772, 10.760726373494782 ], [ 122.59642643512484, 10.760334339211845 ], [ 122.596324540751723, 10.76017545307074 ], [ 122.596151838424447, 10.760049380371822 ], [ 122.59598949823679, 10.760056288464913 ], [ 122.59563027739604, 10.760279074467112 ], [ 122.595567241046581, 10.760154728791466 ], [ 122.595442031859292, 10.760067514116187 ], [ 122.59540058330073, 10.760016566929636 ], [ 122.595315959160359, 10.760014839906363 ], [ 122.595215791810531, 10.75992848874272 ], [ 122.595191613484715, 10.759854226741986 ], [ 122.594925651900681, 10.759643529902696 ], [ 122.594335009941361, 10.760315341955843 ], [ 122.591576522018556, 10.763498245847746 ] ] ] ] } },
{ "type": "Feature", "properties": { "psgc": "0603026003", "admin_type": "Barangay", "region": "Region VI (Western Visayas)", "province": "Iloilo", "municity": "Leganes", "barangay": "Buntatala", "population": "4558" }, "geometry": { "type": "MultiPolygon", "coordinates": [ [ [ [ 122.571112591502654, 10.783253665066129 ], [ 122.584658714421366, 10.777450273205028 ], [ 122.593122045939552, 10.776731777554035 ], [ 122.592613869341463, 10.776391122213466 ], [ 122.592483047328543, 10.77618690171145 ], [ 122.592460596026001, 10.775924394173973 ], [ 122.592590122772037, 10.775329434657174 ], [ 122.592883284972331, 10.774695617114622 ], [ 122.5924713899213, 10.774200393190775 ], [ 122.592320923017624, 10.774108645079897 ], [ 122.592110037286417, 10.774060072550842 ], [ 122.591795476187968, 10.774118575464964 ], [ 122.591272835769544, 10.774039348271316 ], [ 122.590964993871765, 10.773826060897438 ], [ 122.590721483590286, 10.773737982710522 ], [ 122.589892512419311, 10.774055754992727 ], [ 122.589046271015604, 10.774093749504733 ], [ 122.588604153057744, 10.77401430643418 ], [ 122.588407272404638, 10.773921047177446 ], [ 122.58803768942424, 10.773537648010867 ], [ 122.587643928118027, 10.773219875728659 ], [ 122.587208718253265, 10.772881379167176 ], [ 122.586631892480128, 10.772465166558414 ], [ 122.586441919920105, 10.772392631580953 ], [ 122.586162142149931, 10.772465166558414 ], [ 122.585288268373873, 10.772979819493729 ], [ 122.584815063997112, 10.772924554748998 ], [ 122.584402305434878, 10.772947006051544 ], [ 122.58397745770975, 10.772940097958452 ], [ 122.583790939196277, 10.772815752282806 ], [ 122.583214113423139, 10.772249288649302 ], [ 122.583055227282031, 10.77216984557875 ], [ 122.582057007830315, 10.772142213206386 ], [ 122.581152047635328, 10.77225274269585 ], [ 122.580599400188007, 10.772598147350424 ], [ 122.579673715713753, 10.77340639424213 ], [ 122.579051987335518, 10.77420082494765 ], [ 122.577718725368882, 10.77540974123866 ], [ 122.57101787507014, 10.781557944090084 ], [ 122.571112591502654, 10.783253665066129 ] ] ] ] } },
{ "type": "Feature", "properties": { "psgc": "0603026011", "admin_type": "Barangay", "region": "Region VI (Western Visayas)", "province": "Iloilo", "municity": "Leganes", "barangay": "Gua-an", "population": "1325" }, "geometry": { "type": "MultiPolygon", "coordinates": [ [ [ [ 122.6079067143923, 10.786567121123628 ], [ 122.608818960466763, 10.787039515958176 ], [ 122.609154002981739, 10.787764865732786 ], [ 122.609948433687251, 10.788690550207045 ], [ 122.610148768386878, 10.789298462399097 ], [ 122.628819616989901, 10.779856826166315 ], [ 122.62879371164081, 10.779851645096496 ], [ 122.628745354989164, 10.779817104631039 ], [ 122.628564017545514, 10.779849918073223 ], [ 122.628334323450218, 10.77986028021286 ], [ 122.628284239775311, 10.779932815190321 ], [ 122.62826696954258, 10.7800105312376 ], [ 122.628222066937482, 10.78008824728488 ], [ 122.628133988750562, 10.780105517517608 ], [ 122.627676327583231, 10.780083066215061 ], [ 122.62759688451267, 10.780041617656511 ], [ 122.627244571765004, 10.779969082679051 ], [ 122.627083958600664, 10.779906909841225 ], [ 122.626926799482831, 10.779824012724127 ], [ 122.626735099899506, 10.779801561421584 ], [ 122.62661938934022, 10.779846464026679 ], [ 122.626526130083491, 10.779767020956127 ], [ 122.626391422268199, 10.779734207513943 ], [ 122.626299890034744, 10.779631449629205 ], [ 122.626139276870376, 10.779558914651744 ], [ 122.625590946981234, 10.779436295999368 ], [ 122.625546907887767, 10.779460474325187 ], [ 122.62552186605032, 10.779563232209924 ], [ 122.625483871538307, 10.779603385501016 ], [ 122.625436810154127, 10.77960468076847 ], [ 122.625459261456683, 10.779345195521726 ], [ 122.625412631828311, 10.779333106358814 ], [ 122.625394498083949, 10.779338287428633 ], [ 122.625310737455209, 10.779291657800266 ], [ 122.624348785492188, 10.779036921867519 ], [ 122.624022378093599, 10.779181128310801 ], [ 122.623843631184855, 10.779117228449705 ], [ 122.623686472067064, 10.779093913635522 ], [ 122.623531903484121, 10.778837450679502 ], [ 122.623498226530302, 10.778796002120952 ], [ 122.623478365762665, 10.778795138609315 ], [ 122.622911902129189, 10.779181991822442 ], [ 122.622912765640791, 10.779378008963915 ], [ 122.622901971745335, 10.779384053545371 ], [ 122.622839367151698, 10.779373691405734 ], [ 122.622778489581364, 10.779395279196644 ], [ 122.622742222092626, 10.779460042569376 ], [ 122.622747834918272, 10.779494151279012 ], [ 122.622678753987358, 10.779539485639924 ], [ 122.622643350010264, 10.779517466093196 ], [ 122.62266666482445, 10.779477744557919 ], [ 122.622613127102994, 10.779437591266825 ], [ 122.622572110300254, 10.779458747301918 ], [ 122.622495257764584, 10.779447521650644 ], [ 122.622398544461305, 10.779436295999371 ], [ 122.622280675122965, 10.779477312802099 ], [ 122.622246134657502, 10.779504945174464 ], [ 122.62213560516804, 10.779486811430099 ], [ 122.622101928214221, 10.77949890059301 ], [ 122.621888640839984, 10.779496310058105 ], [ 122.621769476234164, 10.779473858755559 ], [ 122.621740116838524, 10.779477312802104 ], [ 122.621663264302853, 10.779442340580827 ], [ 122.621634336663021, 10.779460042569374 ], [ 122.621628292081567, 10.779488538453377 ], [ 122.621622679255935, 10.779482493871921 ], [ 122.62145213570777, 10.779419025766645 ], [ 122.621317212014574, 10.779453782110011 ], [ 122.621275547578122, 10.779376497818552 ], [ 122.621276411089767, 10.779314324980728 ], [ 122.621211647717033, 10.77931173444582 ], [ 122.621200422065755, 10.77928237505018 ], [ 122.621281592159576, 10.779237472445086 ], [ 122.621342037974131, 10.779212430607629 ], [ 122.621329085299578, 10.779192569839992 ], [ 122.620969000947184, 10.778963739256335 ], [ 122.620602872013308, 10.778653738578853 ], [ 122.620492342523832, 10.778520757786842 ], [ 122.620345545545661, 10.778417136390468 ], [ 122.620007048984178, 10.778057915549711 ], [ 122.619962146379081, 10.778054461503165 ], [ 122.619841254749971, 10.778126996480626 ], [ 122.61978944405179, 10.778216801690816 ], [ 122.61967200646923, 10.778316969040642 ], [ 122.619485487955757, 10.778538028019566 ], [ 122.619419861071393, 10.778531119926475 ], [ 122.619447493443758, 10.778489671367927 ], [ 122.619506212235038, 10.778458584949014 ], [ 122.619502758188489, 10.778430952576649 ], [ 122.619426769164491, 10.778417136390466 ], [ 122.619388774652478, 10.778403320204283 ], [ 122.61931278562848, 10.778417136390466 ], [ 122.619260974930285, 10.778372233785371 ], [ 122.619212618278652, 10.778351509506097 ], [ 122.619084818556459, 10.778234071923542 ], [ 122.619057186184094, 10.778244434063179 ], [ 122.619039915951333, 10.778246161086454 ], [ 122.618929386461872, 10.7781477207599 ], [ 122.618767046274229, 10.77806309661953 ], [ 122.618630611435663, 10.777952567130066 ], [ 122.618178131338169, 10.777489724892938 ], [ 122.618136682779621, 10.777486270846392 ], [ 122.618005429010879, 10.777710783871864 ], [ 122.617739467426858, 10.777562259870397 ], [ 122.617684202682128, 10.777576076056581 ], [ 122.617475232866141, 10.777926661780977 ], [ 122.6174527815636, 10.777918026664613 ], [ 122.61738974521414, 10.777917163152978 ], [ 122.617343115585768, 10.777943932013708 ], [ 122.61730512107377, 10.777922344222796 ], [ 122.617236040142856, 10.777924071246069 ], [ 122.617100468815892, 10.777848082222063 ], [ 122.61708233507153, 10.77781958633806 ], [ 122.617059020257344, 10.777747051360599 ], [ 122.616994256884624, 10.777663722487683 ], [ 122.616823281580608, 10.777566145672765 ], [ 122.616669576509295, 10.777519516044402 ], [ 122.616565955112918, 10.777526424137493 ], [ 122.616521052507807, 10.777476340462581 ], [ 122.616334533994333, 10.777381354182571 ], [ 122.616267180086695, 10.777272551716385 ], [ 122.6161773748765, 10.777051492737456 ], [ 122.616091023712855, 10.777020406318545 ], [ 122.615980494223393, 10.777010044178908 ], [ 122.61549347366045, 10.777048038690911 ], [ 122.615220603983332, 10.777151660087283 ], [ 122.615120436633504, 10.777227649111289 ], [ 122.615099712354237, 10.777265643623293 ], [ 122.615099712354237, 10.777338178600754 ], [ 122.615085896168054, 10.777376173112756 ], [ 122.615078988074956, 10.777393443345485 ], [ 122.61505135570259, 10.777421075717852 ], [ 122.614681772722179, 10.777308819205114 ], [ 122.614642051186905, 10.777136116877827 ], [ 122.614619599884364, 10.777106757482191 ], [ 122.614628235000737, 10.776953052410907 ], [ 122.614617872861089, 10.77682352566544 ], [ 122.614597148581822, 10.776759625804344 ], [ 122.614540156813817, 10.77669745296652 ], [ 122.614407176021786, 10.776643051733419 ], [ 122.614353638300315, 10.776588650500324 ], [ 122.614257788508695, 10.776527341174138 ], [ 122.613845029946475, 10.776314917311575 ], [ 122.613506533385006, 10.776062771913736 ], [ 122.613478901012627, 10.775997145029367 ], [ 122.612984972356585, 10.775662102514429 ], [ 122.61295733998422, 10.775675918700612 ], [ 122.612915891425672, 10.775675918700612 ], [ 122.612912437379137, 10.775624108002425 ], [ 122.612794999796577, 10.775544664931873 ], [ 122.6079067143923, 10.786567121123628 ] ] ] ] } },
{ "type": "Feature", "properties": { "psgc": "0603026014", "admin_type": "Barangay", "region": "Region VI (Western Visayas)", "province": "Iloilo", "municity": "Leganes", "barangay": "Guintas", "population": "2627" }, "geometry": { "type": "MultiPolygon", "coordinates": [ [ [ [ 122.586261877743866, 10.769408551243362 ], [ 122.586553744677062, 10.769813538200861 ], [ 122.586944915448328, 10.770079499784883 ], [ 122.587263551242174, 10.770222842716532 ], [ 122.587855488468961, 10.770223274472349 ], [ 122.588338191473667, 10.770252849745903 ], [ 122.58841072645113, 10.770318476630273 ], [ 122.588455629056227, 10.770435914212827 ], [ 122.588459083102777, 10.770563713935021 ], [ 122.588341645520217, 10.770767502681219 ], [ 122.588117132494716, 10.771014467009236 ], [ 122.587993650330716, 10.771455721455453 ], [ 122.587627521396868, 10.771718228992931 ], [ 122.587399554324847, 10.771842574668577 ], [ 122.587268300556104, 10.772063633647505 ], [ 122.587138773810665, 10.772690543095559 ], [ 122.587208934130828, 10.772881487106108 ], [ 122.587625794373622, 10.773206923054145 ], [ 122.588029917819469, 10.773533330452718 ], [ 122.588404681869704, 10.773920183665844 ], [ 122.588606743592621, 10.774015169945852 ], [ 122.589041953457397, 10.774089431946585 ], [ 122.589893375930913, 10.774056618504396 ], [ 122.590718893055381, 10.773737982710552 ], [ 122.59096672089504, 10.773827787920741 ], [ 122.591274131037608, 10.774039348271669 ], [ 122.591795692066015, 10.774118791342222 ], [ 122.592110010301667, 10.774060072550943 ], [ 122.592320707140956, 10.774108429202583 ], [ 122.592469231142431, 10.774198234412774 ], [ 122.592883716727926, 10.774695617115356 ], [ 122.592590122771526, 10.775327707633227 ], [ 122.592462323049375, 10.775920076615822 ], [ 122.592483047328642, 10.776179130106751 ], [ 122.592614301097385, 10.776395008015861 ], [ 122.593122045939609, 10.776731777554069 ], [ 122.593415639895994, 10.776693783042065 ], [ 122.593754136457477, 10.77660052378533 ], [ 122.594196254415351, 10.776120411315475 ], [ 122.595235922425601, 10.776186038199842 ], [ 122.599491307769895, 10.773906367479656 ], [ 122.597418879842436, 10.770093100093154 ], [ 122.595539878521549, 10.766124400612091 ], [ 122.592272350489282, 10.7638447298919 ], [ 122.591576144232391, 10.763498245847781 ], [ 122.586631460724291, 10.769094233007699 ], [ 122.586505388025344, 10.769191809822617 ], [ 122.586286056069682, 10.769311837940082 ], [ 122.586261877743866, 10.769408551243362 ] ] ] ] } },
{ "type": "Feature", "properties": { "psgc": "0603026016", "admin_type": "Barangay", "region": "Region VI (Western Visayas)", "province": "Iloilo", "municity": "Leganes", "barangay": "Nabitasan", "population": "3574" }, "geometry": { "type": "MultiPolygon", "coordinates": [ [ [ [ 122.623487378665359, 10.796422919124911 ], [ 122.623699208863712, 10.796215838240705 ], [ 122.625596559806837, 10.795819918155399 ], [ 122.62670185470148, 10.79566448606084 ], [ 122.627247594055731, 10.795547048478285 ], [ 122.627769155084138, 10.795571226804107 ], [ 122.628352888950374, 10.795861366713948 ], [ 122.628667207186027, 10.796282760392529 ], [ 122.62883127439693, 10.796584125953649 ], [ 122.628810550117635, 10.797393236356989 ], [ 122.628665480162709, 10.797878529896666 ], [ 122.628668934209259, 10.798967418070212 ], [ 122.628836455466725, 10.799355998306607 ], [ 122.629377877262769, 10.799703129984453 ], [ 122.629947794942822, 10.799865470172103 ], [ 122.630439996575589, 10.799865470172103 ], [ 122.630910610417416, 10.799656500356084 ], [ 122.631029775023237, 10.799519202005889 ], [ 122.631123897791582, 10.79914616497895 ], [ 122.631121307256663, 10.798910426302204 ], [ 122.63107467762832, 10.798634102578545 ], [ 122.63086398078903, 10.798293878993789 ], [ 122.630723228392299, 10.797900117687572 ], [ 122.630726682438805, 10.796988249399497 ], [ 122.630840665974816, 10.79671883376893 ], [ 122.631186070629411, 10.794929637658234 ], [ 122.631241335374142, 10.794245736442177 ], [ 122.631144622070863, 10.794017769370157 ], [ 122.631006460209036, 10.793202614385361 ], [ 122.631172254443229, 10.792601610286402 ], [ 122.631434761980699, 10.792449632238389 ], [ 122.631597102168399, 10.792242389445649 ], [ 122.632488246177203, 10.791769185068881 ], [ 122.633134152881283, 10.791458320879764 ], [ 122.633583178932227, 10.79129943473866 ], [ 122.635013154202184, 10.790228680309484 ], [ 122.636063184352096, 10.78955859527961 ], [ 122.636078727561568, 10.789543915581788 ], [ 122.637937868114818, 10.789336672789046 ], [ 122.639454194548364, 10.789915225585458 ], [ 122.64181330833911, 10.791469546531044 ], [ 122.643481612820707, 10.791662973137605 ], [ 122.644673258879038, 10.791251941598663 ], [ 122.645668024284191, 10.790391884008777 ], [ 122.646117050335164, 10.789756339444356 ], [ 122.646393374058817, 10.789279681021041 ], [ 122.646465909036309, 10.789005084320653 ], [ 122.646485769803945, 10.788435382518514 ], [ 122.646170588056648, 10.785439213017993 ], [ 122.645617940609327, 10.782420376337015 ], [ 122.644706072321242, 10.779353183004394 ], [ 122.644706072321242, 10.77891106504654 ], [ 122.643918549708829, 10.77657526606998 ], [ 122.643849468777915, 10.776444012301242 ], [ 122.643732031195356, 10.776304123416139 ], [ 122.643752755474623, 10.776126240019034 ], [ 122.642668184859204, 10.772470563506182 ], [ 122.641756316571147, 10.771629503172294 ], [ 122.637442212435474, 10.771848835127949 ], [ 122.636190120562674, 10.773991639253765 ], [ 122.636191847585934, 10.774060720184691 ], [ 122.636193574609209, 10.774159160511244 ], [ 122.636104632910659, 10.774158296999607 ], [ 122.635604659673177, 10.774691083679292 ], [ 122.633651396351596, 10.778958558186554 ], [ 122.633521869606156, 10.779110536234571 ], [ 122.633345713232316, 10.779405857214233 ], [ 122.633247272905734, 10.779835886009176 ], [ 122.633309445743564, 10.780001680243371 ], [ 122.632943316809715, 10.781317671977304 ], [ 122.633081478671542, 10.781241682953297 ], [ 122.633098748904274, 10.781214050580934 ], [ 122.63752338252938, 10.781535276909686 ], [ 122.637606279646477, 10.781920403099539 ], [ 122.637861879090863, 10.782286532033389 ], [ 122.638152019000714, 10.782459234360676 ], [ 122.638262548490175, 10.782714833805061 ], [ 122.638469791282915, 10.782818455201433 ], [ 122.638435250817466, 10.783087870832002 ], [ 122.638386894165819, 10.783212216507648 ], [ 122.638373077979637, 10.783004973714904 ], [ 122.638006949045788, 10.782701017618878 ], [ 122.637696084856671, 10.782507591012317 ], [ 122.637323047829724, 10.782334888685028 ], [ 122.637074356478436, 10.78215527826465 ], [ 122.636652962799857, 10.781941127378813 ], [ 122.635753183674694, 10.781963578681365 ], [ 122.63552176255611, 10.782079289240649 ], [ 122.635338698089186, 10.78210346756647 ], [ 122.634938028689874, 10.781944581425364 ], [ 122.634855131572778, 10.782120737799199 ], [ 122.634672067105839, 10.782148370171564 ], [ 122.634506272871647, 10.782120737799199 ], [ 122.634126327751616, 10.781892770727177 ], [ 122.633273178254797, 10.781958397611547 ], [ 122.632837968390035, 10.782075835194103 ], [ 122.632713622714391, 10.782262353707576 ], [ 122.632357855920176, 10.782507591012326 ], [ 122.632278412849615, 10.78279341336399 ], [ 122.631121307256777, 10.783605977813883 ], [ 122.630779356648745, 10.783941020328825 ], [ 122.629898574779574, 10.784620603986708 ], [ 122.629843310034843, 10.784833891360909 ], [ 122.629197403330778, 10.786157654699581 ], [ 122.62919049523768, 10.786541053866163 ], [ 122.628931441746744, 10.786902001730198 ], [ 122.628858906769295, 10.787164509267678 ], [ 122.628603307324894, 10.78741665466552 ], [ 122.628510048068165, 10.787760332296825 ], [ 122.627563639314616, 10.788752507167102 ], [ 122.627314947963328, 10.78905646326313 ], [ 122.627290769637497, 10.789218803450781 ], [ 122.627207872520401, 10.789374235545342 ], [ 122.627128429449854, 10.789329332940248 ], [ 122.626285642092682, 10.790133262273779 ], [ 122.625947145531185, 10.790823208071298 ], [ 122.626061129067196, 10.790908695723306 ], [ 122.6262718259065, 10.791231649075339 ], [ 122.626040404787929, 10.791639226567742 ], [ 122.625812437715894, 10.791421621635354 ], [ 122.625543022085324, 10.791573599683369 ], [ 122.62553611399224, 10.791822291034666 ], [ 122.625577562550788, 10.79210552285142 ], [ 122.625473941154411, 10.792133155223786 ], [ 122.624451543376864, 10.791318000238981 ], [ 122.625370319758034, 10.790813709443297 ], [ 122.625394498083836, 10.790697998884017 ], [ 122.625584470643858, 10.790121173110871 ], [ 122.626282188046105, 10.789565935128635 ], [ 122.62624592055738, 10.789424319220259 ], [ 122.626548149630125, 10.789234778416057 ], [ 122.627183694194557, 10.788468843594529 ], [ 122.62716296991529, 10.78778407886683 ], [ 122.627415115313113, 10.787665777772634 ], [ 122.627584363593854, 10.787660596702816 ], [ 122.627957400620801, 10.787779761308645 ], [ 122.628004030249173, 10.787781488331918 ], [ 122.628004030249173, 10.787779761308645 ], [ 122.628007484295722, 10.787712407401003 ], [ 122.627841690061516, 10.787437810700613 ], [ 122.62784428059642, 10.787434356654066 ], [ 122.627840826549871, 10.787337643350783 ], [ 122.628051523389175, 10.787199481488949 ], [ 122.628269128321563, 10.787154578883854 ], [ 122.628624895115777, 10.786686987332704 ], [ 122.628659867337063, 10.786516012028686 ], [ 122.628686204441976, 10.786403539638037 ], [ 122.628702179407242, 10.786334134890257 ], [ 122.628735424605253, 10.786229973799108 ], [ 122.628791121105806, 10.786055760326452 ], [ 122.628829115617805, 10.785932062284528 ], [ 122.628864951350721, 10.785821748672971 ], [ 122.628911149223271, 10.785678837497136 ], [ 122.629025996270911, 10.785461448442655 ], [ 122.629187472946938, 10.785152095398892 ], [ 122.629253963342947, 10.785025590944151 ], [ 122.629450843996054, 10.784678243388385 ], [ 122.629479339880049, 10.784614559405199 ], [ 122.629700398858986, 10.78424324940152 ], [ 122.629838560720827, 10.784056730888043 ], [ 122.630170149189226, 10.783745866698917 ], [ 122.630529370030004, 10.783372829671965 ], [ 122.630563910495454, 10.783250211019588 ], [ 122.630612267147086, 10.783201854367945 ], [ 122.630805693753658, 10.783201854367945 ], [ 122.63117182268752, 10.782821909247902 ], [ 122.631213271246068, 10.782711379758435 ], [ 122.631337616921712, 10.782656115013701 ], [ 122.631634664924661, 10.782360794034032 ], [ 122.63181427534505, 10.782146643148188 ], [ 122.631855723903598, 10.782084470310362 ], [ 122.631917896741427, 10.78198775700708 ], [ 122.631904080555287, 10.781967032727803 ], [ 122.631807367252009, 10.781815054679784 ], [ 122.63170029180904, 10.781591405165941 ], [ 122.631341070968276, 10.781315081442271 ], [ 122.631271990037362, 10.781148423696433 ], [ 122.631130374128972, 10.781056891462967 ], [ 122.631033660825693, 10.780961905182956 ], [ 122.631011209523137, 10.780802587286026 ], [ 122.630914496219845, 10.780709328029285 ], [ 122.630776334358018, 10.780686876726739 ], [ 122.630373937935417, 10.780709328029287 ], [ 122.630116611467741, 10.780368240932878 ], [ 122.629954271280084, 10.780202446698675 ], [ 122.629691763742628, 10.780104869883752 ], [ 122.629574326160068, 10.780085872627749 ], [ 122.629550147834252, 10.779904535184091 ], [ 122.629263461970936, 10.779901081137545 ], [ 122.628962959921452, 10.780087599651022 ], [ 122.628823071036337, 10.780087599651022 ], [ 122.628819616989787, 10.779859632578994 ], [ 122.626938888645583, 10.780805177820934 ], [ 122.610112500897287, 10.789312494463468 ], [ 122.610016651105639, 10.789618177582781 ], [ 122.609969589721445, 10.789737558066529 ], [ 122.609819338696695, 10.789981931859662 ], [ 122.609688948439583, 10.790197809768792 ], [ 122.609551218333564, 10.790424481573378 ], [ 122.60954949131029, 10.790823531888403 ], [ 122.609673405230126, 10.791152313944005 ], [ 122.609822792743245, 10.791277415192347 ], [ 122.610610315355785, 10.791903677006704 ], [ 122.610548142517956, 10.791972757937625 ], [ 122.610271919987071, 10.79193825120309 ], [ 122.610202839056143, 10.792104045437302 ], [ 122.610106024560054, 10.792145460264928 ], [ 122.609843517022554, 10.792221449288942 ], [ 122.609574101391971, 10.792407967802429 ], [ 122.609532652833408, 10.792684291526115 ], [ 122.609518836647226, 10.79292607478434 ], [ 122.609739247993417, 10.793300407079377 ], [ 122.609829269080521, 10.79333165540648 ], [ 122.610116386699701, 10.793342287393136 ], [ 122.610555914124035, 10.793225281566164 ], [ 122.611028254987858, 10.793076325809089 ], [ 122.611394383921748, 10.792917439667971 ], [ 122.612047414597384, 10.792237424254246 ], [ 122.612085193230953, 10.792057382077999 ], [ 122.612503132863026, 10.792088468496914 ], [ 122.612779456586708, 10.792385516499875 ], [ 122.613415001151182, 10.792793093992312 ], [ 122.613798400317805, 10.792983066552345 ], [ 122.614192161624032, 10.793090141995274 ], [ 122.614420128696068, 10.793280114555307 ], [ 122.61452029604591, 10.793662650210283 ], [ 122.614527204138994, 10.794997639200334 ], [ 122.614734446931749, 10.795329227668757 ], [ 122.615977903688332, 10.795619367578626 ], [ 122.617124647141637, 10.796251458096558 ], [ 122.617442419423867, 10.796210009538006 ], [ 122.61763930007703, 10.796029535605969 ], [ 122.617753283613041, 10.795863741371758 ], [ 122.617787824078505, 10.795666860718633 ], [ 122.617787824078505, 10.795402626157859 ], [ 122.618147584614334, 10.794516987036191 ], [ 122.619670819141405, 10.79382714917713 ], [ 122.62094827666813, 10.793888026747409 ], [ 122.621797972118458, 10.79418507475037 ], [ 122.622454240962213, 10.794558111777345 ], [ 122.622827277989188, 10.794917332618137 ], [ 122.62313123408525, 10.795433712576777 ], [ 122.623227947388528, 10.796311040399479 ], [ 122.623487378665359, 10.796422919124911 ] ] ] ] } },
{ "type": "Feature", "properties": { "psgc": "0603026009", "admin_type": "Barangay", "region": "Region VI (Western Visayas)", "province": "Iloilo", "municity": "Leganes", "barangay": "Cari Mayor", "population": "1759" }, "geometry": { "type": "MultiPolygon", "coordinates": [ [ [ [ 122.597866650561627, 10.796333459718468 ], [ 122.60499477876364, 10.811587908362018 ], [ 122.606510739892173, 10.811967423851101 ], [ 122.607256813946151, 10.812347368971183 ], [ 122.607678207624787, 10.812699681718895 ], [ 122.607781829021178, 10.812982913535684 ], [ 122.607781829021164, 10.813134891583717 ], [ 122.607726564276433, 10.813369766748858 ], [ 122.607595310507676, 10.813507928610706 ], [ 122.606983944269004, 10.813734168659483 ], [ 122.606621269381648, 10.813920687172978 ], [ 122.606403664449246, 10.814062303081371 ], [ 122.60618605951683, 10.814299768781423 ], [ 122.606092800260086, 10.814503557527647 ], [ 122.60604098956189, 10.814845508135722 ], [ 122.606061713841171, 10.815027709091034 ], [ 122.606172243330647, 10.815293670675091 ], [ 122.606275864727024, 10.815407654211116 ], [ 122.606600545102367, 10.815490551328224 ], [ 122.606859598593346, 10.815538907979871 ], [ 122.607218819434138, 10.815535453933325 ], [ 122.607557315995678, 10.815456010862762 ], [ 122.608013250139763, 10.81540420016457 ], [ 122.609225620477488, 10.81498626053248 ], [ 122.610047683555479, 10.814589908691303 ], [ 122.610900833052384, 10.814085617895557 ], [ 122.611173702729545, 10.813926731754433 ], [ 122.611912868690425, 10.813530379913256 ], [ 122.612303175950146, 10.81329205070157 ], [ 122.612427521625804, 10.813184975258636 ], [ 122.612458608044719, 10.812992412163686 ], [ 122.612458608044719, 10.812933693372401 ], [ 122.612379164974158, 10.812757536998545 ], [ 122.612189192414121, 10.812613330555241 ], [ 122.611805793247498, 10.812375001343554 ], [ 122.611681447571826, 10.812285196133352 ], [ 122.611550193803069, 10.812116811364225 ], [ 122.61134640505685, 10.811778314802698 ], [ 122.611108075845166, 10.811122045958919 ], [ 122.610804119749091, 10.80989585943502 ], [ 122.610697044306164, 10.80976287864299 ], [ 122.610624509328687, 10.809666165339697 ], [ 122.610441444861749, 10.809548727757127 ], [ 122.610213477789699, 10.809431290174556 ], [ 122.609653922249208, 10.809382933522908 ], [ 122.609294701408402, 10.809376025429817 ], [ 122.608838767264302, 10.809286220219615 ], [ 122.608248125304911, 10.80907984093848 ], [ 122.608033974419044, 10.808955495262817 ], [ 122.60791653683647, 10.808827695540607 ], [ 122.607792191160812, 10.808562597468187 ], [ 122.60771274809025, 10.80831390611686 ], [ 122.607664391438604, 10.807683542622179 ], [ 122.607643667159323, 10.807459029596677 ], [ 122.607664391438604, 10.807193931524255 ], [ 122.607747288555714, 10.806917607800559 ], [ 122.607878542324471, 10.806690504240146 ], [ 122.608030520372495, 10.806517801912838 ], [ 122.608179044373983, 10.806338191492435 ], [ 122.608334476468571, 10.806265656514965 ], [ 122.608434643818399, 10.806241478189142 ], [ 122.608565897587155, 10.806162035118579 ], [ 122.608945842707243, 10.806179305351309 ], [ 122.609543392759733, 10.806345099585528 ], [ 122.609729911273234, 10.806365823864803 ], [ 122.609878435274709, 10.806424542656091 ], [ 122.610652141701095, 10.806808805334354 ], [ 122.6108559304473, 10.80690724566092 ], [ 122.610952643750593, 10.806950421242746 ], [ 122.611218605334642, 10.807143847849334 ], [ 122.611256599846655, 10.807140393802788 ], [ 122.611277324125922, 10.807064404778771 ], [ 122.61131704566121, 10.806826075567084 ], [ 122.611334315893941, 10.806762607461797 ], [ 122.611374037429215, 10.806715977833424 ], [ 122.611431029197234, 10.806648623925772 ], [ 122.611475931802332, 10.806582997041396 ], [ 122.611515653337605, 10.806493191831194 ], [ 122.611510472267796, 10.806421088609541 ], [ 122.611413758964503, 10.806277745677875 ], [ 122.611348132080124, 10.806157717560394 ], [ 122.611272143056098, 10.806050642117462 ], [ 122.611216878311367, 10.80591593430216 ], [ 122.611192699985537, 10.80578813457995 ], [ 122.611196154032086, 10.805710850288479 ], [ 122.611208243194994, 10.805657312567014 ], [ 122.611394761708496, 10.805312339668212 ], [ 122.61152946952383, 10.805166406201636 ], [ 122.611804066224252, 10.804991976851053 ], [ 122.61204412245921, 10.804862450105571 ], [ 122.612123565529771, 10.804826182616834 ], [ 122.612206462646881, 10.804765736802276 ], [ 122.612253092275253, 10.804731196336814 ], [ 122.61226863548471, 10.804703995720264 ], [ 122.612456881021473, 10.804621098603153 ], [ 122.612519053859316, 10.804562811567687 ], [ 122.612664123814255, 10.804531725148772 ], [ 122.612779834373555, 10.804493730636763 ], [ 122.612854096374292, 10.804433284822204 ], [ 122.612900726002664, 10.804359454577279 ], [ 122.613076882376518, 10.804283465553263 ], [ 122.613132147121263, 10.804285192576536 ], [ 122.613208136145275, 10.804242016994708 ], [ 122.61335147907694, 10.804167754993966 ], [ 122.613470643682788, 10.804148757737961 ], [ 122.61353281652066, 10.804078813295401 ], [ 122.613658889219593, 10.804080540318674 ], [ 122.613871313082186, 10.804014913434296 ], [ 122.614118277410228, 10.803982099992107 ], [ 122.614427414576113, 10.804002824271384 ], [ 122.614971426907161, 10.804123715900502 ], [ 122.615113042815551, 10.804189342784879 ], [ 122.615492987935639, 10.804460053682938 ], [ 122.615981735521942, 10.80485985957066 ], [ 122.616220064733611, 10.805054581444702 ], [ 122.616318505060178, 10.805149567724722 ], [ 122.61641867241002, 10.805223397969648 ], [ 122.616498115480582, 10.805270027598022 ], [ 122.616581012597692, 10.805318384249668 ], [ 122.616707085296625, 10.805366740901315 ], [ 122.616997225206532, 10.805390919227138 ], [ 122.617163019440753, 10.805397827320231 ], [ 122.617404802698985, 10.805390919227138 ], [ 122.6176604021434, 10.805363286854769 ], [ 122.617881461122366, 10.805299818749482 ], [ 122.618166419962421, 10.805178927120366 ], [ 122.618441016662842, 10.805082213817071 ], [ 122.618653440525435, 10.805007951816329 ], [ 122.618689708014173, 10.804987227537051 ], [ 122.6187967834571, 10.804959595164682 ], [ 122.619021296482615, 10.804918146606127 ], [ 122.61907828825062, 10.804916419582854 ], [ 122.619169820484089, 10.804926781722493 ], [ 122.619347703881246, 10.804952687071589 ], [ 122.619475503603468, 10.804990681583597 ], [ 122.619670657233328, 10.805096030003256 ], [ 122.619757008396974, 10.805146113678177 ], [ 122.619858902770076, 10.805266573551474 ], [ 122.619998791655206, 10.805542897275171 ], [ 122.620022969981022, 10.805757479916853 ], [ 122.620026424027571, 10.805914639034706 ], [ 122.620050602353402, 10.806083023803833 ], [ 122.620055783423211, 10.806333442178433 ], [ 122.620104140074858, 10.80667668805396 ], [ 122.620171493982511, 10.806976758347661 ], [ 122.62040291510111, 10.807435714782487 ], [ 122.620404642124385, 10.807528110527599 ], [ 122.620509990544036, 10.807747442483283 ], [ 122.620610157893879, 10.807935256264232 ], [ 122.620782860221183, 10.808154156464097 ], [ 122.620997011107079, 10.808361831012688 ], [ 122.621280242923874, 10.80860879534074 ], [ 122.621584199019935, 10.808817765156785 ], [ 122.621710271718868, 10.808850578598975 ], [ 122.622138573490602, 10.808817765156785 ], [ 122.622354451399744, 10.808771135528412 ], [ 122.622610050844159, 10.808632973666564 ], [ 122.622696402007804, 10.808532806316723 ], [ 122.622748212706, 10.808436524769249 ], [ 122.622763755915457, 10.808360535745232 ], [ 122.622781026148189, 10.808155451731551 ], [ 122.622784480194738, 10.807994838567154 ], [ 122.622838017916209, 10.807779824169653 ], [ 122.622846653032582, 10.807693473005997 ], [ 122.622827655776575, 10.807315686665007 ], [ 122.622670496658728, 10.80650916679647 ], [ 122.622582418471794, 10.806198302607312 ], [ 122.622458072796135, 10.805949179500168 ], [ 122.622414897214298, 10.80582828787105 ], [ 122.622302640701548, 10.805576142473178 ], [ 122.622022862931303, 10.805074442212343 ], [ 122.621815620138534, 10.804840430558837 ], [ 122.621591107113034, 10.804659093115163 ], [ 122.6213873183668, 10.804533883927862 ], [ 122.621114448689653, 10.804412992298746 ], [ 122.620658514545553, 10.804297281739448 ], [ 122.620054056399994, 10.804191933319792 ], [ 122.619922802631237, 10.804167754993969 ], [ 122.619674111279906, 10.804098674063045 ], [ 122.619456506347504, 10.804043409318306 ], [ 122.619176728577258, 10.803922517689188 ], [ 122.619024750529221, 10.803860344851357 ], [ 122.618648259455682, 10.803604745406936 ], [ 122.618617173036753, 10.803557252266927 ], [ 122.61852045973346, 10.803363825660337 ], [ 122.618492827361095, 10.803225663798489 ], [ 122.618592994710937, 10.803049507424632 ], [ 122.618803691550255, 10.802824994399128 ], [ 122.618972939831025, 10.802783545840573 ], [ 122.619035112668854, 10.80272137300274 ], [ 122.619259625694369, 10.802577166559436 ], [ 122.619656841047174, 10.802242124044453 ], [ 122.6199262566778, 10.802035744763316 ], [ 122.620164585889498, 10.801798279063261 ], [ 122.620389098914998, 10.801501231060286 ], [ 122.620603249800865, 10.801109196777292 ], [ 122.620661968592159, 10.800926132310341 ], [ 122.620703417150708, 10.800677440959014 ], [ 122.620713779290355, 10.800161061000351 ], [ 122.620682692871441, 10.799836380625006 ], [ 122.620617065987062, 10.799540196133668 ], [ 122.620544531009585, 10.799398580225272 ], [ 122.620537622916487, 10.799362312736536 ], [ 122.620399461054632, 10.799224150874686 ], [ 122.620216396587693, 10.799075626873199 ], [ 122.619591214162824, 10.798833843614963 ], [ 122.619231993322018, 10.798747492451307 ], [ 122.618479011174912, 10.7984236755876 ], [ 122.618168146985752, 10.79814044377081 ], [ 122.617978174425716, 10.79788484432639 ], [ 122.61792636372752, 10.797743228417994 ], [ 122.617833104470762, 10.797616292207419 ], [ 122.617791655912214, 10.797201806621873 ], [ 122.617916001587872, 10.796898714037441 ], [ 122.618036893216996, 10.796715649570491 ], [ 122.618226865777032, 10.796560217475911 ], [ 122.618423746430167, 10.796477320358802 ], [ 122.61852045973346, 10.796446233939886 ], [ 122.618841686062268, 10.796453142032979 ], [ 122.619066199087769, 10.796504952731171 ], [ 122.619332160671831, 10.796667292918844 ], [ 122.619908986445068, 10.797074870411299 ], [ 122.620313109890986, 10.797371918414273 ], [ 122.62061015789395, 10.797627517858693 ], [ 122.621231886272284, 10.798112811398441 ], [ 122.621711998742214, 10.798461670099609 ], [ 122.621860522743702, 10.79856183744945 ], [ 122.62238208377218, 10.798796712614593 ], [ 122.622675677728594, 10.798910696150617 ], [ 122.622813839590449, 10.798941782569534 ], [ 122.622972725731572, 10.798945236616079 ], [ 122.623093617360695, 10.798938328522988 ], [ 122.62320760089672, 10.798896879964433 ], [ 122.623352670851659, 10.7988347071266 ], [ 122.623494286760049, 10.798737993823307 ], [ 122.62360136220299, 10.798651642659651 ], [ 122.623663535040819, 10.798568745542543 ], [ 122.623725707878648, 10.798468578192702 ], [ 122.623736070018296, 10.798361502749769 ], [ 122.623732615971747, 10.798288967772297 ], [ 122.623701529552832, 10.798202616608643 ], [ 122.623694621459734, 10.79809554116571 ], [ 122.623670443133918, 10.798023006188238 ], [ 122.623646264808087, 10.797909022652213 ], [ 122.623615178389173, 10.797795902627822 ], [ 122.623508102946246, 10.797509216764487 ], [ 122.623470108434233, 10.797443589880109 ], [ 122.623397573456771, 10.797179355319322 ], [ 122.62337339513094, 10.797061917736752 ], [ 122.623380303224039, 10.796778685919961 ], [ 122.623394119410221, 10.796751053547592 ], [ 122.623394119410221, 10.796709604989037 ], [ 122.623487378666965, 10.7964229191257 ], [ 122.623235233269085, 10.796312389636221 ], [ 122.623135065919257, 10.795429880743658 ], [ 122.622820747683548, 10.794909183226817 ], [ 122.622451164703094, 10.79455168940928 ], [ 122.621791441812761, 10.794182106428835 ], [ 122.620941746362405, 10.793889375984042 ], [ 122.619670657233385, 10.793827203146209 ], [ 122.618147422706485, 10.794517148943818 ], [ 122.6177916559122, 10.795399657836375 ], [ 122.617784747819101, 10.79567166400189 ], [ 122.617743299260553, 10.795878906794664 ], [ 122.617643131910711, 10.796023976749606 ], [ 122.617442797211027, 10.796200133123463 ], [ 122.617138841114965, 10.79624848977511 ], [ 122.615957557196154, 10.795609491164058 ], [ 122.614745186858414, 10.795336621486907 ], [ 122.614517219786364, 10.794995534390464 ], [ 122.614527581926012, 10.793653637307258 ], [ 122.614423960529621, 10.793278873256991 ], [ 122.61419944750412, 10.793088900696949 ], [ 122.613791870011667, 10.792974917160924 ], [ 122.613411924891551, 10.792797033763792 ], [ 122.612786742466682, 10.792386002224791 ], [ 122.612503510649901, 10.792082046128725 ], [ 122.612085571017801, 10.792057867802901 ], [ 122.612047576505788, 10.792237478223305 ], [ 122.611387853615469, 10.792921379439456 ], [ 122.611018270635014, 10.793079402068948 ], [ 122.610558882444366, 10.793224472023889 ], [ 122.609636652016505, 10.79356210507378 ], [ 122.597971473318196, 10.796311094368741 ], [ 122.597866650561627, 10.796333459718468 ] ] ] ] } }
]
}
