{
"type": "FeatureCollection",
"name": "BOUNDARIES_SanMiguel_Municipal",
"crs": { "type": "name", "properties": { "name": "urn:ogc:def:crs:OGC:1.3:CRS84" } },
"features": [
{ "type": "Feature", "properties": { "psgc": "0603041000", "admin_type": "Municipality", "region": "Region VI (Western Visayas)", "province": "Iloilo", "municity": "San Miguel", "barangay": null, "population": "31,093" }, "geometry": { "type": "MultiPolygon", "coordinates": [ [ [ [ 122.41921356335952, 10.759934769580262 ], [ 122.418734893982247, 10.759183485047929 ], [ 122.418455403501952, 10.759558155244855 ], [ 122.418110411292361, 10.759766162414364 ], [ 122.41772317639402, 10.759798858998735 ], [ 122.417428802579536, 10.760229713224881 ], [ 122.417023615027276, 10.760020149410181 ], [ 122.416964108999281, 10.760267125314515 ], [ 122.416688195390947, 10.76029053559644 ], [ 122.416339546019529, 10.760385592372828 ], [ 122.41675469181844, 10.760946292329159 ], [ 122.416787926769118, 10.761281350007833 ], [ 122.416400374070875, 10.761472046843194 ], [ 122.416158357607031, 10.761484991658575 ], [ 122.415910798996961, 10.761862590696154 ], [ 122.416009617523741, 10.762069693066969 ], [ 122.4156779813204, 10.762125362194462 ], [ 122.415473887713077, 10.76255090013831 ], [ 122.416276793230537, 10.762815621466336 ], [ 122.416309513932859, 10.7634177161982 ], [ 122.416207360779822, 10.763685519748055 ], [ 122.415973337814933, 10.764154670076026 ], [ 122.415621632851227, 10.764577153675543 ], [ 122.415702179003731, 10.764973556188894 ], [ 122.415846966388855, 10.765186310690218 ], [ 122.415486260102767, 10.765507226247907 ], [ 122.415247628506279, 10.76577094307059 ], [ 122.415561031612398, 10.765886389641803 ], [ 122.415496702594496, 10.766115978491559 ], [ 122.415275771789538, 10.766236159877989 ], [ 122.415159363550458, 10.766365727495337 ], [ 122.415095111645016, 10.766555117123541 ], [ 122.414769892871462, 10.76654301818256 ], [ 122.414555512127109, 10.766278447104389 ], [ 122.414468316735338, 10.766318481771552 ], [ 122.414514058894284, 10.766691846887605 ], [ 122.41430496394139, 10.766697194877581 ], [ 122.414182765922092, 10.766817562761812 ], [ 122.41416507607785, 10.766955355347338 ], [ 122.414025487589214, 10.767058461158568 ], [ 122.413711328958144, 10.767333520348185 ], [ 122.413745803137118, 10.76752654188831 ], [ 122.413832699237147, 10.767641562019646 ], [ 122.413594154254085, 10.767859335548341 ], [ 122.413715786647373, 10.768031847974916 ], [ 122.41388979007327, 10.768152775500223 ], [ 122.414034710716919, 10.768296618078333 ], [ 122.413952778667621, 10.768618058116548 ], [ 122.4140107355406, 10.768681337874439 ], [ 122.414370970298833, 10.768607362609602 ], [ 122.414801175826753, 10.768389949307196 ], [ 122.415219212113598, 10.768459650849952 ], [ 122.415312549074301, 10.768247345068982 ], [ 122.415477636101031, 10.768474782500547 ], [ 122.415497576260123, 10.768675816351561 ], [ 122.41557599949806, 10.768667350025474 ], [ 122.415608269464059, 10.768497999693428 ], [ 122.415721811149965, 10.768348902107871 ], [ 122.415925171283575, 10.768306213632883 ], [ 122.416084622894061, 10.768444340823921 ], [ 122.416173304835482, 10.768506517741164 ], [ 122.416197595799176, 10.768590993669001 ], [ 122.415962231220689, 10.76866520626886 ], [ 122.415947390663916, 10.768831719000044 ], [ 122.415946992412955, 10.769038457279731 ], [ 122.415946771158886, 10.769153311878354 ], [ 122.415868215026535, 10.769230691954016 ], [ 122.415769281368341, 10.769333875089767 ], [ 122.415399813370058, 10.769426977344809 ], [ 122.414824146841227, 10.769277536892464 ], [ 122.414756064873714, 10.769444904971335 ], [ 122.414726580941746, 10.769674560206749 ], [ 122.415060186226057, 10.769857044023759 ], [ 122.41521434468801, 10.770230613518049 ], [ 122.415534058457723, 10.770087647565139 ], [ 122.415652380176255, 10.769970144187637 ], [ 122.415799507173944, 10.769974249610156 ], [ 122.415826130985323, 10.770223152582373 ], [ 122.41608570727621, 10.770143242999898 ], [ 122.416174968912202, 10.770036213366984 ], [ 122.41631410113429, 10.770170473114371 ], [ 122.41638730677262, 10.770358207130284 ], [ 122.416499439010423, 10.770438817578864 ], [ 122.416646514698058, 10.770469721717737 ], [ 122.416840215925305, 10.770416486767417 ], [ 122.417198700702812, 10.770582297886465 ], [ 122.421961520075129, 10.774393498987969 ], [ 122.426235362288423, 10.771897200611701 ], [ 122.428759064670729, 10.774351935424779 ], [ 122.431411807447745, 10.776719199288435 ], [ 122.435391598686508, 10.780278490279912 ], [ 122.439243902049512, 10.783640789991487 ], [ 122.443705562735317, 10.787612424915629 ], [ 122.447945189234716, 10.791380340785466 ], [ 122.453313111266098, 10.796243598450015 ], [ 122.453533743297612, 10.796431143251288 ], [ 122.453562655549959, 10.79645568381348 ], [ 122.45361524534411, 10.796500963763544 ], [ 122.456070428645972, 10.798735161962501 ], [ 122.463000023665558, 10.804981954647594 ], [ 122.464316823570528, 10.806169792804724 ], [ 122.470191376068513, 10.81347842289515 ], [ 122.471478576513661, 10.816548802694575 ], [ 122.473502749963927, 10.821378625579475 ], [ 122.483944704597633, 10.818431921438238 ], [ 122.49099477123444, 10.817707682982608 ], [ 122.498275922662032, 10.817041433813483 ], [ 122.497416336758306, 10.813355772934214 ], [ 122.496860873470297, 10.809375387599603 ], [ 122.496748203027806, 10.806198039887359 ], [ 122.49598178009073, 10.801965097038652 ], [ 122.495404291351775, 10.793506878192648 ], [ 122.495404278708705, 10.793506673762449 ], [ 122.495404080397464, 10.793503787511558 ], [ 122.49540406912547, 10.793503621842417 ], [ 122.495404068701205, 10.793503616570634 ], [ 122.495404067464179, 10.793503598026248 ], [ 122.495404066458079, 10.793503583706059 ], [ 122.495381343012127, 10.79317075702901 ], [ 122.495369875560925, 10.793065118662319 ], [ 122.49536987152004, 10.793065080614383 ], [ 122.495369870166016, 10.793065069055503 ], [ 122.494909947876124, 10.788828209614286 ], [ 122.494263241713199, 10.784135251477087 ], [ 122.493527473598192, 10.781339131056557 ], [ 122.49497164262128, 10.774106211526048 ], [ 122.500314741041151, 10.76981528594195 ], [ 122.508076814176874, 10.763493608146778 ], [ 122.503543023546257, 10.756080691944739 ], [ 122.502438808721578, 10.754262001799717 ], [ 122.49814724186588, 10.755875576104039 ], [ 122.497912889926738, 10.755939516885537 ], [ 122.497657633783319, 10.755766819136243 ], [ 122.497523932396234, 10.755841259549168 ], [ 122.497384223534937, 10.756036290469698 ], [ 122.497354633326609, 10.756369326586311 ], [ 122.497301283709021, 10.756728646265914 ], [ 122.497144369832213, 10.756791563245248 ], [ 122.496964529432077, 10.756670672515982 ], [ 122.496848192698039, 10.756779597709105 ], [ 122.496876945883272, 10.756951930032796 ], [ 122.496586729670724, 10.756848088668399 ], [ 122.496499451467642, 10.756945575186561 ], [ 122.496446819665863, 10.757163717241946 ], [ 122.496115881490269, 10.757100009166463 ], [ 122.495982837123037, 10.75677819399794 ], [ 122.495750459471353, 10.756818017331804 ], [ 122.49537311714974, 10.756719775248877 ], [ 122.49519881787954, 10.756759691663564 ], [ 122.495001267549199, 10.756811056713085 ], [ 122.494670005987842, 10.756942602665765 ], [ 122.494385278071036, 10.756777940385449 ], [ 122.49420313663191, 10.756548457932762 ], [ 122.494123835268553, 10.756349420772871 ], [ 122.494159526113123, 10.756170960263402 ], [ 122.494105984000839, 10.755987734775458 ], [ 122.493961245414837, 10.755714714697159 ], [ 122.493859808755445, 10.755594906857164 ], [ 122.493719367929145, 10.755647320143764 ], [ 122.493601539903537, 10.755874544760992 ], [ 122.493278675957001, 10.755809314889587 ], [ 122.493084757074755, 10.75600521211131 ], [ 122.492842535788569, 10.756143602055623 ], [ 122.492503663000605, 10.756195690560387 ], [ 122.491681315040879, 10.75626001690128 ], [ 122.491367226378955, 10.756260017079462 ], [ 122.491240197357953, 10.75636112228414 ], [ 122.491206029819381, 10.756533350973982 ], [ 122.491124302700754, 10.75663898082462 ], [ 122.49091246849423, 10.756549619777036 ], [ 122.490767091946807, 10.756658494977037 ], [ 122.490572285911753, 10.756804617340375 ], [ 122.490374644223792, 10.75691053606791 ], [ 122.490220042754515, 10.756979004368075 ], [ 122.490153700142258, 10.757109484471025 ], [ 122.490010932075648, 10.757323636273652 ], [ 122.489933120676227, 10.757219732484762 ], [ 122.489689632788483, 10.75695899079007 ], [ 122.488299203618766, 10.757217043550327 ], [ 122.488039310037848, 10.757501268088321 ], [ 122.475769772036983, 10.767774967376889 ], [ 122.471234526361044, 10.768822893139312 ], [ 122.471014695379665, 10.768872824617732 ], [ 122.470742846542748, 10.768944486607966 ], [ 122.466131994110512, 10.770149318590818 ], [ 122.458936155833044, 10.771864525138328 ], [ 122.457532923133684, 10.771938922841059 ], [ 122.454863793152811, 10.771757031686025 ], [ 122.454442451455208, 10.771723269182786 ], [ 122.447516394851988, 10.770924022165353 ], [ 122.445041061576347, 10.770633437814611 ], [ 122.44140922301321, 10.770124433566984 ], [ 122.434468423236993, 10.768822717315386 ], [ 122.432230804546052, 10.766666843077118 ], [ 122.431404720154873, 10.765749454537985 ], [ 122.431086058900036, 10.765398244505601 ], [ 122.430840854467618, 10.765125283773315 ], [ 122.430580351942794, 10.764859370295236 ], [ 122.430257296039102, 10.764534947617623 ], [ 122.429777604486816, 10.764030500013966 ], [ 122.427143135447864, 10.761358447771624 ], [ 122.425826523111098, 10.760017246002109 ], [ 122.420350174467174, 10.753728551892236 ], [ 122.419404717243509, 10.759590560881973 ], [ 122.41921356335952, 10.759934769580262 ] ] ] ] } }
]
}
