{
"type": "FeatureCollection",
"name": "BOUNDARIES_Pavia_Municipal",
"crs": { "type": "name", "properties": { "name": "urn:ogc:def:crs:OGC:1.3:CRS84" } },
"features": [
{ "type": "Feature", "properties": { "psgc": "0603036000", "admin_type": "Municipality", "region": "Region VI (Western Visayas)", "province": "Iloilo", "municity": "Pavia", "barangay": null, "population": "74,594" }, "geometry": { "type": "MultiPolygon", "coordinates": [ [ [ [ 122.516949584553799, 10.741252649162565 ], [ 122.516674373269424, 10.741333573653892 ], [ 122.513323247443509, 10.739499356441854 ], [ 122.512798125666976, 10.740104861995347 ], [ 122.51261467491706, 10.740439195805502 ], [ 122.512705680075797, 10.740719698324394 ], [ 122.512961423283784, 10.740928109127918 ], [ 122.512567753254714, 10.74118071757999 ], [ 122.512448146426479, 10.741623677888045 ], [ 122.512795448690966, 10.741768926030632 ], [ 122.512786084771747, 10.741904569028687 ], [ 122.512337437304964, 10.742220397548504 ], [ 122.512328014900035, 10.742392215818388 ], [ 122.512574773635848, 10.74250113049005 ], [ 122.512592322583032, 10.742962394353292 ], [ 122.512774829113454, 10.743215909309754 ], [ 122.51303051621376, 10.743460495418105 ], [ 122.512938680807167, 10.743695491020267 ], [ 122.512590983221997, 10.743794426214906 ], [ 122.512572458820131, 10.743939098609461 ], [ 122.512288751837232, 10.744056221870578 ], [ 122.512197017664747, 10.744227910446602 ], [ 122.512205580554792, 10.744589677793744 ], [ 122.51205908825041, 10.744688929268937 ], [ 122.511857050540598, 10.745204109999516 ], [ 122.51180046949122, 10.746262150664615 ], [ 122.511004113063422, 10.746676910577539 ], [ 122.510784525941702, 10.746730826688834 ], [ 122.510747635722154, 10.746920689093425 ], [ 122.510884355314744, 10.747210308132846 ], [ 122.51078321038446, 10.747544770483701 ], [ 122.51080112199962, 10.747779938704102 ], [ 122.510672933992851, 10.747870174506943 ], [ 122.510297866567655, 10.747923844394681 ], [ 122.510041285101764, 10.74823092896473 ], [ 122.509812931686781, 10.748049690580094 ], [ 122.509519839487965, 10.748311497662815 ], [ 122.509501239972622, 10.748501388842849 ], [ 122.508787642576166, 10.748635914749519 ], [ 122.508522676846411, 10.748472705011647 ], [ 122.508165914829462, 10.748517357502658 ], [ 122.508220246251241, 10.74885206587207 ], [ 122.507945531926296, 10.749059637535364 ], [ 122.507716840873869, 10.749086405385301 ], [ 122.507642791020714, 10.74962891786126 ], [ 122.507294466647622, 10.750107686884585 ], [ 122.506955950192989, 10.750179498448219 ], [ 122.506836920721653, 10.750260703316917 ], [ 122.506772589775494, 10.750450521352242 ], [ 122.50658953871303, 10.750531624072925 ], [ 122.506452423679178, 10.750486186248009 ], [ 122.506242613581222, 10.750151229652888 ], [ 122.505968324953841, 10.75009652890212 ], [ 122.505784993276222, 10.750349463565101 ], [ 122.505528981615598, 10.75030383544436 ], [ 122.505500731017321, 10.750801201193694 ], [ 122.505125718482333, 10.750818689384241 ], [ 122.504988307667773, 10.750954127114625 ], [ 122.505079545078161, 10.751089930549433 ], [ 122.504951206070075, 10.751270601930138 ], [ 122.50456734317531, 10.751107198605206 ], [ 122.504484866855663, 10.751206548709643 ], [ 122.504548666282062, 10.751342308354237 ], [ 122.504411062402383, 10.751595315315253 ], [ 122.504428732151752, 10.751975184568982 ], [ 122.504117843638141, 10.751929467345988 ], [ 122.50408080026844, 10.752209766760624 ], [ 122.503879233087105, 10.75242649558948 ], [ 122.503723736719053, 10.752435290058699 ], [ 122.503431748394533, 10.752018805387578 ], [ 122.503194027696239, 10.751973204653744 ], [ 122.503093154801135, 10.752135831628785 ], [ 122.503120265931457, 10.752334839432015 ], [ 122.502927383350993, 10.752831940278156 ], [ 122.502671043078777, 10.752985273454833 ], [ 122.502698198580674, 10.753157149859122 ], [ 122.50256069640136, 10.753346849229747 ], [ 122.502696801069021, 10.754007267538597 ], [ 122.502458513712241, 10.75430533075208 ], [ 122.507939514598917, 10.763272046514501 ], [ 122.512943293427256, 10.77145931215173 ], [ 122.515583400018485, 10.775424999362391 ], [ 122.515774593208732, 10.775653967322196 ], [ 122.527217350160043, 10.790243810738536 ], [ 122.527525733019857, 10.790582034282897 ], [ 122.532169155021222, 10.795619963319574 ], [ 122.532353614178291, 10.79581975664912 ], [ 122.533708259472519, 10.797287003020701 ], [ 122.538470021317337, 10.797056158828463 ], [ 122.539919707501355, 10.796985865220016 ], [ 122.54232921348769, 10.796509315557262 ], [ 122.558783836302027, 10.791829116243978 ], [ 122.561702648265992, 10.789451024801675 ], [ 122.571138427660898, 10.781762801064865 ], [ 122.567369302080948, 10.775845754049667 ], [ 122.561806412241992, 10.766144211762725 ], [ 122.561219061491087, 10.765868457859197 ], [ 122.55351265502145, 10.76225024794328 ], [ 122.550875787925918, 10.762171000962409 ], [ 122.548307975761972, 10.760747103240114 ], [ 122.546736734504663, 10.7593431826109 ], [ 122.543992481369131, 10.75959246561753 ], [ 122.543169647673039, 10.759374197704826 ], [ 122.541891144319337, 10.758133204480981 ], [ 122.541545207292643, 10.75706551447918 ], [ 122.542671397592144, 10.754886680466276 ], [ 122.541584315676957, 10.752705347446145 ], [ 122.540330620719203, 10.750310870514769 ], [ 122.539691787263934, 10.749090723736739 ], [ 122.539414530407456, 10.749105366059249 ], [ 122.53802184761652, 10.747708522426322 ], [ 122.532720698029493, 10.737757548923257 ], [ 122.527916544559758, 10.738094112396221 ], [ 122.516949584553799, 10.741252649162565 ] ] ] ] } }
]
}
