{
"type": "FeatureCollection",
"name": "BOUNDARIES_SantaBarbara_Barangay",
"crs": { "type": "name", "properties": { "name": "urn:ogc:def:crs:OGC:1.3:CRS84" } },
"features": [
{ "type": "Feature", "properties": { "psgc": "0603043008", "admin_type": "Barangay", "region": "Region VI (Western Visayas)", "province": "Iloilo", "municity": "Santa Barbara", "barangay": "Bantay", "population": "414" }, "geometry": { "type": "MultiPolygon", "coordinates": [ [ [ [ 122.54182919985098, 10.870482890520071 ], [ 122.535759173881729, 10.865487484487407 ], [ 122.530906484087481, 10.870818807694505 ], [ 122.53130022327052, 10.871189428296249 ], [ 122.533312527608757, 10.872655646007509 ], [ 122.533704814146986, 10.872892034648231 ], [ 122.533892427930255, 10.873069215172666 ], [ 122.534358351725444, 10.873440209611532 ], [ 122.534457627296447, 10.873525983341763 ], [ 122.535090464160646, 10.874142448779146 ], [ 122.535841723772961, 10.874780288583908 ], [ 122.539882180589629, 10.871863533243532 ], [ 122.540462493056722, 10.8714626042027 ], [ 122.540968909025807, 10.871082952035879 ], [ 122.541025217070299, 10.871043068737904 ], [ 122.54182919985098, 10.870482890520071 ] ] ] ] } },
{ "type": "Feature", "properties": { "psgc": "0603043060", "admin_type": "Barangay", "region": "Region VI (Western Visayas)", "province": "Iloilo", "municity": "Santa Barbara", "barangay": "Tugas", "population": "494" }, "geometry": { "type": "MultiPolygon", "coordinates": [ [ [ [ 122.535759161145819, 10.865487495971044 ], [ 122.531289577528526, 10.860559533960867 ], [ 122.531289564792715, 10.860559545441266 ], [ 122.528920044210821, 10.858262005162235 ], [ 122.521271972536226, 10.856792446948429 ], [ 122.521271959804281, 10.856792458422625 ], [ 122.522912929748315, 10.859829848909433 ], [ 122.522999434402493, 10.860004432320242 ], [ 122.523660110273198, 10.861210432435232 ], [ 122.523877045431988, 10.861601795055492 ], [ 122.526348027097967, 10.866230982965629 ], [ 122.526706391897307, 10.866790639004407 ], [ 122.526761944671435, 10.866856752714922 ], [ 122.527038122960889, 10.867090868659748 ], [ 122.527100353142202, 10.867140403911204 ], [ 122.527274201357244, 10.867272455290856 ], [ 122.52747999687071, 10.867439934813321 ], [ 122.527712142177123, 10.867592356980625 ], [ 122.528063967942956, 10.86796797241735 ], [ 122.52819905280198, 10.868121297891621 ], [ 122.528346289258252, 10.868340027351339 ], [ 122.530906471356943, 10.870818819176188 ], [ 122.535759161145819, 10.865487495971044 ] ] ] ] } },
{ "type": "Feature", "properties": { "psgc": "0603043020", "admin_type": "Barangay", "region": "Region VI (Western Visayas)", "province": "Iloilo", "municity": "Santa Barbara", "barangay": "Buayahon", "population": "660" }, "geometry": { "type": "MultiPolygon", "coordinates": [ [ [ [ 122.531289577528526, 10.860559533960867 ], [ 122.535759161145819, 10.865487495971044 ], [ 122.541829187114089, 10.87048290200787 ], [ 122.545960224295257, 10.86761485213674 ], [ 122.547911041190645, 10.866321347844677 ], [ 122.547911053933063, 10.866321336354062 ], [ 122.549901574512035, 10.865363573983226 ], [ 122.539816180508211, 10.849852906967262 ], [ 122.531289577528526, 10.860559533960867 ] ] ] ] } },
{ "type": "Feature", "properties": { "psgc": "0603043051", "admin_type": "Barangay", "region": "Region VI (Western Visayas)", "province": "Iloilo", "municity": "Santa Barbara", "barangay": "Pungsod", "population": "367" }, "geometry": { "type": "MultiPolygon", "coordinates": [ [ [ [ 122.546977191893902, 10.855491262484568 ], [ 122.546977179146666, 10.855491273973062 ], [ 122.539816180508211, 10.849852906967262 ], [ 122.549901574512035, 10.865363573983226 ], [ 122.550459537215829, 10.865124564301581 ], [ 122.551997789989471, 10.864617128680127 ], [ 122.554918077071804, 10.863565064977454 ], [ 122.550682910757033, 10.858899697473305 ], [ 122.550682923504695, 10.858899685982218 ], [ 122.546977191893902, 10.855491262484568 ] ] ] ] } },
{ "type": "Feature", "properties": { "psgc": "0603043007", "admin_type": "Barangay", "region": "Region VI (Western Visayas)", "province": "Iloilo", "municity": "Santa Barbara", "barangay": "Ban-ag", "population": "318" }, "geometry": { "type": "MultiPolygon", "coordinates": [ [ [ [ 122.550682923504695, 10.858899685982218 ], [ 122.5496712274999, 10.852829506979271 ], [ 122.54537020649677, 10.844657366971985 ], [ 122.540417904504523, 10.846734651967008 ], [ 122.539816180508211, 10.849852906967262 ], [ 122.546977179146666, 10.855491273973062 ], [ 122.550682923504695, 10.858899685982218 ] ] ] ] } },
{ "type": "Feature", "properties": { "psgc": "0603043015", "admin_type": "Barangay", "region": "Region VI (Western Visayas)", "province": "Iloilo", "municity": "Santa Barbara", "barangay": "Barasan Oeste", "population": "554" }, "geometry": { "type": "MultiPolygon", "coordinates": [ [ [ [ 122.55750083750037, 10.862345532990947 ], [ 122.555712827318246, 10.846832514413324 ], [ 122.549671214749807, 10.852829518468882 ], [ 122.5496712274999, 10.852829506979271 ], [ 122.550682923504695, 10.858899685982218 ], [ 122.554918064324042, 10.863565076471613 ], [ 122.55750083750037, 10.862345532990947 ] ] ] ] } },
{ "type": "Feature", "properties": { "psgc": "0603043034", "admin_type": "Barangay", "region": "Region VI (Western Visayas)", "province": "Iloilo", "municity": "Santa Barbara", "barangay": "Dalid", "population": "660" }, "geometry": { "type": "MultiPolygon", "coordinates": [ [ [ [ 122.555712814561787, 10.846832525905445 ], [ 122.554006643844218, 10.83872278153112 ], [ 122.54537020649677, 10.844657366971985 ], [ 122.5496712274999, 10.852829506979271 ], [ 122.555712814561787, 10.846832525905445 ] ] ] ] } },
{ "type": "Feature", "properties": { "psgc": "0603043046", "admin_type": "Barangay", "region": "Region VI (Western Visayas)", "province": "Iloilo", "municity": "Santa Barbara", "barangay": "Manhayang", "population": "411" }, "geometry": { "type": "MultiPolygon", "coordinates": [ [ [ [ 122.540417904504523, 10.846734651967008 ], [ 122.535745718807405, 10.842784429498062 ], [ 122.5333429235084, 10.84256431395781 ], [ 122.530100175441717, 10.846331876794107 ], [ 122.530100162699569, 10.846331888271726 ], [ 122.530100149957448, 10.846331899749339 ], [ 122.530504508902609, 10.847011304913503 ], [ 122.530913745842881, 10.847679575512018 ], [ 122.53109764845469, 10.847905956564849 ], [ 122.531204017237016, 10.848062024726177 ], [ 122.531288084571628, 10.848266587816395 ], [ 122.531319742658894, 10.848446112655591 ], [ 122.531329677714496, 10.848735732698835 ], [ 122.531316154490327, 10.848950647120812 ], [ 122.531234570090845, 10.849187845779353 ], [ 122.531149676621155, 10.849309079176413 ], [ 122.531040144505013, 10.849407233625092 ], [ 122.534043933927308, 10.849428199874589 ], [ 122.536182898187548, 10.849583127639916 ], [ 122.539816180508211, 10.849852906967262 ], [ 122.540417904504523, 10.846734651967008 ] ] ] ] } },
{ "type": "Feature", "properties": { "psgc": "0603043053", "admin_type": "Barangay", "region": "Region VI (Western Visayas)", "province": "Iloilo", "municity": "Santa Barbara", "barangay": "Sangcate", "population": "364" }, "geometry": { "type": "MultiPolygon", "coordinates": [ [ [ [ 122.5333429235084, 10.84256431395781 ], [ 122.53158926792149, 10.839307927905068 ], [ 122.531589255175049, 10.839307939382486 ], [ 122.530426694351746, 10.837234892616769 ], [ 122.530223485680068, 10.836766861000694 ], [ 122.530203513585235, 10.836945205545614 ], [ 122.530159674065132, 10.83718260484148 ], [ 122.530119167150104, 10.837361142176402 ], [ 122.530009812148407, 10.837596381528829 ], [ 122.529779585423356, 10.837904351497405 ], [ 122.529512408573922, 10.838119427303349 ], [ 122.529260104586569, 10.838263322663559 ], [ 122.528829034785304, 10.838521007638805 ], [ 122.528547618405014, 10.838460933982102 ], [ 122.528070041190333, 10.838435447344354 ], [ 122.527683983430549, 10.838462382091322 ], [ 122.526907547744287, 10.838647273643774 ], [ 122.526278172714854, 10.8388885051867 ], [ 122.525903438871353, 10.839057415245858 ], [ 122.525706683930707, 10.839146953471499 ], [ 122.525452428355138, 10.839260341805236 ], [ 122.525354729625818, 10.839347840034847 ], [ 122.525325863293077, 10.839495187727962 ], [ 122.525331613808959, 10.83963471783713 ], [ 122.525368262957969, 10.839784225473839 ], [ 122.525524398890937, 10.839979509352705 ], [ 122.5257219015175, 10.840146932048386 ], [ 122.526027748049032, 10.840326102709824 ], [ 122.526599945293782, 10.840615994049099 ], [ 122.52702762757508, 10.840825101218439 ], [ 122.527500683973273, 10.841019352230338 ], [ 122.527500671230015, 10.841019363705705 ], [ 122.527500658486773, 10.841019375181068 ], [ 122.528263726479409, 10.841536114447166 ], [ 122.528990790732266, 10.842004373884661 ], [ 122.528990777988653, 10.842004385361014 ], [ 122.529262602753377, 10.842223824534388 ], [ 122.529570393027569, 10.842491777963442 ], [ 122.529818337623496, 10.842770283364535 ], [ 122.530035175091086, 10.843134829294709 ], [ 122.53006537929322, 10.843218629186811 ], [ 122.530099101060571, 10.843322376283167 ], [ 122.530085446130897, 10.843789264824919 ], [ 122.529947687198487, 10.844368874787376 ], [ 122.52988344290489, 10.845093206227142 ], [ 122.529908837082758, 10.845314970357137 ], [ 122.53003263452932, 10.846026713754515 ], [ 122.530100162699569, 10.846331888271726 ], [ 122.5333429235084, 10.84256431395781 ] ] ] ] } },
{ "type": "Feature", "properties": { "psgc": "0603043033", "admin_type": "Barangay", "region": "Region VI (Western Visayas)", "province": "Iloilo", "municity": "Santa Barbara", "barangay": "Daga", "population": "1315" }, "geometry": { "type": "MultiPolygon", "coordinates": [ [ [ [ 122.554006633719695, 10.838722805545908 ], [ 122.555712801805313, 10.846832537397574 ], [ 122.55750082475052, 10.862345544486393 ], [ 122.558072405324978, 10.861821173448442 ], [ 122.561044987423244, 10.858953178373181 ], [ 122.566252803545822, 10.853952940727906 ], [ 122.56687277904642, 10.853447342899582 ], [ 122.567039073945054, 10.853285360124641 ], [ 122.567562923412368, 10.852684180623587 ], [ 122.568638053089046, 10.851494455732938 ], [ 122.569803515705303, 10.850319631120948 ], [ 122.569820241065472, 10.850302249092644 ], [ 122.567358157078942, 10.848367773328587 ], [ 122.565454703670497, 10.846962841213687 ], [ 122.562632835070971, 10.844701772031181 ], [ 122.560484993540641, 10.843078355078362 ], [ 122.56048500630169, 10.843078343584102 ], [ 122.558091553547015, 10.841224839865795 ], [ 122.555846946322418, 10.839485803904898 ], [ 122.554573616761772, 10.838512253486027 ], [ 122.554006633719695, 10.838722805545908 ] ] ] ] } },
{ "type": "Feature", "properties": { "psgc": "0603043026", "admin_type": "Barangay", "region": "Region VI (Western Visayas)", "province": "Iloilo", "municity": "Santa Barbara", "barangay": "Cafe", "population": "1374" }, "geometry": { "type": "MultiPolygon", "coordinates": [ [ [ [ 122.569820228302675, 10.850302260593239 ], [ 122.569841802947451, 10.850279025172863 ], [ 122.569841790184626, 10.850279036673474 ], [ 122.5698417774218, 10.85027904817408 ], [ 122.569841764658975, 10.850279059674689 ], [ 122.570732230463676, 10.840401655999312 ], [ 122.567276441459967, 10.83263809599309 ], [ 122.554606101472189, 10.830364203978119 ], [ 122.557361276019435, 10.837978520601698 ], [ 122.557205295365108, 10.838002767342656 ], [ 122.554573604001888, 10.838512264976263 ], [ 122.55457359124199, 10.838512276466506 ], [ 122.562632822309524, 10.844701783526887 ], [ 122.565454690908552, 10.846962852711322 ], [ 122.565454678146594, 10.846962864208956 ], [ 122.5673581443166, 10.848367784827504 ], [ 122.569820228302675, 10.850302260593239 ] ] ] ] } },
{ "type": "Feature", "properties": { "psgc": "0603043014", "admin_type": "Barangay", "region": "Region VI (Western Visayas)", "province": "Iloilo", "municity": "Santa Barbara", "barangay": "Barasan Este", "population": "893" }, "geometry": { "type": "MultiPolygon", "coordinates": [ [ [ [ 122.567276441459967, 10.83263809599309 ], [ 122.571931519644281, 10.828472704456523 ], [ 122.568274237888446, 10.823955115396489 ], [ 122.55327218946951, 10.826054318975322 ], [ 122.554606101472189, 10.830364203978119 ], [ 122.567276441459967, 10.83263809599309 ] ] ] ] } },
{ "type": "Feature", "properties": { "psgc": "0603043016", "admin_type": "Barangay", "region": "Region VI (Western Visayas)", "province": "Iloilo", "municity": "Santa Barbara", "barangay": "Binangkilan", "population": "999" }, "geometry": { "type": "MultiPolygon", "coordinates": [ [ [ [ 122.569841790184626, 10.850279036673474 ], [ 122.570609096709148, 10.849504238502799 ], [ 122.570609083945499, 10.849504250003722 ], [ 122.574700989604068, 10.844793736488839 ], [ 122.574834145081169, 10.844635278279585 ], [ 122.575203801924289, 10.844210721956628 ], [ 122.575203789155438, 10.844210733459349 ], [ 122.580325101225341, 10.838252304504749 ], [ 122.580325088450635, 10.838252316009456 ], [ 122.580325075675958, 10.838252327514164 ], [ 122.579050714991766, 10.834176357219848 ], [ 122.577115924145204, 10.827787437655781 ], [ 122.57193153245062, 10.828472692997067 ], [ 122.567276441459967, 10.83263809599309 ], [ 122.570732230463676, 10.840401655999312 ], [ 122.569841790184626, 10.850279036673474 ] ] ] ] } },
{ "type": "Feature", "properties": { "psgc": "0603043049", "admin_type": "Barangay", "region": "Region VI (Western Visayas)", "province": "Iloilo", "municity": "Santa Barbara", "barangay": "Omambog", "population": "193" }, "geometry": { "type": "MultiPolygon", "coordinates": [ [ [ [ 122.580325088450635, 10.838252316009456 ], [ 122.588753669432037, 10.838347764164133 ], [ 122.588817657818467, 10.838341544409003 ], [ 122.58912336042809, 10.838340913315999 ], [ 122.58995753382294, 10.838357881751037 ], [ 122.591644176431245, 10.83155940702021 ], [ 122.588411765052243, 10.832797193171173 ], [ 122.580325088450635, 10.838252316009456 ] ] ] ] } },
{ "type": "Feature", "properties": { "psgc": "0603043017", "admin_type": "Barangay", "region": "Region VI (Western Visayas)", "province": "Iloilo", "municity": "Santa Barbara", "barangay": "Bitaog-Taytay", "population": "355" }, "geometry": { "type": "MultiPolygon", "coordinates": [ [ [ [ 122.588411739488265, 10.832797216188061 ], [ 122.588411752270247, 10.832797204679617 ], [ 122.591644176431245, 10.83155940702021 ], [ 122.589957521042791, 10.83835789326119 ], [ 122.591098013870749, 10.837890586037574 ], [ 122.595601989656956, 10.835766327675328 ], [ 122.595602002441595, 10.83576631616239 ], [ 122.598416778604275, 10.834765445575083 ], [ 122.59851563025056, 10.834587725549444 ], [ 122.598674200326968, 10.834308700209137 ], [ 122.598791106501722, 10.83405581280763 ], [ 122.599259977957416, 10.832642389046013 ], [ 122.598910932423138, 10.831801516028468 ], [ 122.598013370689813, 10.831357742260675 ], [ 122.597605553491476, 10.830904565248565 ], [ 122.597444687382833, 10.830395289371191 ], [ 122.597377144626932, 10.82963268346796 ], [ 122.597645509481509, 10.829427886787011 ], [ 122.598122867027868, 10.829591784062384 ], [ 122.598635284044249, 10.829617269052228 ], [ 122.599852565024193, 10.828519803080825 ], [ 122.599882896217537, 10.828118542398521 ], [ 122.599036167026838, 10.827760337412061 ], [ 122.598608751749524, 10.827844633484451 ], [ 122.598101829019271, 10.82809266851992 ], [ 122.597697982710415, 10.828086248209665 ], [ 122.597680552005585, 10.82807655329615 ], [ 122.597262658562286, 10.827842442137523 ], [ 122.597161923269098, 10.827725131438404 ], [ 122.597121416893287, 10.827636250642307 ], [ 122.59705911768593, 10.827508218985571 ], [ 122.596855333770378, 10.827067875232121 ], [ 122.596831904334536, 10.826926027289449 ], [ 122.596817149741241, 10.826695714449608 ], [ 122.596785819151819, 10.826248773872562 ], [ 122.596976392542715, 10.825897810951853 ], [ 122.597228659406966, 10.825622637949373 ], [ 122.59654442281267, 10.825484803408374 ], [ 122.596084235101742, 10.825671272042182 ], [ 122.595827490345087, 10.825762164286125 ], [ 122.59550507848428, 10.825890205936304 ], [ 122.595073255802689, 10.826683080390195 ], [ 122.595052032502906, 10.8268113545374 ], [ 122.594944950664456, 10.827299180603495 ], [ 122.595080769218498, 10.827622708469857 ], [ 122.595041358557964, 10.827819610537771 ], [ 122.594786858130092, 10.827978638921637 ], [ 122.594695334675691, 10.827384763590944 ], [ 122.594653585899579, 10.827091174422643 ], [ 122.59463430735579, 10.826756160005393 ], [ 122.595454815528186, 10.824544507398429 ], [ 122.595019544928334, 10.824027071325942 ], [ 122.594234032001097, 10.824228118284214 ], [ 122.593856732884447, 10.82381773362847 ], [ 122.593480232726932, 10.824099118392377 ], [ 122.592467433247236, 10.824496604352984 ], [ 122.592162293619225, 10.824827952414161 ], [ 122.591501846263554, 10.824549038069517 ], [ 122.591258401257534, 10.824690235009461 ], [ 122.591136580620741, 10.825063533179595 ], [ 122.590813609807, 10.825315934178532 ], [ 122.590442924691217, 10.825475111608174 ], [ 122.59007095614102, 10.825227969171081 ], [ 122.589856892445752, 10.824945166803552 ], [ 122.586816708433076, 10.827888309013675 ], [ 122.586601279735333, 10.828207573418858 ], [ 122.588411739488265, 10.832797216188061 ] ] ] ] } },
{ "type": "Feature", "properties": { "psgc": "0603043030", "admin_type": "Barangay", "region": "Region VI (Western Visayas)", "province": "Iloilo", "municity": "Santa Barbara", "barangay": "Canipayan", "population": "416" }, "geometry": { "type": "MultiPolygon", "coordinates": [ [ [ [ 122.583133683601048, 10.824540842995773 ], [ 122.582058938661206, 10.822340678475644 ], [ 122.58179907546878, 10.821847507015447 ], [ 122.580988619352411, 10.820313108077542 ], [ 122.570935756437933, 10.814416574991686 ], [ 122.568274225113583, 10.823955126892246 ], [ 122.57193153245062, 10.828472692997067 ], [ 122.577115911367187, 10.827787449157107 ], [ 122.581458235176058, 10.825347975053349 ], [ 122.58197727287542, 10.824791656971492 ], [ 122.583133683601048, 10.824540842995773 ] ] ] ] } },
{ "type": "Feature", "properties": { "psgc": "0603043037", "admin_type": "Barangay", "region": "Region VI (Western Visayas)", "province": "Iloilo", "municity": "Santa Barbara", "barangay": "Guno", "population": "495" }, "geometry": { "type": "MultiPolygon", "coordinates": [ [ [ [ 122.554006618325246, 10.838722804511027 ], [ 122.541710522972423, 10.834125756008051 ], [ 122.535745706060325, 10.842784440978335 ], [ 122.540417904504523, 10.846734651967008 ], [ 122.54537020649677, 10.844657366971985 ], [ 122.554006592806289, 10.838722827490939 ], [ 122.554006618325246, 10.838722804511027 ] ] ] ] } },
{ "type": "Feature", "properties": { "psgc": "0603043041", "admin_type": "Barangay", "region": "Region VI (Western Visayas)", "province": "Iloilo", "municity": "Santa Barbara", "barangay": "Lanag", "population": "2331" }, "geometry": { "type": "MultiPolygon", "coordinates": [ [ [ [ 122.541710510217669, 10.834125767490386 ], [ 122.554006631084718, 10.838722793021073 ], [ 122.554573604001888, 10.838512264976263 ], [ 122.552818408295906, 10.831908367203999 ], [ 122.545736679911144, 10.827408301945418 ], [ 122.545736692671468, 10.827408290461822 ], [ 122.545736705431779, 10.82740827897822 ], [ 122.541978496306626, 10.824634258708244 ], [ 122.541945452745765, 10.824618583697122 ], [ 122.541863775864201, 10.82481637776552 ], [ 122.541701417508605, 10.825081530067424 ], [ 122.541666495761561, 10.825175098992968 ], [ 122.541535236689342, 10.82541248650762 ], [ 122.54139938785579, 10.825604406593198 ], [ 122.541334254062093, 10.825672451367845 ], [ 122.541199766632644, 10.825920691815549 ], [ 122.541177264533943, 10.82600692905773 ], [ 122.541178132157071, 10.826099329467723 ], [ 122.541196020958083, 10.826142452014405 ], [ 122.541206087717612, 10.826180097934415 ], [ 122.541204907350505, 10.826231724605847 ], [ 122.541174880263512, 10.826285009618676 ], [ 122.541019364232938, 10.826569522904389 ], [ 122.540982583378181, 10.826671989385686 ], [ 122.540581322658639, 10.827769396590677 ], [ 122.540403859409025, 10.828376574611507 ], [ 122.540240721987743, 10.828617868956375 ], [ 122.539660144498669, 10.829563500414812 ], [ 122.539424247970132, 10.82985875846332 ], [ 122.539277541543228, 10.830076588281033 ], [ 122.539236547704789, 10.830145527793047 ], [ 122.539236560460083, 10.830145516312694 ], [ 122.539192347096957, 10.830254435147141 ], [ 122.539140299924441, 10.830445290964416 ], [ 122.539075555663814, 10.830525264718915 ], [ 122.538951158530281, 10.830636323869532 ], [ 122.538629998611583, 10.830895196983541 ], [ 122.53823941219072, 10.831149171840622 ], [ 122.537793855138389, 10.831519104105759 ], [ 122.53771834968677, 10.831635254303556 ], [ 122.539283441251456, 10.832511009436065 ], [ 122.541710510217669, 10.834125767490386 ] ] ] ] } },
{ "type": "Feature", "properties": { "psgc": "0603043047", "admin_type": "Barangay", "region": "Region VI (Western Visayas)", "province": "Iloilo", "municity": "Santa Barbara", "barangay": "Miraga-Guibuangan", "population": "1210" }, "geometry": { "type": "MultiPolygon", "coordinates": [ [ [ [ 122.553272176704212, 10.826054330462959 ], [ 122.558315700457001, 10.819231773978956 ], [ 122.549866881165642, 10.810524046924874 ], [ 122.543492564723664, 10.814369741912849 ], [ 122.543650388531745, 10.814375336525812 ], [ 122.543923691698936, 10.814413702355145 ], [ 122.543998001092476, 10.814465730308159 ], [ 122.544073872540608, 10.814536336308056 ], [ 122.544149346610013, 10.81465328906747 ], [ 122.544233518189259, 10.814809843123678 ], [ 122.544249937415131, 10.81487379220431 ], [ 122.544263899503733, 10.815030727914301 ], [ 122.544263886738165, 10.815030739395199 ], [ 122.544254368008126, 10.815375198829445 ], [ 122.544253168026529, 10.815572514846682 ], [ 122.54431429665155, 10.816201040623277 ], [ 122.544323753613043, 10.816410189224888 ], [ 122.544296109129235, 10.816924107124841 ], [ 122.544296096364548, 10.816924118606044 ], [ 122.544218599424738, 10.818127256042025 ], [ 122.544213087121349, 10.81839731837564 ], [ 122.544245300084398, 10.818813270697456 ], [ 122.544253684849821, 10.818996899074502 ], [ 122.544290973509732, 10.819480514516636 ], [ 122.544313663657277, 10.819813305292906 ], [ 122.544306091595587, 10.820130007497104 ], [ 122.544249539295151, 10.820373076203264 ], [ 122.54419397455689, 10.820543984814174 ], [ 122.544193961794065, 10.820543996295861 ], [ 122.544193949031254, 10.820544007777549 ], [ 122.544094408874159, 10.82069865633494 ], [ 122.543929689783809, 10.82106706197726 ], [ 122.543682622916592, 10.821532256832597 ], [ 122.543571219923692, 10.821726722440484 ], [ 122.543430456816054, 10.822104615785113 ], [ 122.543430444054422, 10.822104627266613 ], [ 122.543350338066219, 10.822350125769338 ], [ 122.543290569176989, 10.822516633800415 ], [ 122.543118911359343, 10.82285541174844 ], [ 122.542909998519605, 10.82318704687739 ], [ 122.54267429479566, 10.82350283834716 ], [ 122.542386559589701, 10.823892934154248 ], [ 122.542156718474189, 10.824241970964009 ], [ 122.541945452745765, 10.824618583697122 ], [ 122.541978483547055, 10.824634270189303 ], [ 122.541978470787484, 10.824634281670367 ], [ 122.541978458027941, 10.824634293151428 ], [ 122.545736667150805, 10.827408313429013 ], [ 122.552818395533734, 10.831908378692265 ], [ 122.554573604001888, 10.838512264976263 ], [ 122.557205282603448, 10.838002778834303 ], [ 122.557361247238674, 10.837978534583543 ], [ 122.55460608870824, 10.830364215467151 ], [ 122.553272176704212, 10.826054330462959 ] ] ] ] } },
{ "type": "Feature", "properties": { "psgc": "0603043001", "admin_type": "Barangay", "region": "Region VI (Western Visayas)", "province": "Iloilo", "municity": "Santa Barbara", "barangay": "Agusipan", "population": "575" }, "geometry": { "type": "MultiPolygon", "coordinates": [ [ [ [ 122.549866881165642, 10.810524046924874 ], [ 122.558315700457001, 10.819231773978956 ], [ 122.567247054443357, 10.815719452987926 ], [ 122.567247041665027, 10.815719464481861 ], [ 122.567580714116843, 10.815602451155378 ], [ 122.562849968613193, 10.805360958622586 ], [ 122.560774845963792, 10.804934387614789 ], [ 122.560641985736737, 10.804906966113228 ], [ 122.558515835072512, 10.804467640194455 ], [ 122.549866881165642, 10.810524046924874 ] ] ] ] } },
{ "type": "Feature", "properties": { "psgc": "0603043028", "admin_type": "Barangay", "region": "Region VI (Western Visayas)", "province": "Iloilo", "municity": "Santa Barbara", "barangay": "Calaboa Oeste", "population": "330" }, "geometry": { "type": "MultiPolygon", "coordinates": [ [ [ [ 122.567580716904715, 10.81560245719057 ], [ 122.570935756437933, 10.814416574991686 ], [ 122.575535226522092, 10.808058872400784 ], [ 122.569726666144732, 10.80678636463006 ], [ 122.562849968613193, 10.805360958622586 ], [ 122.567580704126144, 10.815602468684675 ], [ 122.567580716904715, 10.81560245719057 ] ] ] ] } },
{ "type": "Feature", "properties": { "psgc": "0603043042", "admin_type": "Barangay", "region": "Region VI (Western Visayas)", "province": "Iloilo", "municity": "Santa Barbara", "barangay": "Lupa", "population": "1111" }, "geometry": { "type": "MultiPolygon", "coordinates": [ [ [ [ 122.558001024656804, 10.799398815458746 ], [ 122.541762425475653, 10.805623994425158 ], [ 122.540717624635647, 10.806025369147015 ], [ 122.540717611867677, 10.806025380624549 ], [ 122.540717599099708, 10.806025392102084 ], [ 122.539970710948182, 10.806305264227658 ], [ 122.540050867257861, 10.806507088995779 ], [ 122.540117632048435, 10.806671854065243 ], [ 122.5404118833967, 10.807271273374303 ], [ 122.540576886102713, 10.807701519182135 ], [ 122.540794089558787, 10.808252821293218 ], [ 122.541029860555923, 10.808889975065576 ], [ 122.541260571548477, 10.809342914242299 ], [ 122.541431066944668, 10.809648787065223 ], [ 122.541484343813792, 10.809766225724253 ], [ 122.541515211063214, 10.81000930620498 ], [ 122.541473138168669, 10.810198403355557 ], [ 122.54487054029174, 10.808483335894845 ], [ 122.549866881165642, 10.810524046924874 ], [ 122.558515822293629, 10.804467651681756 ], [ 122.558315725870656, 10.802891381069026 ], [ 122.558303932738113, 10.802736543282197 ], [ 122.558001037437876, 10.799398803972508 ], [ 122.558001024656804, 10.799398815458746 ] ] ] ] } },
{ "type": "Feature", "properties": { "psgc": "0603043022", "admin_type": "Barangay", "region": "Region VI (Western Visayas)", "province": "Iloilo", "municity": "Santa Barbara", "barangay": "Cabugao Norte", "population": "2814" }, "geometry": { "type": "MultiPolygon", "coordinates": [ [ [ [ 122.536465837603714, 10.796501121937094 ], [ 122.536453321395641, 10.796676875611647 ], [ 122.536362309740866, 10.797210536137689 ], [ 122.536122777950411, 10.798359983034445 ], [ 122.536090680458912, 10.798902109303295 ], [ 122.536117230624313, 10.799616430682009 ], [ 122.536212019915197, 10.80007619600967 ], [ 122.536255462635864, 10.80133343248446 ], [ 122.536233908868638, 10.801638888319641 ], [ 122.536075445838392, 10.802023330402932 ], [ 122.536099281880411, 10.802197378606516 ], [ 122.536169263259126, 10.802438704349953 ], [ 122.536317866354011, 10.802659311731572 ], [ 122.536506767869724, 10.802797399838154 ], [ 122.53650675510255, 10.802797411312824 ], [ 122.536698415730541, 10.8028733014523 ], [ 122.537337509467747, 10.803075983747375 ], [ 122.537605626806297, 10.803138402288011 ], [ 122.537681895633128, 10.803162661528523 ], [ 122.537740661269225, 10.803184865071135 ], [ 122.537913139636302, 10.803288141966604 ], [ 122.538161095995392, 10.803479233751688 ], [ 122.53831615972814, 10.803648997399195 ], [ 122.538471609070768, 10.803859827894646 ], [ 122.538579925513972, 10.804075540944446 ], [ 122.538687455045448, 10.804325671774423 ], [ 122.538759195206765, 10.804576971119788 ], [ 122.538795655471276, 10.80467680745738 ], [ 122.538868487443679, 10.804807937682543 ], [ 122.538939564556742, 10.804899956437005 ], [ 122.539123073707657, 10.805143546371639 ], [ 122.53912306094017, 10.805143557848139 ], [ 122.53934521497635, 10.805334048010408 ], [ 122.53947271268224, 10.805434972171888 ], [ 122.539551712162137, 10.805513596395944 ], [ 122.539551699394579, 10.805513607872738 ], [ 122.539631101174948, 10.805604149598949 ], [ 122.539754973144596, 10.805762273452148 ], [ 122.53979231672335, 10.805837958721613 ], [ 122.539873055370776, 10.80607224589262 ], [ 122.539970710948182, 10.806305264227658 ], [ 122.540717611867677, 10.806025380624549 ], [ 122.541762425475653, 10.805623994425158 ], [ 122.541762412706873, 10.805624005903212 ], [ 122.558001024575958, 10.799398808903669 ], [ 122.557991061113498, 10.798590999664281 ], [ 122.557984780876481, 10.798350491511078 ], [ 122.55793615113852, 10.791274329842816 ], [ 122.556675114868042, 10.791664768523709 ], [ 122.556430264269153, 10.791747461616273 ], [ 122.546754291067387, 10.79477660631453 ], [ 122.546589891787818, 10.79483097746183 ], [ 122.543096515040816, 10.795943331562984 ], [ 122.543055248743045, 10.79595724956892 ], [ 122.542468043295798, 10.796075689541583 ], [ 122.542356956019873, 10.796101445993695 ], [ 122.54149918172871, 10.796277547192556 ], [ 122.540511209165288, 10.796320500529633 ], [ 122.536465837603714, 10.796501121937094 ] ] ] ] } },
{ "type": "Feature", "properties": { "psgc": "0603043023", "admin_type": "Barangay", "region": "Region VI (Western Visayas)", "province": "Iloilo", "municity": "Santa Barbara", "barangay": "Cabugao Sur", "population": "3094" }, "geometry": { "type": "MultiPolygon", "coordinates": [ [ [ [ 122.524374784665895, 10.806020195179119 ], [ 122.531876844474979, 10.806883252945424 ], [ 122.539970710948182, 10.806305264227658 ], [ 122.539873055370776, 10.80607224589262 ], [ 122.539792303955821, 10.805837970198597 ], [ 122.539754960377039, 10.805762284929097 ], [ 122.53963108840739, 10.805604161075804 ], [ 122.539472699914683, 10.805434983648631 ], [ 122.53912306094017, 10.805143557848139 ], [ 122.538939551789227, 10.80489996791337 ], [ 122.538939539021726, 10.804899979389733 ], [ 122.538868474676178, 10.804807949158855 ], [ 122.538795642703747, 10.804676818933624 ], [ 122.538795629936189, 10.804676830409868 ], [ 122.538759182439179, 10.804576982595998 ], [ 122.538687442277819, 10.804325683250555 ], [ 122.538579912746258, 10.80407555242048 ], [ 122.538471596303012, 10.803859839370583 ], [ 122.538316146960369, 10.803649008875016 ], [ 122.538161083227621, 10.803479245227392 ], [ 122.53791312686856, 10.803288153442141 ], [ 122.537740648501568, 10.80318487654656 ], [ 122.537605614038682, 10.803138413763358 ], [ 122.537605601271068, 10.803138425238696 ], [ 122.537337496700246, 10.803075995222557 ], [ 122.536698402963282, 10.802873312927096 ], [ 122.53650675510255, 10.802797411312824 ], [ 122.53631785358688, 10.802659323206122 ], [ 122.536169250491966, 10.80243871582438 ], [ 122.53609926911318, 10.802197390080863 ], [ 122.536075433071076, 10.802023341877241 ], [ 122.536233896101052, 10.801638899793982 ], [ 122.536255449868122, 10.801333443958766 ], [ 122.536212007146872, 10.800076207483759 ], [ 122.536117217855804, 10.79961644215598 ], [ 122.536090667690075, 10.798902120777143 ], [ 122.536122765181275, 10.798359994508221 ], [ 122.536362296971035, 10.797210547611423 ], [ 122.536465824833471, 10.796501133410779 ], [ 122.536281848759785, 10.796508553083044 ], [ 122.535194283405573, 10.796534298270554 ], [ 122.535143366165471, 10.796535679657334 ], [ 122.533807341557889, 10.796702634715905 ], [ 122.533559161513338, 10.796665301470394 ], [ 122.531804157614999, 10.796385720160997 ], [ 122.528198895414448, 10.791433505661804 ], [ 122.527700854716997, 10.79077478000986 ], [ 122.527660091255711, 10.790733692927896 ], [ 122.523780357064027, 10.805929394963949 ], [ 122.524374784665895, 10.806020195179119 ] ] ] ] } },
{ "type": "Feature", "properties": { "psgc": "0603043005", "admin_type": "Barangay", "region": "Region VI (Western Visayas)", "province": "Iloilo", "municity": "Santa Barbara", "barangay": "Balibagan Este", "population": "1904" }, "geometry": { "type": "MultiPolygon", "coordinates": [ [ [ [ 122.510804596445155, 10.794361310144083 ], [ 122.514621274488604, 10.800693212924148 ], [ 122.518006905491234, 10.807330894929938 ], [ 122.523780344305649, 10.805929406431948 ], [ 122.527660091255711, 10.790733692927896 ], [ 122.527012678919803, 10.791319262173273 ], [ 122.525845332246917, 10.791915774629365 ], [ 122.525845345013366, 10.791915763162343 ], [ 122.524572551768472, 10.792060063620369 ], [ 122.52309081273151, 10.792453357620001 ], [ 122.521725602136243, 10.792671668940613 ], [ 122.52061266499922, 10.792571291280709 ], [ 122.510804596445155, 10.794361310144083 ] ] ] ] } },
{ "type": "Feature", "properties": { "psgc": "0603043038", "admin_type": "Barangay", "region": "Region VI (Western Visayas)", "province": "Iloilo", "municity": "Santa Barbara", "barangay": "Inangayan", "population": "3594" }, "geometry": { "type": "MultiPolygon", "coordinates": [ [ [ [ 122.518006905491234, 10.807330894929938 ], [ 122.520345687570384, 10.818046674229302 ], [ 122.529565209564907, 10.821106334371297 ], [ 122.529851256673624, 10.818604099207366 ], [ 122.529851243918017, 10.818604110680695 ], [ 122.527962725214422, 10.81435134575529 ], [ 122.527268265156252, 10.812898043128214 ], [ 122.526971619171277, 10.81240954762975 ], [ 122.523780344305649, 10.805929406431948 ], [ 122.518006905491234, 10.807330894929938 ] ] ] ] } },
{ "type": "Feature", "properties": { "psgc": "0603043052", "admin_type": "Barangay", "region": "Region VI (Western Visayas)", "province": "Iloilo", "municity": "Santa Barbara", "barangay": "San Sebastian", "population": "1253" }, "geometry": { "type": "MultiPolygon", "coordinates": [ [ [ [ 122.520345674819922, 10.818046685697196 ], [ 122.515912001736126, 10.821546577361165 ], [ 122.518288231216516, 10.828852384277988 ], [ 122.521459676506609, 10.826985995939769 ], [ 122.527771711393044, 10.827909002054184 ], [ 122.530487023530327, 10.822853770631067 ], [ 122.52956519681068, 10.821106345844841 ], [ 122.529565184056452, 10.821106357318385 ], [ 122.520345674819922, 10.818046685697196 ] ] ] ] } },
{ "type": "Feature", "properties": { "psgc": "0603043006", "admin_type": "Barangay", "region": "Region VI (Western Visayas)", "province": "Iloilo", "municity": "Santa Barbara", "barangay": "Balibagan Oeste", "population": "982" }, "geometry": { "type": "MultiPolygon", "coordinates": [ [ [ [ 122.515911988989899, 10.821546588827092 ], [ 122.520345674819922, 10.818046685697196 ], [ 122.518006905491234, 10.807330894929938 ], [ 122.514621274488604, 10.800693212924148 ], [ 122.510804578730131, 10.794361313376855 ], [ 122.510804591486803, 10.794361301917922 ], [ 122.504516004112673, 10.79707551068555 ], [ 122.509979778858337, 10.814328465937342 ], [ 122.515911988989899, 10.821546588827092 ] ] ] ] } },
{ "type": "Feature", "properties": { "psgc": "0603043048", "admin_type": "Barangay", "region": "Region VI (Western Visayas)", "province": "Iloilo", "municity": "Santa Barbara", "barangay": "Nasugban", "population": "887" }, "geometry": { "type": "MultiPolygon", "coordinates": [ [ [ [ 122.509979753365556, 10.814328488860346 ], [ 122.50997976611194, 10.814328477398844 ], [ 122.504516004112673, 10.79707551068555 ], [ 122.501933991585318, 10.814035711581479 ], [ 122.509979753365556, 10.814328488860346 ] ] ] ] } },
{ "type": "Feature", "properties": { "psgc": "0603043025", "admin_type": "Barangay", "region": "Region VI (Western Visayas)", "province": "Iloilo", "municity": "Santa Barbara", "barangay": "Cadagmayan Sur", "population": "569" }, "geometry": { "type": "MultiPolygon", "coordinates": [ [ [ [ 122.501933978843383, 10.81403572303841 ], [ 122.49698295290051, 10.809903487174729 ], [ 122.497171017755889, 10.813189322146863 ], [ 122.497189989094124, 10.81327815409837 ], [ 122.497416648176767, 10.814176121463342 ], [ 122.498948121534923, 10.817031921123656 ], [ 122.498980335894061, 10.817090520419715 ], [ 122.500232389846346, 10.819687076442259 ], [ 122.501933978843383, 10.81403572303841 ] ] ] ] } },
{ "type": "Feature", "properties": { "psgc": "0603043044", "admin_type": "Barangay", "region": "Region VI (Western Visayas)", "province": "Iloilo", "municity": "Santa Barbara", "barangay": "Malawog", "population": "797" }, "geometry": { "type": "MultiPolygon", "coordinates": [ [ [ [ 122.496982940159356, 10.809903498628255 ], [ 122.501933978843383, 10.81403572303841 ], [ 122.504516004112673, 10.79707551068555 ], [ 122.495885032333007, 10.801651261581817 ], [ 122.496074363980938, 10.802827685501342 ], [ 122.496924818087152, 10.808117239634319 ], [ 122.496921952982063, 10.808190016112695 ], [ 122.496982940159356, 10.809903498628255 ] ] ] ] } },
{ "type": "Feature", "properties": { "psgc": "0603043054", "admin_type": "Barangay", "region": "Region VI (Western Visayas)", "province": "Iloilo", "municity": "Santa Barbara", "barangay": "Tagsing", "population": "979" }, "geometry": { "type": "MultiPolygon", "coordinates": [ [ [ [ 122.504516004112673, 10.79707551068555 ], [ 122.510804577728635, 10.794361307856256 ], [ 122.508920862478718, 10.783977120912624 ], [ 122.50865579047904, 10.783977120912315 ], [ 122.508233641479407, 10.783947669911853 ], [ 122.507978388479728, 10.783947669911562 ], [ 122.507978375719588, 10.783947681367319 ], [ 122.507713317480068, 10.783908399911251 ], [ 122.50747769848023, 10.78384949491096 ], [ 122.507310802480319, 10.783721868910748 ], [ 122.506286175482742, 10.784982901909974 ], [ 122.495185194503094, 10.792880840899937 ], [ 122.495185181754607, 10.792880852349874 ], [ 122.495249923743572, 10.794005685383619 ], [ 122.495405761468547, 10.795851214071234 ], [ 122.495703281538297, 10.799482736106162 ], [ 122.495723563096945, 10.799717520548118 ], [ 122.49581691827558, 10.800721613844932 ], [ 122.495813004910318, 10.800802957536881 ], [ 122.495885019588428, 10.80165127303348 ], [ 122.504516004112673, 10.79707551068555 ] ] ] ] } },
{ "type": "Feature", "properties": { "psgc": "0603043039", "admin_type": "Barangay", "region": "Region VI (Western Visayas)", "province": "Iloilo", "municity": "Santa Barbara", "barangay": "Jibao-an", "population": "11881" }, "geometry": { "type": "MultiPolygon", "coordinates": [ [ [ [ 122.507310802480319, 10.783721868910748 ], [ 122.508515652238373, 10.781970252726593 ], [ 122.507055396971495, 10.780211053642628 ], [ 122.504371766132081, 10.775840796692336 ], [ 122.50043897783641, 10.769709305700909 ], [ 122.499420398179808, 10.770678308748195 ], [ 122.498770686021984, 10.771286500089095 ], [ 122.498709857351898, 10.771363215646389 ], [ 122.497835019621689, 10.77243489244572 ], [ 122.497825610663455, 10.772456532316722 ], [ 122.497357567779289, 10.773535429194553 ], [ 122.500770917494435, 10.779401786505824 ], [ 122.500719989826152, 10.779129224801057 ], [ 122.500848258755809, 10.778809743129413 ], [ 122.501007353027418, 10.778652108700184 ], [ 122.501277700018434, 10.778466461502049 ], [ 122.501706777551846, 10.778275834209321 ], [ 122.502046979682333, 10.778176285500273 ], [ 122.502375037425523, 10.77810489681292 ], [ 122.502524312440997, 10.777989778169889 ], [ 122.502576405157811, 10.777942532911382 ], [ 122.502634775550675, 10.7778973760638 ], [ 122.502794954444155, 10.777835457213824 ], [ 122.503042262821126, 10.777924211200951 ], [ 122.503166808008103, 10.778038285259337 ], [ 122.503401326215624, 10.778076087316171 ], [ 122.503921509995635, 10.778414861149965 ], [ 122.504394614156141, 10.77878691355963 ], [ 122.504506524513303, 10.778804199698994 ], [ 122.504723031968524, 10.778945636445906 ], [ 122.505100181580431, 10.779304213876687 ], [ 122.50519216826909, 10.779546106567205 ], [ 122.505177877952804, 10.77971606652809 ], [ 122.505254877501244, 10.780000927128766 ], [ 122.505442405418009, 10.780239668268187 ], [ 122.505893026664893, 10.78103338949888 ], [ 122.506505684817228, 10.782083682605611 ], [ 122.506674465772122, 10.78239383888212 ], [ 122.506817717433321, 10.782697897301935 ], [ 122.50697032288258, 10.783013634402176 ], [ 122.507310802480319, 10.783721868910748 ] ] ] ] } },
{ "type": "Feature", "properties": { "psgc": "0603043050", "admin_type": "Barangay", "region": "Region VI (Western Visayas)", "province": "Iloilo", "municity": "Santa Barbara", "barangay": "Pal-Agon", "population": "797" }, "geometry": { "type": "MultiPolygon", "coordinates": [ [ [ [ 122.508920849718052, 10.783977132368914 ], [ 122.510804578730131, 10.794361313376855 ], [ 122.520612652236082, 10.792571302744884 ], [ 122.521725589372522, 10.79267168040543 ], [ 122.523090799966923, 10.792453369085548 ], [ 122.524572539002847, 10.792060075086694 ], [ 122.525845332246917, 10.791915774629365 ], [ 122.52701266615243, 10.791319273640854 ], [ 122.527660078487656, 10.79073370439575 ], [ 122.527627262630915, 10.790680103407198 ], [ 122.527025908654423, 10.789978481554247 ], [ 122.525768594200684, 10.78833178045271 ], [ 122.525732781180622, 10.788282765454497 ], [ 122.521534430887371, 10.782997479939505 ], [ 122.520635354409748, 10.781793410922921 ], [ 122.517362224273853, 10.777689354709917 ], [ 122.517362237042406, 10.777689343249849 ], [ 122.517320867212945, 10.777634566333766 ], [ 122.515941816350448, 10.7758861083921 ], [ 122.515818696475563, 10.775732167640369 ], [ 122.515658777298952, 10.775535905718455 ], [ 122.515365980441786, 10.775957713034497 ], [ 122.515345889774608, 10.776037577072721 ], [ 122.515246069456126, 10.776444131809876 ], [ 122.515235691545286, 10.776956376051936 ], [ 122.515204888970231, 10.777258999309915 ], [ 122.515177393510569, 10.777611321308269 ], [ 122.514937419507163, 10.778130113852153 ], [ 122.514435796869094, 10.778467679367102 ], [ 122.513121457160224, 10.779301256230065 ], [ 122.513121469925593, 10.779301244772126 ], [ 122.512664626743501, 10.779674466544783 ], [ 122.512141608016847, 10.780172199504616 ], [ 122.511875124943685, 10.78036422312303 ], [ 122.511544506855031, 10.780799301076902 ], [ 122.510706921238707, 10.780987135159167 ], [ 122.510418629307665, 10.781239386191839 ], [ 122.510232970513243, 10.781640953689358 ], [ 122.510109351853941, 10.782084998699357 ], [ 122.510173017544631, 10.782479333330624 ], [ 122.510350428838564, 10.782792900234456 ], [ 122.510523188761212, 10.783148530800197 ], [ 122.510480551924559, 10.783423029700122 ], [ 122.510359312200308, 10.783608594883098 ], [ 122.510102519117069, 10.783768528207384 ], [ 122.509644075901932, 10.783837795865526 ], [ 122.508920849718052, 10.783977132368914 ] ] ] ] } },
{ "type": "Feature", "properties": { "psgc": "0603043004", "admin_type": "Barangay", "region": "Region VI (Western Visayas)", "province": "Iloilo", "municity": "Santa Barbara", "barangay": "Balabag", "population": "387" }, "geometry": { "type": "MultiPolygon", "coordinates": [ [ [ [ 122.500438965073556, 10.769709317150243 ], [ 122.504371753370023, 10.775840808144817 ], [ 122.507055384210034, 10.780211065097292 ], [ 122.508515626715521, 10.781970275638107 ], [ 122.508515639476954, 10.781970264182346 ], [ 122.507310789720421, 10.783721880366093 ], [ 122.507477685720318, 10.783849506366423 ], [ 122.507713304720042, 10.783908411366854 ], [ 122.507978375719588, 10.783947681367319 ], [ 122.508233628719125, 10.783947681367755 ], [ 122.508655777718531, 10.783977132368451 ], [ 122.508920849718052, 10.783977132368914 ], [ 122.509644063140783, 10.783837807322199 ], [ 122.510102506355608, 10.783768539664305 ], [ 122.510359299438647, 10.783608606340136 ], [ 122.510480539162728, 10.783423041157208 ], [ 122.510523175999225, 10.783148542257258 ], [ 122.510350416076491, 10.782792911691368 ], [ 122.510173004782516, 10.782479344787383 ], [ 122.51010933909167, 10.78208501015602 ], [ 122.510232957750674, 10.781640965146028 ], [ 122.510418616544811, 10.781239397648546 ], [ 122.510706908475584, 10.780987146616001 ], [ 122.511544494091297, 10.780799312534176 ], [ 122.511875112179567, 10.78036423458042 ], [ 122.512141595252473, 10.780172210962135 ], [ 122.513121444394869, 10.779301267687996 ], [ 122.514937406740216, 10.77813012531092 ], [ 122.515177380743211, 10.777611332767096 ], [ 122.515235678777543, 10.776956387510692 ], [ 122.51524605668817, 10.776444143268561 ], [ 122.515365967673517, 10.775957724493177 ], [ 122.515658764530329, 10.77553591717723 ], [ 122.515530687869315, 10.775378626002512 ], [ 122.515530700637981, 10.775378614543833 ], [ 122.513078064787976, 10.77216839705083 ], [ 122.512549820269655, 10.771479297105524 ], [ 122.512489400476312, 10.771393403579198 ], [ 122.512063174339005, 10.77065851144129 ], [ 122.511923793783382, 10.770420445783703 ], [ 122.511892294235793, 10.770368256995587 ], [ 122.507455149913213, 10.762767383911788 ], [ 122.500438965073556, 10.769709317150243 ] ] ] ] } },
{ "type": "Feature", "properties": { "psgc": "0603043056", "admin_type": "Barangay", "region": "Region VI (Western Visayas)", "province": "Iloilo", "municity": "Santa Barbara", "barangay": "Talongadian", "population": "1315" }, "geometry": { "type": "MultiPolygon", "coordinates": [ [ [ [ 122.500770917494435, 10.779401786505824 ], [ 122.497357555020074, 10.77353544064275 ], [ 122.494862723125692, 10.777368919986239 ], [ 122.494788673283523, 10.777484283298284 ], [ 122.494448283453806, 10.778042773493496 ], [ 122.494400682173008, 10.778117465714745 ], [ 122.492509583938499, 10.781479110591444 ], [ 122.493708158485859, 10.785922623519623 ], [ 122.493755535950569, 10.786097224370627 ], [ 122.493801658799825, 10.786089474365621 ], [ 122.494023270895369, 10.786051350931579 ], [ 122.494173191139254, 10.786050731834967 ], [ 122.494322026210071, 10.786037710659288 ], [ 122.494439440643959, 10.785986812748559 ], [ 122.494506520509503, 10.785896599575395 ], [ 122.494571985366861, 10.785787771835158 ], [ 122.494607606311448, 10.78558782742331 ], [ 122.494695941329638, 10.785133330842298 ], [ 122.494743848692281, 10.784966678324578 ], [ 122.494815709736216, 10.784716699548062 ], [ 122.495040320461413, 10.784462729880893 ], [ 122.495402526728554, 10.784102994719886 ], [ 122.495844073746696, 10.783614472328255 ], [ 122.496022848554901, 10.783366335202986 ], [ 122.49633147692515, 10.782989417645899 ], [ 122.496623308431566, 10.78280142486901 ], [ 122.496829817422622, 10.782733369887715 ], [ 122.4972117759513, 10.782670793666837 ], [ 122.497371618092259, 10.782735957292594 ], [ 122.497485465786582, 10.782846801573562 ], [ 122.497588925564969, 10.783029371099612 ], [ 122.497644426935437, 10.783282787138312 ], [ 122.497640550058023, 10.783428924857605 ], [ 122.497656310590301, 10.783656658005857 ], [ 122.497805660521095, 10.783935188870437 ], [ 122.497971909406317, 10.784216406964152 ], [ 122.498229008762692, 10.784631309666638 ], [ 122.498474222260455, 10.785005595504378 ], [ 122.49912723315758, 10.785398358000808 ], [ 122.499384127230883, 10.785596663686315 ], [ 122.499644639649546, 10.785669682633687 ], [ 122.499834456070744, 10.78564891043847 ], [ 122.500252538193308, 10.78557067684406 ], [ 122.500640543944826, 10.785386767061265 ], [ 122.500913667874173, 10.785175416923135 ], [ 122.501325964610317, 10.784697784904621 ], [ 122.501763947081642, 10.784013787753 ], [ 122.501961220446077, 10.783673699551246 ], [ 122.501961233202934, 10.783673688098911 ], [ 122.501977358765217, 10.783405674269826 ], [ 122.501873386330715, 10.782598298702803 ], [ 122.501823828991704, 10.782198564096209 ], [ 122.501714195478897, 10.781731186120091 ], [ 122.50166477961983, 10.781452253977456 ], [ 122.501664792377625, 10.781452242525626 ], [ 122.501560015519047, 10.78115939790383 ], [ 122.501452164003581, 10.780831414058325 ], [ 122.501346844558626, 10.780532368397202 ], [ 122.501191397461767, 10.780112738089903 ], [ 122.500998922459516, 10.779698430089697 ], [ 122.500770917494435, 10.779401786505824 ] ] ] ] } },
{ "type": "Feature", "properties": { "psgc": "0603043021", "admin_type": "Barangay", "region": "Region VI (Western Visayas)", "province": "Iloilo", "municity": "Santa Barbara", "barangay": "Buyo", "population": "1381" }, "geometry": { "type": "MultiPolygon", "coordinates": [ [ [ [ 122.493792485119442, 10.786286993499681 ], [ 122.493822189389775, 10.786476264381959 ], [ 122.49411653008417, 10.787745122054345 ], [ 122.495054939591597, 10.792180599986114 ], [ 122.495185181754607, 10.792880852349874 ], [ 122.506286162724052, 10.784982913364937 ], [ 122.507310802480319, 10.783721868910748 ], [ 122.50697032288258, 10.783013634402176 ], [ 122.506674465772122, 10.78239383888212 ], [ 122.506505684817228, 10.782083682605611 ], [ 122.505893026664893, 10.78103338949888 ], [ 122.505442405418009, 10.780239668268187 ], [ 122.505254877501244, 10.780000927128766 ], [ 122.505177877952804, 10.77971606652809 ], [ 122.50519216826909, 10.779546106567205 ], [ 122.505100181580431, 10.779304213876687 ], [ 122.504723031968524, 10.778945636445906 ], [ 122.504506524513303, 10.778804199698994 ], [ 122.504394614156141, 10.77878691355963 ], [ 122.503921509995635, 10.778414861149965 ], [ 122.503401326215624, 10.778076087316171 ], [ 122.503166808008103, 10.778038285259337 ], [ 122.503042262821126, 10.777924211200951 ], [ 122.502794954444155, 10.777835457213824 ], [ 122.502634775550675, 10.7778973760638 ], [ 122.502576405157811, 10.777942532911382 ], [ 122.502375037425523, 10.77810489681292 ], [ 122.502046979682333, 10.778176285500273 ], [ 122.501706777551846, 10.778275834209321 ], [ 122.501277700018434, 10.778466461502049 ], [ 122.501007353027418, 10.778652108700184 ], [ 122.500848258755809, 10.778809743129413 ], [ 122.500719989826152, 10.779129224801057 ], [ 122.500770917494435, 10.779401786505824 ], [ 122.500998922459516, 10.779698430089697 ], [ 122.501191384703603, 10.780112749541267 ], [ 122.501346831800589, 10.780532379848706 ], [ 122.501452151245601, 10.780831425509939 ], [ 122.501560002761209, 10.781159409355555 ], [ 122.50166477961983, 10.781452253977456 ], [ 122.50171418272123, 10.781731197571993 ], [ 122.501823816234193, 10.782198575548239 ], [ 122.501873373573389, 10.782598310154926 ], [ 122.501977346008232, 10.783405685722128 ], [ 122.501961220446077, 10.783673699551246 ], [ 122.501961207689206, 10.783673711003585 ], [ 122.501763934325055, 10.784013799205276 ], [ 122.501325951854298, 10.784697796356763 ], [ 122.500913655118651, 10.785175428375112 ], [ 122.500640531189575, 10.78538677851312 ], [ 122.50025252543837, 10.785570688295728 ], [ 122.49983444331609, 10.785648921889907 ], [ 122.499644626894991, 10.785669694085023 ], [ 122.499384114476456, 10.7855966751375 ], [ 122.499127220403167, 10.785398369451816 ], [ 122.498474209506227, 10.785005606954954 ], [ 122.498228996008436, 10.784631321117022 ], [ 122.497971896652004, 10.784216418414335 ], [ 122.497805647766711, 10.783935200320476 ], [ 122.497656297835903, 10.783656669455775 ], [ 122.497640537303511, 10.783428936307482 ], [ 122.497644414180854, 10.783282798588159 ], [ 122.497588912810286, 10.783029382549394 ], [ 122.497485453031871, 10.782846813023257 ], [ 122.497371605337548, 10.782735968742207 ], [ 122.497211763196646, 10.782670805116352 ], [ 122.496829804668224, 10.782733381337028 ], [ 122.49662329567731, 10.782801436318213 ], [ 122.496331464171178, 10.78298942909497 ], [ 122.496022835801256, 10.783366346651942 ], [ 122.495844060993292, 10.783614483777145 ], [ 122.495402513975648, 10.784103006168605 ], [ 122.495040307708891, 10.784462741329456 ], [ 122.494815696983949, 10.784716710996543 ], [ 122.494695928577627, 10.785133342290775 ], [ 122.494607593559707, 10.785587838871811 ], [ 122.494571972615248, 10.785787783283668 ], [ 122.494506507757961, 10.785896611023892 ], [ 122.494439440643959, 10.785986812748559 ], [ 122.494322013458714, 10.786037722107698 ], [ 122.494173178387996, 10.786050743283292 ], [ 122.494023258144196, 10.786051362379826 ], [ 122.493801658799825, 10.786089474365621 ], [ 122.493755535950569, 10.786097224370627 ], [ 122.493792485119442, 10.786286993499681 ] ] ] ] } },
{ "type": "Feature", "properties": { "psgc": "0603043024", "admin_type": "Barangay", "region": "Region VI (Western Visayas)", "province": "Iloilo", "municity": "Santa Barbara", "barangay": "Cadagmayan Norte", "population": "2192" }, "geometry": { "type": "MultiPolygon", "coordinates": [ [ [ [ 122.518288218472534, 10.828852395746349 ], [ 122.515911988989899, 10.821546588827092 ], [ 122.50997976611194, 10.814328477398844 ], [ 122.501933978843383, 10.81403572303841 ], [ 122.500232377108148, 10.819687087899084 ], [ 122.50335080476512, 10.825580958290415 ], [ 122.506515891777454, 10.82981951170153 ], [ 122.508929597103219, 10.832926303443289 ], [ 122.512754827668942, 10.830785345459541 ], [ 122.518288218472534, 10.828852395746349 ] ] ] ] } },
{ "type": "Feature", "properties": { "psgc": "0603043029", "admin_type": "Barangay", "region": "Region VI (Western Visayas)", "province": "Iloilo", "municity": "Santa Barbara", "barangay": "Camambugan", "population": "857" }, "geometry": { "type": "MultiPolygon", "coordinates": [ [ [ [ 122.508929586128957, 10.832926318255792 ], [ 122.509335327903685, 10.833697274568534 ], [ 122.514404533338762, 10.84293617328917 ], [ 122.519480441196535, 10.838429808454999 ], [ 122.52260745459705, 10.836158148195674 ], [ 122.518288205728538, 10.828852407214711 ], [ 122.518288218472534, 10.828852395746349 ], [ 122.512754814929067, 10.830785356925084 ], [ 122.508929586128957, 10.832926318255792 ] ] ] ] } },
{ "type": "Feature", "properties": { "psgc": "0603043055", "admin_type": "Barangay", "region": "Region VI (Western Visayas)", "province": "Iloilo", "municity": "Santa Barbara", "barangay": "Talanghauan", "population": "1288" }, "geometry": { "type": "MultiPolygon", "coordinates": [ [ [ [ 122.519480441196535, 10.838429808454999 ], [ 122.514404520603918, 10.842936184757443 ], [ 122.515856241034157, 10.846232285608316 ], [ 122.516933302498146, 10.848668121018099 ], [ 122.517019911451357, 10.84887253691303 ], [ 122.51749103125556, 10.84994327610992 ], [ 122.519015592230645, 10.853492153423989 ], [ 122.519111511746829, 10.85364263334348 ], [ 122.519137747749539, 10.853422049502413 ], [ 122.519206627215027, 10.853132244516654 ], [ 122.519339664680047, 10.852759141239138 ], [ 122.519676299411159, 10.852315860717288 ], [ 122.519906533980162, 10.851949614999471 ], [ 122.519970298524242, 10.851883525598868 ], [ 122.526661420455852, 10.840926781087605 ], [ 122.526808576472163, 10.840714182847197 ], [ 122.520113160999685, 10.839068583901915 ], [ 122.519480441196535, 10.838429808454999 ] ] ] ] } },
{ "type": "Feature", "properties": { "psgc": "0603043003", "admin_type": "Barangay", "region": "Region VI (Western Visayas)", "province": "Iloilo", "municity": "Santa Barbara", "barangay": "Bagumbayan", "population": "749" }, "geometry": { "type": "MultiPolygon", "coordinates": [ [ [ [ 122.51997028579062, 10.851883537071597 ], [ 122.520042651442481, 10.851846782257121 ], [ 122.520203613090288, 10.851787550415848 ], [ 122.520365353804294, 10.851752176533878 ], [ 122.520484258250221, 10.851765490371287 ], [ 122.520617040151947, 10.851838059601544 ], [ 122.520736908624798, 10.851954040564976 ], [ 122.520839173581649, 10.852086836988896 ], [ 122.520997156856666, 10.852360636926418 ], [ 122.521174779871345, 10.852745808755964 ], [ 122.521592606155835, 10.85353082755887 ], [ 122.521962728969427, 10.854200852900458 ], [ 122.522148681534588, 10.854453438759993 ], [ 122.522288598891961, 10.854547031241188 ], [ 122.522425588867264, 10.854594863181077 ], [ 122.522647950403453, 10.854601933156507 ], [ 122.52280152774388, 10.854554287024115 ], [ 122.522997501656633, 10.854455459771664 ], [ 122.523124245794506, 10.854343129817073 ], [ 122.523281514721816, 10.854112296927132 ], [ 122.523327735718112, 10.853980742730855 ], [ 122.523383063369778, 10.853755029458995 ], [ 122.523353164064659, 10.853585478220495 ], [ 122.523305960257531, 10.8533906979034 ], [ 122.523257617268627, 10.852941596616599 ], [ 122.523234035957444, 10.852691232636593 ], [ 122.523236131016418, 10.852382351927591 ], [ 122.523248483679723, 10.852146219500511 ], [ 122.523289903325093, 10.851724997061789 ], [ 122.523361968829931, 10.851375498981463 ], [ 122.523430071190262, 10.851047267102329 ], [ 122.523559928499338, 10.850690150116023 ], [ 122.523665416758107, 10.85048644367253 ], [ 122.52372119587298, 10.850175810190214 ], [ 122.523796067690327, 10.849681845358846 ], [ 122.523817075546688, 10.849436474068828 ], [ 122.523833819283311, 10.849268982454099 ], [ 122.523875197744033, 10.849153707658513 ], [ 122.523952220971083, 10.849021864278049 ], [ 122.524251189572922, 10.848719770249245 ], [ 122.52443206334587, 10.848564474116277 ], [ 122.52443205060807, 10.848564485591027 ], [ 122.52462730247143, 10.848476060132747 ], [ 122.52488488084532, 10.848376654511453 ], [ 122.52523911237968, 10.84832962207769 ], [ 122.525673126384461, 10.848355933959338 ], [ 122.526220470366866, 10.848443802154163 ], [ 122.527254997228354, 10.848665761371572 ], [ 122.527485134565524, 10.848658605682697 ], [ 122.527944813172894, 10.848713814447327 ], [ 122.528676707063454, 10.848898420295185 ], [ 122.528907416932952, 10.848996571687348 ], [ 122.528907404192822, 10.84899658316469 ], [ 122.528907391452691, 10.848996594642029 ], [ 122.529383080954901, 10.849069529328739 ], [ 122.529853902440976, 10.849158766369914 ], [ 122.530572015277997, 10.849294383537657 ], [ 122.531040144505013, 10.849407233625092 ], [ 122.531149676621155, 10.849309079176413 ], [ 122.531234570090845, 10.849187845779353 ], [ 122.531316154490327, 10.848950647120812 ], [ 122.531329677714496, 10.848735732698835 ], [ 122.531319742658894, 10.848446112655591 ], [ 122.531288084571628, 10.848266587816395 ], [ 122.531204017237016, 10.848062024726177 ], [ 122.53109764845469, 10.847905956564849 ], [ 122.530913745842881, 10.847679575512018 ], [ 122.530504508902609, 10.847011304913503 ], [ 122.530100175441717, 10.846331876794107 ], [ 122.53003263452932, 10.846026713754515 ], [ 122.529908837082758, 10.845314970357137 ], [ 122.52988344290489, 10.845093206227142 ], [ 122.529947687198487, 10.844368874787376 ], [ 122.530085446130897, 10.843789264824919 ], [ 122.530099101060571, 10.843322376283167 ], [ 122.530035175091086, 10.843134829294709 ], [ 122.529818337623496, 10.842770283364535 ], [ 122.529570393027569, 10.842491777963442 ], [ 122.528990777988653, 10.842004385361014 ], [ 122.528263726479409, 10.841536114447166 ], [ 122.527500658486773, 10.841019375181068 ], [ 122.526808576472163, 10.840714182847197 ], [ 122.52666140771305, 10.840926792562485 ], [ 122.51997028579062, 10.851883537071597 ] ] ] ] } },
{ "type": "Feature", "properties": { "psgc": "0603043040", "admin_type": "Barangay", "region": "Region VI (Western Visayas)", "province": "Iloilo", "municity": "Santa Barbara", "barangay": "Lacadon", "population": "709" }, "geometry": { "type": "MultiPolygon", "coordinates": [ [ [ [ 122.519111499014556, 10.853642644815988 ], [ 122.51923389845706, 10.85393813522289 ], [ 122.519253666076963, 10.854009209256001 ], [ 122.520023699416527, 10.855083579942212 ], [ 122.520241820502491, 10.855380889781562 ], [ 122.520835966381014, 10.856190804588467 ], [ 122.521271959804281, 10.856792458422625 ], [ 122.528920031475238, 10.858262016640957 ], [ 122.531289564792715, 10.860559545441266 ], [ 122.539816167762268, 10.84985291845088 ], [ 122.534043921184448, 10.849428211354891 ], [ 122.531040131763874, 10.8494072451037 ], [ 122.53057200253707, 10.849294395015978 ], [ 122.529853889700391, 10.849158777847812 ], [ 122.529383068214543, 10.849069540806365 ], [ 122.52890737871256, 10.848996606119369 ], [ 122.528676694323423, 10.84889843177238 ], [ 122.527944800433147, 10.848713825924083 ], [ 122.527485121826018, 10.848658617159183 ], [ 122.527254984488991, 10.848665772847935 ], [ 122.526220457628, 10.848443813629913 ], [ 122.525673113645851, 10.848355945434767 ], [ 122.525239099641297, 10.848329633552869 ], [ 122.524884868107165, 10.848376665986432 ], [ 122.524627289733488, 10.848476071607598 ], [ 122.524432037870255, 10.848564497065786 ], [ 122.524251176835307, 10.848719781723926 ], [ 122.52395220823378, 10.8490218757526 ], [ 122.523952195496506, 10.849021887227154 ], [ 122.523875185006858, 10.84915371913304 ], [ 122.523833806546207, 10.849268993928623 ], [ 122.523817062809655, 10.849436485543364 ], [ 122.523796054953451, 10.849681856833413 ], [ 122.523721183136388, 10.850175821664811 ], [ 122.523665404021685, 10.85048645514714 ], [ 122.523559915763101, 10.850690161590601 ], [ 122.523430058454252, 10.851047278576891 ], [ 122.523361956094121, 10.851375510456034 ], [ 122.523289890589524, 10.851725008536372 ], [ 122.523248470944353, 10.852146230975128 ], [ 122.523236118281176, 10.852382363402235 ], [ 122.523234023222372, 10.852691244111289 ], [ 122.523257604533669, 10.85294160809134 ], [ 122.523305947522758, 10.853390709378239 ], [ 122.523353151329943, 10.853585489695384 ], [ 122.523383050635147, 10.853755040933923 ], [ 122.523327722983595, 10.853980754205793 ], [ 122.523281501987412, 10.85411230840206 ], [ 122.523124233060315, 10.854343141291944 ], [ 122.522997488922556, 10.854455471246483 ], [ 122.522801515009988, 10.854554298498835 ], [ 122.522647937669646, 10.854601944631151 ], [ 122.522425576133571, 10.854594874655595 ], [ 122.522288586158311, 10.854547042715618 ], [ 122.522148668800995, 10.854453450234336 ], [ 122.521962716235805, 10.854200864374654 ], [ 122.521592593422113, 10.853530839032766 ], [ 122.521174767137452, 10.852745820229499 ], [ 122.520997144122703, 10.852360648399797 ], [ 122.520839160847615, 10.852086848462148 ], [ 122.520736895890778, 10.851954052038154 ], [ 122.520617027417941, 10.851838071074637 ], [ 122.520484245516244, 10.851765501844289 ], [ 122.520365341070402, 10.851752188006813 ], [ 122.520203600356496, 10.851787561888699 ], [ 122.520203587622689, 10.851787573361547 ], [ 122.520042638708787, 10.851846793729889 ], [ 122.519970273056998, 10.851883548544334 ], [ 122.519906521246625, 10.851949626472177 ], [ 122.519676286677949, 10.852315872189914 ], [ 122.51933965194722, 10.852759152711643 ], [ 122.519206614482485, 10.85313225598914 ], [ 122.519137735017139, 10.853422060974909 ], [ 122.519111499014556, 10.853642644815988 ] ] ] ] } },
{ "type": "Feature", "properties": { "psgc": "0603043058", "admin_type": "Barangay", "region": "Region VI (Western Visayas)", "province": "Iloilo", "municity": "Santa Barbara", "barangay": "Tungay", "population": "1032" }, "geometry": { "type": "MultiPolygon", "coordinates": [ [ [ [ 122.53771834968677, 10.831635254303556 ], [ 122.536053442555541, 10.832628540215826 ], [ 122.535687286285366, 10.833001612077133 ], [ 122.53563256058321, 10.833114098396207 ], [ 122.535613479647338, 10.833210016131021 ], [ 122.535543937129574, 10.833340540511541 ], [ 122.535216810354655, 10.833614177314578 ], [ 122.534683888817256, 10.833938239888591 ], [ 122.534536982155757, 10.834009133657554 ], [ 122.534369976447067, 10.834111851486941 ], [ 122.534282478709983, 10.834147846481235 ], [ 122.534129563855373, 10.834177379309157 ], [ 122.533999895277418, 10.834222095316978 ], [ 122.533546571665099, 10.834356014675409 ], [ 122.533320680797232, 10.834416411104256 ], [ 122.533126182343111, 10.834450705012252 ], [ 122.53279262238901, 10.834571220461658 ], [ 122.532230810833127, 10.83485538568431 ], [ 122.531938316596836, 10.835004653424184 ], [ 122.53169158601041, 10.835150993986359 ], [ 122.531293157934797, 10.835545181569676 ], [ 122.531113458644725, 10.83569255783185 ], [ 122.530949901140986, 10.835785669428937 ], [ 122.530546506519059, 10.836027762525527 ], [ 122.530189167696832, 10.836275875179021 ], [ 122.530108470532511, 10.8364597848946 ], [ 122.530107855834544, 10.836573023317374 ], [ 122.530223472933173, 10.836766872476957 ], [ 122.530426681604965, 10.837234904093219 ], [ 122.530426668858169, 10.837234915569669 ], [ 122.531589255175049, 10.839307939382486 ], [ 122.53334291076257, 10.842564325436696 ], [ 122.535745706060325, 10.842784440978335 ], [ 122.541710510217669, 10.834125767490386 ], [ 122.539283428497299, 10.832511020916796 ], [ 122.537718336933068, 10.831635265783273 ], [ 122.53771834968677, 10.831635254303556 ] ] ] ] } },
{ "type": "Feature", "properties": { "psgc": "0603043057", "admin_type": "Barangay", "region": "Region VI (Western Visayas)", "province": "Iloilo", "municity": "Santa Barbara", "barangay": "Tigtig", "population": "768" }, "geometry": { "type": "MultiPolygon", "coordinates": [ [ [ [ 122.553272163938914, 10.826054341950586 ], [ 122.568274225113583, 10.823955126892246 ], [ 122.570935743656861, 10.8144165864875 ], [ 122.56758069134753, 10.815602480178784 ], [ 122.558315687685507, 10.819231785468398 ], [ 122.553272176704212, 10.826054330462959 ], [ 122.553272163938914, 10.826054341950586 ] ] ] ] } },
{ "type": "Feature", "properties": { "psgc": "0603043045", "admin_type": "Barangay", "region": "Region VI (Western Visayas)", "province": "Iloilo", "municity": "Santa Barbara", "barangay": "Mambuyo", "population": "397" }, "geometry": { "type": "MultiPolygon", "coordinates": [ [ [ [ 122.589856866872395, 10.824945189819685 ], [ 122.589438907195458, 10.825057975316966 ], [ 122.589131173858163, 10.824776052360361 ], [ 122.589250760004674, 10.824434420956283 ], [ 122.589745069452846, 10.823756990715189 ], [ 122.589706988508652, 10.823341522583664 ], [ 122.58912119402757, 10.822702081120797 ], [ 122.589370403632472, 10.822009230343649 ], [ 122.589304445245034, 10.821590859359588 ], [ 122.589000741147686, 10.821198771234013 ], [ 122.588122527527091, 10.820829798493582 ], [ 122.587470393744638, 10.820944782517543 ], [ 122.587161655670201, 10.821499583622863 ], [ 122.587100023112924, 10.822081178919827 ], [ 122.587680347604703, 10.823251990972473 ], [ 122.587255095398575, 10.823900970317956 ], [ 122.58666310602969, 10.823915684585605 ], [ 122.585519836302041, 10.823774703823402 ], [ 122.584372882851142, 10.824227281877707 ], [ 122.583133670818015, 10.824540854499995 ], [ 122.581977260093154, 10.824791668475097 ], [ 122.581458222394375, 10.82534798655675 ], [ 122.581458209612691, 10.825347998060144 ], [ 122.57711589858917, 10.827787460658433 ], [ 122.580325088450635, 10.838252316009456 ], [ 122.588411752270247, 10.832797204679617 ], [ 122.58660126695213, 10.828207584925584 ], [ 122.586816695649588, 10.827888320520474 ], [ 122.589856866872395, 10.824945189819685 ] ] ] ] } },
{ "type": "Feature", "properties": { "psgc": "0603043043", "admin_type": "Barangay", "region": "Region VI (Western Visayas)", "province": "Iloilo", "municity": "Santa Barbara", "barangay": "Magancina", "population": "742" }, "geometry": { "type": "MultiPolygon", "coordinates": [ [ [ [ 122.589494124679462, 10.818381076032495 ], [ 122.593695713252586, 10.817781191779961 ], [ 122.593695700460188, 10.817781203289098 ], [ 122.59369568766779, 10.817781214798227 ], [ 122.600582244497474, 10.817169468958006 ], [ 122.601736711428146, 10.814209580426123 ], [ 122.600725574917263, 10.813647235405357 ], [ 122.5994112300761, 10.813456590857166 ], [ 122.599106318996945, 10.81305355351029 ], [ 122.598782264657771, 10.812690897426826 ], [ 122.598416873957987, 10.812416169647406 ], [ 122.597820676269237, 10.812376339391419 ], [ 122.597433952128057, 10.812261318462514 ], [ 122.597160784722149, 10.811909988016838 ], [ 122.597370514075081, 10.811165622136896 ], [ 122.597132517550762, 10.810609785122281 ], [ 122.596694132634696, 10.810446530506027 ], [ 122.59649016162551, 10.810499135330081 ], [ 122.596230560157139, 10.810869446686858 ], [ 122.595931061698849, 10.811661158705462 ], [ 122.595732419163951, 10.812006619081938 ], [ 122.595253033007708, 10.81220310474423 ], [ 122.594915370810057, 10.812135413453019 ], [ 122.594294090933829, 10.811700422414985 ], [ 122.593869952500114, 10.811286651684904 ], [ 122.593251856217677, 10.810927435985821 ], [ 122.592447886719327, 10.810957231182361 ], [ 122.591638350515595, 10.811359513022483 ], [ 122.59105034943002, 10.811748179418208 ], [ 122.590809760691712, 10.812323928427386 ], [ 122.590622951771195, 10.812493215626853 ], [ 122.590622938977958, 10.812493227133453 ], [ 122.588312815420082, 10.816403588011809 ], [ 122.589444628903166, 10.817868044110865 ], [ 122.589444616113241, 10.817868055617616 ], [ 122.589526219000064, 10.817978957000035 ], [ 122.589497620584751, 10.818316334037327 ], [ 122.589494124679462, 10.818381076032495 ] ] ] ] } },
{ "type": "Feature", "properties": { "psgc": "0603043027", "admin_type": "Barangay", "region": "Region VI (Western Visayas)", "province": "Iloilo", "municity": "Santa Barbara", "barangay": "Calaboa Este", "population": "495" }, "geometry": { "type": "MultiPolygon", "coordinates": [ [ [ [ 122.588312815420082, 10.816403588011809 ], [ 122.590622951771195, 10.812493215626853 ], [ 122.590035015286787, 10.812607220513884 ], [ 122.589051802085578, 10.812507691551742 ], [ 122.58792631607065, 10.812026985937623 ], [ 122.587140599040552, 10.812187349218259 ], [ 122.586786551827757, 10.812069950194397 ], [ 122.586240684663935, 10.812206910208722 ], [ 122.585925521746034, 10.812516935199055 ], [ 122.584929337368294, 10.81331345369065 ], [ 122.584767896654554, 10.813379239015477 ], [ 122.584574160693592, 10.81322340498922 ], [ 122.584344180930216, 10.813420021028127 ], [ 122.583740639645541, 10.813499295308029 ], [ 122.58349752832099, 10.81346752031995 ], [ 122.582964826520694, 10.813486815079836 ], [ 122.582498185296146, 10.813284093630291 ], [ 122.582192231983683, 10.812761273271297 ], [ 122.581937928431827, 10.812473623386344 ], [ 122.581480383076297, 10.812187881622542 ], [ 122.581117281533764, 10.812014411709109 ], [ 122.580873025245239, 10.811860699928983 ], [ 122.580712386666747, 10.81171938662796 ], [ 122.580324486498043, 10.811713140762368 ], [ 122.580033748316083, 10.811757618143872 ], [ 122.579925363041099, 10.81168173185633 ], [ 122.57986924660014, 10.811555916654127 ], [ 122.579820505840715, 10.811279520375699 ], [ 122.578897322730327, 10.810431258945366 ], [ 122.578552010256146, 10.810397147585633 ], [ 122.577550980845416, 10.80980010385105 ], [ 122.576813936125788, 10.809468646580653 ], [ 122.576392794338616, 10.809081489406655 ], [ 122.575943037380085, 10.808455100307862 ], [ 122.575572225093225, 10.808045498089223 ], [ 122.575535226522092, 10.808058872400784 ], [ 122.570935756437933, 10.814416574991686 ], [ 122.580988606568496, 10.820313119579913 ], [ 122.588312815420082, 10.816403588011809 ] ] ] ] } },
{ "type": "Feature", "properties": { "psgc": "0603043032", "admin_type": "Barangay", "region": "Region VI (Western Visayas)", "province": "Iloilo", "municity": "Santa Barbara", "barangay": "Conaynay", "population": "484" }, "geometry": { "type": "MultiPolygon", "coordinates": [ [ [ [ 122.589304421204403, 10.821590856339474 ], [ 122.589468460366504, 10.818809260328393 ], [ 122.589494111889763, 10.818381087539354 ], [ 122.589494099100051, 10.818381099046212 ], [ 122.589497607795025, 10.818316345544178 ], [ 122.589526193420227, 10.81797898001367 ], [ 122.589444616113241, 10.817868055617616 ], [ 122.588312815420082, 10.816403588011809 ], [ 122.580988593784596, 10.820313131082278 ], [ 122.583133670818015, 10.824540854499995 ], [ 122.584372882851142, 10.824227281877707 ], [ 122.585519836302041, 10.823774703823402 ], [ 122.58666310602969, 10.823915684585605 ], [ 122.587255095398575, 10.823900970317956 ], [ 122.58768033481843, 10.823252002479054 ], [ 122.587100010326409, 10.822081190425903 ], [ 122.587161642883359, 10.821499595128884 ], [ 122.587470380957356, 10.820944794023658 ], [ 122.588122514739382, 10.820829810000042 ], [ 122.589000728359636, 10.821198782741025 ], [ 122.589304421204403, 10.821590856339474 ] ] ] ] } },
{ "type": "Feature", "properties": { "psgc": "0603043059", "admin_type": "Barangay", "region": "Region VI (Western Visayas)", "province": "Iloilo", "municity": "Santa Barbara", "barangay": "Tuburan", "population": "675" }, "geometry": { "type": "MultiPolygon", "coordinates": [ [ [ [ 122.594786845342099, 10.827978650432941 ], [ 122.595041345769744, 10.827819622049196 ], [ 122.595080756430136, 10.827622719981273 ], [ 122.594944937876051, 10.827299192114781 ], [ 122.595052019714203, 10.826811366048673 ], [ 122.595073243013914, 10.82668309190146 ], [ 122.595505065694866, 10.825890217447693 ], [ 122.596544410022432, 10.825484814920284 ], [ 122.597228646616401, 10.825622649461687 ], [ 122.597295779609084, 10.825601359388038 ], [ 122.598522458333491, 10.8259363993332 ], [ 122.59957327718503, 10.825814283301243 ], [ 122.600370307009726, 10.825571969023049 ], [ 122.600721094652627, 10.825194593350989 ], [ 122.6006787560231, 10.824810196910946 ], [ 122.600353016069917, 10.824608086599254 ], [ 122.599632695343701, 10.824419568421691 ], [ 122.599111875873206, 10.823977042456791 ], [ 122.598715922132328, 10.823405628867157 ], [ 122.598740981470129, 10.822739625937887 ], [ 122.599271491493965, 10.822371274563999 ], [ 122.60093990042941, 10.821731041651953 ], [ 122.601278123460915, 10.821946218284799 ], [ 122.601671845510509, 10.821841173556969 ], [ 122.601788042475775, 10.821403378615532 ], [ 122.601631305861119, 10.821034063682854 ], [ 122.60105558315081, 10.820799693583096 ], [ 122.600872861063777, 10.820427326733887 ], [ 122.600352316187696, 10.820101801914491 ], [ 122.599781129218059, 10.819604542841214 ], [ 122.599615563247568, 10.8190408539124 ], [ 122.59896875637962, 10.818432244888704 ], [ 122.598227798054239, 10.818415306198901 ], [ 122.598286206073766, 10.818053859034576 ], [ 122.600437342875708, 10.818275086406992 ], [ 122.600920140626812, 10.81861744500986 ], [ 122.601416910900056, 10.818692706193771 ], [ 122.602008896060298, 10.818903852458114 ], [ 122.602511198094035, 10.81886617783484 ], [ 122.603351197267472, 10.818636643664279 ], [ 122.603500123840647, 10.818788503873568 ], [ 122.603492220618008, 10.819263184719004 ], [ 122.603348537088905, 10.82006460842889 ], [ 122.603348524292144, 10.820064619943807 ], [ 122.603552285369545, 10.820613931397492 ], [ 122.60414516419543, 10.820656979417228 ], [ 122.604845501336385, 10.820472426856581 ], [ 122.605078386215609, 10.82026342399444 ], [ 122.605120531784522, 10.819925200665702 ], [ 122.605121746634623, 10.819528035781552 ], [ 122.604906443885071, 10.818537997410814 ], [ 122.604922571515019, 10.817359569082045 ], [ 122.605067537305516, 10.816738582738328 ], [ 122.605255723742644, 10.816420411533031 ], [ 122.605177069194838, 10.816205269870009 ], [ 122.604581935385156, 10.815658797430025 ], [ 122.603860469697167, 10.815348342460785 ], [ 122.603286178192732, 10.815266393350372 ], [ 122.602766994635559, 10.815612391194939 ], [ 122.60273927759232, 10.816609654957308 ], [ 122.602769693975873, 10.817128470413806 ], [ 122.602686903928671, 10.817438236384154 ], [ 122.602161639424537, 10.817663167749515 ], [ 122.601634154879051, 10.817125123856455 ], [ 122.601444986547037, 10.816110121029448 ], [ 122.602055179162235, 10.815062164933863 ], [ 122.601736711428146, 10.814209580426123 ], [ 122.600582231700884, 10.81716948047092 ], [ 122.593695700460188, 10.817781203289098 ], [ 122.589494111889763, 10.818381087539354 ], [ 122.589304445245034, 10.821590859359588 ], [ 122.589370403632472, 10.822009230343649 ], [ 122.58912119402757, 10.822702081120797 ], [ 122.589414649890614, 10.823013885160675 ], [ 122.589706988508652, 10.823341522583664 ], [ 122.589745069452846, 10.823756990715189 ], [ 122.589250760004674, 10.824434420956283 ], [ 122.589131173858163, 10.824776052360361 ], [ 122.589438907195458, 10.825057975316966 ], [ 122.589856866872395, 10.824945189819685 ], [ 122.590070930567705, 10.825227992187543 ], [ 122.590442899117718, 10.825475134625128 ], [ 122.590813584232919, 10.825315957195848 ], [ 122.59113655504602, 10.825063556197202 ], [ 122.59125837568233, 10.824690258027093 ], [ 122.591501820687924, 10.824549061087382 ], [ 122.59216226804314, 10.824827975432846 ], [ 122.592467407670469, 10.824496627371921 ], [ 122.593480207148616, 10.824099141412331 ], [ 122.59385670730542, 10.823817756648758 ], [ 122.594234006422056, 10.824228141305056 ], [ 122.59501951934817, 10.82402709434761 ], [ 122.59545478994805, 10.824544530420741 ], [ 122.595168764941377, 10.825361145409806 ], [ 122.594634281778781, 10.826756183027454 ], [ 122.594653560322882, 10.827091197444828 ], [ 122.594695321887471, 10.827384775102104 ], [ 122.594786832554107, 10.827978661944249 ], [ 122.594786845342099, 10.827978650432941 ] ] ] ] } },
{ "type": "Feature", "properties": { "psgc": "0603043018", "admin_type": "Barangay", "region": "Region VI (Western Visayas)", "province": "Iloilo", "municity": "Santa Barbara", "barangay": "Bolong Este", "population": "1903" }, "geometry": { "type": "MultiPolygon", "coordinates": [ [ [ [ 122.527268265156252, 10.812898043128214 ], [ 122.527690726185526, 10.812640936782044 ], [ 122.527990286122986, 10.812568382488656 ], [ 122.528849033423299, 10.812477031699167 ], [ 122.529205629945039, 10.81247364199732 ], [ 122.530908019481757, 10.812607409946107 ], [ 122.530908006722584, 10.812607421419123 ], [ 122.537059128638333, 10.813189298407567 ], [ 122.537336188757791, 10.81301263033617 ], [ 122.537483995701351, 10.812818432388555 ], [ 122.537556264136512, 10.812655561289546 ], [ 122.537589285167897, 10.811902887308543 ], [ 122.537629713259747, 10.811705724552011 ], [ 122.537739495270813, 10.811547810888287 ], [ 122.537934985917147, 10.811427715487449 ], [ 122.538056573091708, 10.811404719060215 ], [ 122.538318656765668, 10.81148066282395 ], [ 122.538552885633905, 10.811662035982467 ], [ 122.538728953423401, 10.811790821722552 ], [ 122.538925567749558, 10.811777740165359 ], [ 122.539168230741737, 10.811772989029368 ], [ 122.539816798813575, 10.811510262657576 ], [ 122.540203076928762, 10.811451750041908 ], [ 122.540460663708046, 10.811429214471703 ], [ 122.540680532803876, 10.811352302945823 ], [ 122.540844898571194, 10.811206092689728 ], [ 122.541000882872765, 10.811011179327979 ], [ 122.541110460776011, 10.81080384714399 ], [ 122.541342955816404, 10.810400374857117 ], [ 122.541473125402305, 10.810198414834147 ], [ 122.541473112635941, 10.810198426312738 ], [ 122.541515198296722, 10.810009317683567 ], [ 122.541484331047215, 10.809766237202782 ], [ 122.541431054178076, 10.809648798543707 ], [ 122.541260558781843, 10.809342925720639 ], [ 122.541029847789176, 10.808889986543715 ], [ 122.540794076791869, 10.808252832771133 ], [ 122.540411870629498, 10.807271284851852 ], [ 122.540117619281133, 10.806671865542537 ], [ 122.540050854490502, 10.806507100473011 ], [ 122.539970698180753, 10.806305275704815 ], [ 122.531876844474979, 10.806883252945424 ], [ 122.531876831712452, 10.80688326441811 ], [ 122.524374771907219, 10.806020206647458 ], [ 122.523780331547272, 10.805929417899943 ], [ 122.52697160641425, 10.812409559100525 ], [ 122.527268265156252, 10.812898043128214 ] ] ] ] } },
{ "type": "Feature", "properties": { "psgc": "0603043019", "admin_type": "Barangay", "region": "Region VI (Western Visayas)", "province": "Iloilo", "municity": "Santa Barbara", "barangay": "Bolong Oeste", "population": "3535" }, "geometry": { "type": "MultiPolygon", "coordinates": [ [ [ [ 122.530487010776454, 10.822853782105392 ], [ 122.53337806174865, 10.821308289579514 ], [ 122.53337804899239, 10.821308301055236 ], [ 122.533378036236101, 10.821308312530958 ], [ 122.533378023479813, 10.821308324006679 ], [ 122.541510107152988, 10.81559854538634 ], [ 122.541297704206968, 10.815706268223197 ], [ 122.541041192145357, 10.815874900865833 ], [ 122.540902423775293, 10.815962784671131 ], [ 122.540744887213265, 10.816002559129258 ], [ 122.540641233395647, 10.816017407434284 ], [ 122.540546381336128, 10.816023848009614 ], [ 122.540420241110823, 10.816008382078367 ], [ 122.540333998004229, 10.815985881499779 ], [ 122.540165286053721, 10.815869942849023 ], [ 122.540034168495723, 10.815782511575282 ], [ 122.539913408865999, 10.815748957422807 ], [ 122.53963599598822, 10.815731026660016 ], [ 122.53946428491804, 10.815739021330325 ], [ 122.539331491250039, 10.815753865709638 ], [ 122.53920064916953, 10.815799217115011 ], [ 122.539148818337836, 10.815835779136897 ], [ 122.539079086936837, 10.815916632220606 ], [ 122.539041523092834, 10.816024378611838 ], [ 122.539036817314908, 10.816114333817872 ], [ 122.539020181746878, 10.816204678529084 ], [ 122.538955429640041, 10.816342928020706 ], [ 122.538905939928881, 10.816421926047779 ], [ 122.538775760897536, 10.816626558046284 ], [ 122.538715807048334, 10.816714256913409 ], [ 122.538668180367821, 10.816755219515667 ], [ 122.538587502816171, 10.816793439878893 ], [ 122.538528339801374, 10.816817583096018 ], [ 122.538484615302977, 10.816832157620096 ], [ 122.538449131824663, 10.816834976924683 ], [ 122.538377946540052, 10.816820105065458 ], [ 122.538324461174099, 10.816798684458892 ], [ 122.538208977891685, 10.816795051111876 ], [ 122.538208965130437, 10.816795062589634 ], [ 122.538146100584058, 10.816807851570525 ], [ 122.538034134866606, 10.816824165427162 ], [ 122.537805898955213, 10.816871263717429 ], [ 122.537716034035412, 10.816876824961888 ], [ 122.537633605546944, 10.816846795984473 ], [ 122.537492797032343, 10.816835630312966 ], [ 122.537444588013756, 10.81684413051188 ], [ 122.537324217916861, 10.816822505338491 ], [ 122.53724266881963, 10.81679746316199 ], [ 122.536752020677852, 10.816532614002503 ], [ 122.536665781493994, 10.816480975554473 ], [ 122.536545913023787, 10.816364994594608 ], [ 122.536514335650438, 10.816312287951602 ], [ 122.536498699413215, 10.816243058959449 ], [ 122.536499690898296, 10.816141760994823 ], [ 122.536497554351399, 10.81603244480568 ], [ 122.536480066852036, 10.815913837630196 ], [ 122.536447228400192, 10.815785939468393 ], [ 122.536366100218586, 10.81553972331575 ], [ 122.536319276141015, 10.815429716659773 ], [ 122.536298556361402, 10.815351100286485 ], [ 122.536284104414349, 10.815201106754124 ], [ 122.536275314424898, 10.815122100875682 ], [ 122.536264661404687, 10.815081130422072 ], [ 122.536206883330763, 10.814986766784322 ], [ 122.536126125067923, 10.814898168957823 ], [ 122.536058858649739, 10.814827759673117 ], [ 122.53598787793868, 10.814746007629941 ], [ 122.535900670806782, 10.814620839930148 ], [ 122.535880151677958, 10.814504481242391 ], [ 122.535868631035157, 10.814371110379811 ], [ 122.53585485782871, 10.814263845962961 ], [ 122.535820449476617, 10.814175645493112 ], [ 122.535734711919645, 10.814029651258847 ], [ 122.53569844445974, 10.813950348344461 ], [ 122.535680170048948, 10.813866158949759 ], [ 122.535702868876058, 10.813771317263505 ], [ 122.535755000683992, 10.813678141769971 ], [ 122.535844387514189, 10.813592109095795 ], [ 122.535925358196366, 10.813555550999732 ], [ 122.536005349161925, 10.813532877260011 ], [ 122.536079566076069, 10.813545500631719 ], [ 122.536167865018498, 10.813550499209812 ], [ 122.536233577227847, 10.813544054708856 ], [ 122.536306428815266, 10.81352949558851 ], [ 122.536379380728107, 10.813496065310934 ], [ 122.536470225364639, 10.81347661971029 ], [ 122.536644875584841, 10.813426971971149 ], [ 122.536889739218921, 10.813347804708998 ], [ 122.537032611415029, 10.813283192641483 ], [ 122.537059115875962, 10.813189309884129 ], [ 122.530908019481757, 10.812607409946107 ], [ 122.529205617186761, 10.812473653469358 ], [ 122.528849020665248, 10.812477043171006 ], [ 122.527990273365447, 10.812568393960026 ], [ 122.5276907134282, 10.812640948253256 ], [ 122.527268252399296, 10.812898054599229 ], [ 122.527962712457807, 10.81435135722691 ], [ 122.529851243918017, 10.818604110680695 ], [ 122.52956519681068, 10.821106345844841 ], [ 122.530487010776454, 10.822853782105392 ] ] ] ] } },
{ "type": "Feature", "properties": { "psgc": "0603043002", "admin_type": "Barangay", "region": "Region VI (Western Visayas)", "province": "Iloilo", "municity": "Santa Barbara", "barangay": "Agutayan", "population": "952" }, "geometry": { "type": "MultiPolygon", "coordinates": [ [ [ [ 122.541871830168262, 10.815375378226719 ], [ 122.543492551958224, 10.814369753393212 ], [ 122.549866881165642, 10.810524046924874 ], [ 122.54487054029174, 10.808483335894845 ], [ 122.541473125402305, 10.810198414834147 ], [ 122.541342943050211, 10.810400386335667 ], [ 122.541110448010159, 10.810803858622469 ], [ 122.541000870107069, 10.811011190806429 ], [ 122.540844885805683, 10.81120610416812 ], [ 122.540680520038549, 10.811352314424147 ], [ 122.540460650942876, 10.811429225949912 ], [ 122.540460638177706, 10.811429237428118 ], [ 122.540203064163748, 10.811451761519981 ], [ 122.539816786048817, 10.811510274135435 ], [ 122.539168217977462, 10.8117730005069 ], [ 122.538728940659368, 10.811790833199842 ], [ 122.538318644001748, 10.811480674300961 ], [ 122.538056560327888, 10.81140473053707 ], [ 122.537934973153412, 10.811427726964236 ], [ 122.537739482507249, 10.811547822364984 ], [ 122.537629700496325, 10.811705736028673 ], [ 122.537589272404574, 10.81190289878521 ], [ 122.537556251373573, 10.812655572766312 ], [ 122.537483982938554, 10.812818443865304 ], [ 122.537336175995165, 10.813012641812863 ], [ 122.537059115875962, 10.813189309884129 ], [ 122.537032598652715, 10.813283204118042 ], [ 122.536889726456707, 10.813347816185489 ], [ 122.536644862822811, 10.813426983447517 ], [ 122.536470212602723, 10.813476631186562 ], [ 122.536379367966276, 10.813496076787159 ], [ 122.536306416053506, 10.8135295070647 ], [ 122.536233564466116, 10.813544066185004 ], [ 122.536167852256824, 10.813550510685927 ], [ 122.536079553314408, 10.813545512107781 ], [ 122.536005336400308, 10.813532888736031 ], [ 122.535925345434805, 10.813555562475713 ], [ 122.535844374752685, 10.813592120571736 ], [ 122.535754987922587, 10.813678153245876 ], [ 122.535702856114753, 10.813771328739398 ], [ 122.535680157287672, 10.81386617042565 ], [ 122.53569843169852, 10.813950359820367 ], [ 122.535734699158425, 10.814029662734796 ], [ 122.535820436715426, 10.81417565696913 ], [ 122.535854845067533, 10.814263857439007 ], [ 122.535868618274066, 10.814371121855883 ], [ 122.535880138916909, 10.814504492718491 ], [ 122.535900658045747, 10.81462085140628 ], [ 122.53598786517766, 10.814746019106137 ], [ 122.536058845888718, 10.814827771149362 ], [ 122.536126112306903, 10.81489818043412 ], [ 122.536126099545896, 10.814898191910419 ], [ 122.536206870569742, 10.814986778260675 ], [ 122.536264648643694, 10.815081141898474 ], [ 122.53627530166392, 10.815122112352091 ], [ 122.536284091653414, 10.815201118230556 ], [ 122.536298543600509, 10.815351111762947 ], [ 122.536319263380165, 10.815429728136257 ], [ 122.536366087457765, 10.815539734792278 ], [ 122.536447215639427, 10.815785950945005 ], [ 122.536480054091328, 10.815913849106844 ], [ 122.536497541590734, 10.816032456282356 ], [ 122.536499678137673, 10.816141772471518 ], [ 122.536498686652678, 10.816243070436157 ], [ 122.5365143228899, 10.816312299428331 ], [ 122.536545900263249, 10.816365006071363 ], [ 122.536665768733485, 10.816480987031314 ], [ 122.537242656058908, 10.816797474639207 ], [ 122.537324205156125, 10.816822516815753 ], [ 122.537444575252962, 10.816844141989211 ], [ 122.537492784271521, 10.816835641790322 ], [ 122.537633592786023, 10.816846807461916 ], [ 122.537716021274463, 10.816876836439377 ], [ 122.537805886194221, 10.81687127519497 ], [ 122.538034122105458, 10.816824176904825 ], [ 122.538146087822838, 10.816807863048249 ], [ 122.53820895236916, 10.816795074067386 ], [ 122.538324448412766, 10.81679869593671 ], [ 122.538377933778705, 10.81682011654331 ], [ 122.538449119063287, 10.816834988402579 ], [ 122.538484602541573, 10.81683216909801 ], [ 122.538528327039913, 10.816817594573957 ], [ 122.538668167606261, 10.816755230993675 ], [ 122.538715794286759, 10.816714268391436 ], [ 122.538955416878153, 10.816342939498817 ], [ 122.539020168984862, 10.816204690007208 ], [ 122.539020156222847, 10.816204701485333 ], [ 122.53903680455285, 10.816114345295992 ], [ 122.539041510330719, 10.816024390089943 ], [ 122.539079074174637, 10.815916643698724 ], [ 122.539148805575579, 10.815835790615035 ], [ 122.539200636407216, 10.815799228593171 ], [ 122.539331478487625, 10.815753877187873 ], [ 122.53946427215557, 10.815739032808633 ], [ 122.539635983225622, 10.815731038138415 ], [ 122.539913396103245, 10.815748968901364 ], [ 122.540034155732926, 10.815782523053914 ], [ 122.540165273290896, 10.815869954327741 ], [ 122.540333985241347, 10.81598589297861 ], [ 122.540333972478464, 10.815985904457438 ], [ 122.540420228347912, 10.816008393557251 ], [ 122.540546368573146, 10.81602385948857 ], [ 122.540641220632608, 10.81601741891329 ], [ 122.540744874450183, 10.816002570608326 ], [ 122.540902411012084, 10.815962796150275 ], [ 122.541297691443432, 10.815706279702527 ], [ 122.541510094389267, 10.815598556865773 ], [ 122.541871830168262, 10.815375378226719 ] ] ] ] } },
{ "type": "Feature", "properties": { "psgc": "0603043009", "admin_type": "Barangay", "region": "Region VI (Western Visayas)", "province": "Iloilo", "municity": "Santa Barbara", "barangay": "Poblacion", "population": "4015" }, "geometry": { "type": "MultiPolygon", "coordinates": [ [ [ [ 122.536053442555541, 10.832628540215826 ], [ 122.53771832417938, 10.83163527726299 ], [ 122.537793842384602, 10.831519115585502 ], [ 122.538239399436492, 10.831149183320557 ], [ 122.538629985857028, 10.830895208463659 ], [ 122.538629973102445, 10.830895219943779 ], [ 122.538951145775385, 10.830636335349796 ], [ 122.539075542908819, 10.83052527619923 ], [ 122.539140287169346, 10.830445302444751 ], [ 122.539192334341763, 10.830254446627482 ], [ 122.539236547704789, 10.830145527793047 ], [ 122.539236534949524, 10.830145539273399 ], [ 122.539277528787906, 10.8300765997614 ], [ 122.539424235214611, 10.829858769943732 ], [ 122.539660131742863, 10.829563511895307 ], [ 122.540240709231142, 10.828617880437056 ], [ 122.540403846652211, 10.828376586092251 ], [ 122.540581309901441, 10.827769408071429 ], [ 122.5405812971442, 10.82776941955218 ], [ 122.541019351474901, 10.826569534385202 ], [ 122.541174867505219, 10.826285021099533 ], [ 122.541204894592155, 10.826231736086712 ], [ 122.541206074959234, 10.826180109415272 ], [ 122.541196008199705, 10.82614246349525 ], [ 122.541178119398666, 10.826099340948559 ], [ 122.541177251775494, 10.826006940538548 ], [ 122.541199753874167, 10.825920703296363 ], [ 122.541334241303403, 10.825672462848704 ], [ 122.541399375097058, 10.825604418074082 ], [ 122.54153522393041, 10.82541249798855 ], [ 122.541666483002459, 10.825175110473943 ], [ 122.541701404749418, 10.825081541548395 ], [ 122.541863763104814, 10.824816389246546 ], [ 122.541945439986222, 10.824618595178167 ], [ 122.541945427226679, 10.824618606659206 ], [ 122.542156705714333, 10.824241982445114 ], [ 122.542386546829547, 10.823892945635428 ], [ 122.542909985758797, 10.82318705835876 ], [ 122.543118898598266, 10.82285542322988 ], [ 122.54329055641567, 10.822516645281894 ], [ 122.543430444054422, 10.822104627266613 ], [ 122.543571207161776, 10.821726733922008 ], [ 122.543571194399888, 10.821726745403527 ], [ 122.543682610154548, 10.821532268314149 ], [ 122.543929677021367, 10.821067073458883 ], [ 122.54409439611149, 10.820698667816604 ], [ 122.544193936268428, 10.820544019259245 ], [ 122.544249526532226, 10.820373087684962 ], [ 122.544306078832477, 10.8201300189788 ], [ 122.544313650894026, 10.81981331677456 ], [ 122.544253672086171, 10.818996910555995 ], [ 122.544245287320706, 10.818813282178919 ], [ 122.544213074357458, 10.818397329857017 ], [ 122.544218586660719, 10.818127267523371 ], [ 122.544296096364548, 10.816924118606044 ], [ 122.544323740848114, 10.816410200706033 ], [ 122.544323728083171, 10.816410212187174 ], [ 122.544314283886507, 10.816201052104379 ], [ 122.544253155261202, 10.815572526327651 ], [ 122.544254355242728, 10.815375210310386 ], [ 122.544263873972582, 10.815030750876097 ], [ 122.544249924649478, 10.814873803685179 ], [ 122.544233505423577, 10.814809854604523 ], [ 122.544149333844302, 10.814653300548249 ], [ 122.544073859774883, 10.814536347788769 ], [ 122.543997988326794, 10.814465741788821 ], [ 122.543923678933268, 10.814413713835751 ], [ 122.543650375766191, 10.81437534800626 ], [ 122.543492551958224, 10.814369753393212 ], [ 122.541510094389267, 10.815598556865773 ], [ 122.53337804899239, 10.821308301055236 ], [ 122.530487010776454, 10.822853782105392 ], [ 122.529273242349475, 10.825113548379687 ], [ 122.527771704750464, 10.827909014420742 ], [ 122.530802908377026, 10.828793314813886 ], [ 122.536053442555541, 10.832628540215826 ] ] ] ] } },
{ "type": "Feature", "properties": { "psgc": "0603043036", "admin_type": "Barangay", "region": "Region VI (Western Visayas)", "province": "Iloilo", "municity": "Santa Barbara", "barangay": "Gen. Martin T. Delgado", "population": "1950" }, "geometry": { "type": "MultiPolygon", "coordinates": [ [ [ [ 122.52772745023195, 10.827999048138979 ], [ 122.525570947042723, 10.831395344968561 ], [ 122.528139912108614, 10.833649163109055 ], [ 122.52837593414479, 10.834081397050754 ], [ 122.528944909413312, 10.834912771165953 ], [ 122.53010784308762, 10.836573034793547 ], [ 122.530108457785531, 10.836459796370752 ], [ 122.530189154949724, 10.836275886655194 ], [ 122.53054649377161, 10.836027774001863 ], [ 122.530949888393195, 10.835785680905463 ], [ 122.531113445896779, 10.835692569308453 ], [ 122.53129314518668, 10.835545193046363 ], [ 122.531691563380463, 10.835151015239475 ], [ 122.531938303848079, 10.835004664901152 ], [ 122.532230798084143, 10.834855397161419 ], [ 122.532792609639571, 10.834571231939043 ], [ 122.533126169593416, 10.834450716489803 ], [ 122.533320668047409, 10.83441642258191 ], [ 122.53354655891512, 10.834356026153182 ], [ 122.533999882527127, 10.834222106794989 ], [ 122.534129551104968, 10.834177390787232 ], [ 122.534282465959478, 10.834147857959392 ], [ 122.534369963696506, 10.834111862965148 ], [ 122.534369950945944, 10.83411187444335 ], [ 122.534536969405039, 10.834009145135836 ], [ 122.534683876066438, 10.833938251366945 ], [ 122.535216797603368, 10.833614188793183 ], [ 122.535543924377961, 10.833340551990284 ], [ 122.535613466895626, 10.833210027609791 ], [ 122.535632547831426, 10.833114109874964 ], [ 122.535687273533512, 10.833001623555909 ], [ 122.536053429803289, 10.83262855169475 ], [ 122.530802895625882, 10.828793326289281 ], [ 122.527771704750464, 10.827909014420742 ], [ 122.52772745023195, 10.827999048138979 ] ] ] ] } },
{ "type": "Feature", "properties": { "psgc": "0603043035", "admin_type": "Barangay", "region": "Region VI (Western Visayas)", "province": "Iloilo", "municity": "Santa Barbara", "barangay": "Duyanduyan", "population": "1013" }, "geometry": { "type": "MultiPolygon", "coordinates": [ [ [ [ 122.527771704750464, 10.827909014420742 ], [ 122.521459663759913, 10.826986007409635 ], [ 122.518288218472534, 10.828852395746349 ], [ 122.522607441854191, 10.836158159667562 ], [ 122.519480428456589, 10.838429819925461 ], [ 122.520113148259668, 10.839068595372824 ], [ 122.526808563729134, 10.840714194322125 ], [ 122.526599932550852, 10.840616005523898 ], [ 122.526027735306286, 10.840326114184252 ], [ 122.525721888774825, 10.840146943522615 ], [ 122.525524386148291, 10.839979520826807 ], [ 122.525368250215323, 10.839784236947819 ], [ 122.525331601066256, 10.839634729311067 ], [ 122.525325850550288, 10.839495199201874 ], [ 122.525354716882973, 10.839347851508748 ], [ 122.525452415612207, 10.839260353279187 ], [ 122.52570667118755, 10.83914696494557 ], [ 122.525903426128068, 10.839057426720037 ], [ 122.526278159971241, 10.838888516661058 ], [ 122.526907535000177, 10.838647285118448 ], [ 122.527683970685942, 10.83846239356641 ], [ 122.528070028445498, 10.838435458819655 ], [ 122.528547605659909, 10.838460945457674 ], [ 122.528829022040057, 10.838521019114548 ], [ 122.529260091840939, 10.838263334139505 ], [ 122.529512395828107, 10.83811943877941 ], [ 122.529779572677242, 10.837904362973592 ], [ 122.530009799402038, 10.837596393005095 ], [ 122.530119154403593, 10.837361153652699 ], [ 122.530159661318464, 10.837182616317765 ], [ 122.530203500838439, 10.83694521702189 ], [ 122.530223460186264, 10.836766883953219 ], [ 122.530107830340697, 10.836573046269713 ], [ 122.528944896666232, 10.834912782641229 ], [ 122.528375921397611, 10.834081408525579 ], [ 122.528139899361364, 10.83364917458368 ], [ 122.528139886614127, 10.833649186058304 ], [ 122.525570934295828, 10.8313953564414 ], [ 122.527771704750464, 10.827909014420742 ] ] ] ] } }
]
}
