{
"type": "FeatureCollection",
"name": "BOUNDARIES_SanMiguel_Barangay",
"crs": { "type": "name", "properties": { "name": "urn:ogc:def:crs:OGC:1.3:CRS84" } },
"features": [
{ "type": "Feature", "properties": { "psgc": "0603041001", "admin_type": "Barangay", "region": "Region VI (Western Visayas)", "province": "Iloilo", "municity": "San Miguel", "barangay": "Barangay 1", "population": "1341" }, "geometry": { "type": "MultiPolygon", "coordinates": [ [ [ [ 122.466131994110512, 10.770149318590818 ], [ 122.466577646927718, 10.771600890485329 ], [ 122.4675782045815, 10.772175340820127 ], [ 122.468471907924012, 10.775772358127629 ], [ 122.467059047052658, 10.776361887380054 ], [ 122.465696044797795, 10.778024953269771 ], [ 122.466017076237222, 10.778527157288842 ], [ 122.466350412760391, 10.77888665615345 ], [ 122.466466078323009, 10.779169209956963 ], [ 122.466664102752915, 10.779408834555715 ], [ 122.466285922425513, 10.779776679812763 ], [ 122.466159699643242, 10.779991817980001 ], [ 122.465931942491665, 10.780144567180926 ], [ 122.465117909638408, 10.780645657997493 ], [ 122.464958615936652, 10.780401313379899 ], [ 122.464120404551664, 10.780987052983951 ], [ 122.464462532264548, 10.781442184636202 ], [ 122.465099855842382, 10.782219699782891 ], [ 122.46600165472492, 10.781715161967384 ], [ 122.465509362887801, 10.780986116081269 ], [ 122.466533688338743, 10.780355215875465 ], [ 122.46671611491989, 10.78065702749346 ], [ 122.4668615064314, 10.780551035162064 ], [ 122.466994569866301, 10.780849890279125 ], [ 122.46748231297974, 10.780566061967265 ], [ 122.467663974631122, 10.780477839289015 ], [ 122.467300871217546, 10.779960808666443 ], [ 122.467391979975361, 10.779895880009642 ], [ 122.467672698188792, 10.779902105266247 ], [ 122.468565618313633, 10.780994602796858 ], [ 122.469516821178033, 10.780148173268614 ], [ 122.473726558267458, 10.778386121269994 ], [ 122.473876289877637, 10.77867734468113 ], [ 122.474063923421767, 10.778549023601183 ], [ 122.473756297780454, 10.77804341163127 ], [ 122.474683124270342, 10.777610488480679 ], [ 122.479044705694633, 10.775914554755179 ], [ 122.480488570808234, 10.775803566573682 ], [ 122.475769772036983, 10.767774967376889 ], [ 122.471234526361044, 10.768822893139312 ], [ 122.471014695379665, 10.768872824617732 ], [ 122.470742846542748, 10.768944486607966 ], [ 122.466131994110512, 10.770149318590818 ] ] ] ] } },
{ "type": "Feature", "properties": { "psgc": "0603041002", "admin_type": "Barangay", "region": "Region VI (Western Visayas)", "province": "Iloilo", "municity": "San Miguel", "barangay": "Barangay 10", "population": "797" }, "geometry": { "type": "MultiPolygon", "coordinates": [ [ [ [ 122.462795703505847, 10.777571092935016 ], [ 122.465436527126471, 10.776570748797068 ], [ 122.464363843758733, 10.772254614635184 ], [ 122.466577646927718, 10.771600890485329 ], [ 122.466131994110512, 10.770149318590818 ], [ 122.458936155833044, 10.771864525138328 ], [ 122.459146229006066, 10.772798107377398 ], [ 122.459422738808556, 10.773369101874588 ], [ 122.460290277078514, 10.77271258472129 ], [ 122.460850821829567, 10.774122148126777 ], [ 122.460914577556665, 10.774196915287536 ], [ 122.46142634815449, 10.775568770882822 ], [ 122.461147579574387, 10.775829105767187 ], [ 122.462173591813169, 10.776560302853534 ], [ 122.462795703505847, 10.777571092935016 ] ] ] ] } },
{ "type": "Feature", "properties": { "psgc": "0603041003", "admin_type": "Barangay", "region": "Region VI (Western Visayas)", "province": "Iloilo", "municity": "San Miguel", "barangay": "Barangay 11", "population": "420" }, "geometry": { "type": "MultiPolygon", "coordinates": [ [ [ [ 122.465614575092943, 10.780339927810651 ], [ 122.465452240728212, 10.780108032357859 ], [ 122.465163938973632, 10.780284604497959 ], [ 122.464859550721584, 10.779799457790556 ], [ 122.465298759191228, 10.779328272553661 ], [ 122.4650499455296, 10.778894720767543 ], [ 122.464746861947418, 10.77905310717011 ], [ 122.464579622276858, 10.779032526713802 ], [ 122.464492361465375, 10.778895557288514 ], [ 122.464392439668202, 10.778633512370567 ], [ 122.464495521553005, 10.778586217098178 ], [ 122.464361169362334, 10.778098918352146 ], [ 122.464658787980838, 10.777962754229517 ], [ 122.464640284417911, 10.777740099982147 ], [ 122.464775951296645, 10.777658977512864 ], [ 122.465696044797795, 10.778024953269771 ], [ 122.467059047052658, 10.776361887380054 ], [ 122.468471907925618, 10.775772357223257 ], [ 122.467578204583077, 10.772175339915753 ], [ 122.466577646927718, 10.771600890485329 ], [ 122.464363843758733, 10.772254614635184 ], [ 122.465436527126471, 10.776570748797068 ], [ 122.462795703505847, 10.777571092935016 ], [ 122.46309861496826, 10.77806325145901 ], [ 122.463098340657027, 10.778084360035582 ], [ 122.463530736924213, 10.778369186285779 ], [ 122.463772524108848, 10.778639516901986 ], [ 122.463602361042206, 10.778739529482744 ], [ 122.463693913071367, 10.778887842926956 ], [ 122.463879774551231, 10.77888816458033 ], [ 122.46414198766864, 10.779066644710882 ], [ 122.464032495763362, 10.779235294292045 ], [ 122.464100643796556, 10.77945478679492 ], [ 122.46470544488497, 10.780175566886156 ], [ 122.464918247967489, 10.780049593087016 ], [ 122.465098675530655, 10.780327840403265 ], [ 122.465267155877157, 10.780553786797416 ], [ 122.465614575092943, 10.780339927810651 ] ] ], [ [ [ 122.466528207110755, 10.780907476806449 ], [ 122.466268372147198, 10.780518629259737 ], [ 122.465509362887801, 10.780986116081269 ], [ 122.46600165472492, 10.781715161967384 ], [ 122.466151123226481, 10.781716853939999 ], [ 122.466062370224776, 10.781576668185487 ], [ 122.466186386701423, 10.781515624871366 ], [ 122.466039663980965, 10.7812780029519 ], [ 122.466528207110755, 10.780907476806449 ] ] ] ] } },
{ "type": "Feature", "properties": { "psgc": "0603041004", "admin_type": "Barangay", "region": "Region VI (Western Visayas)", "province": "Iloilo", "municity": "San Miguel", "barangay": "Barangay 12", "population": "249" }, "geometry": { "type": "MultiPolygon", "coordinates": [ [ [ [ 122.463602361042206, 10.778739529482744 ], [ 122.463772524108848, 10.778639516901986 ], [ 122.463530736924213, 10.778369186285779 ], [ 122.463098340657027, 10.778084360035582 ], [ 122.4630761423264, 10.77827594990605 ], [ 122.463207356994133, 10.778621309927171 ], [ 122.463294016171631, 10.778664339249357 ], [ 122.463293919454046, 10.778664205234097 ], [ 122.463501586200195, 10.778817571818493 ], [ 122.463602361042206, 10.778739529482744 ] ] ], [ [ [ 122.465072922658024, 10.778491423787376 ], [ 122.464658787980838, 10.777962754229517 ], [ 122.464361169362334, 10.778098918352146 ], [ 122.464495521553005, 10.778586217098178 ], [ 122.464392439668202, 10.778633512370567 ], [ 122.46445086772323, 10.778786740610206 ], [ 122.464492361465375, 10.778895557288514 ], [ 122.464579622276858, 10.779032526713802 ], [ 122.464746861947418, 10.77905310717011 ], [ 122.4650499455296, 10.778894720767543 ], [ 122.465072922658024, 10.778491423787376 ] ] ], [ [ [ 122.463136969516469, 10.77892061074582 ], [ 122.462939905824072, 10.778686728484445 ], [ 122.462379880467765, 10.778883217005728 ], [ 122.462513437006947, 10.77912962267688 ], [ 122.462427674483123, 10.779313197941505 ], [ 122.46261029056727, 10.779396210911715 ], [ 122.462673896559792, 10.779338128227099 ], [ 122.4628459083455, 10.779287889941269 ], [ 122.462910758246494, 10.779281378712383 ], [ 122.463136969516469, 10.77892061074582 ] ] ], [ [ [ 122.463778651564155, 10.779578274870014 ], [ 122.463882173865272, 10.779501499720185 ], [ 122.463939012468103, 10.779547541300346 ], [ 122.464100643796556, 10.77945478679492 ], [ 122.464032495763362, 10.779235294292045 ], [ 122.46414198766864, 10.779066644710882 ], [ 122.463879774551231, 10.77888816458033 ], [ 122.463693913071367, 10.778887842926956 ], [ 122.463787148905354, 10.778978395826865 ], [ 122.463800865816779, 10.779104187593337 ], [ 122.463680010709069, 10.779129246698377 ], [ 122.46377325821733, 10.779343958764235 ], [ 122.463698671876585, 10.779480508088279 ], [ 122.463778651564155, 10.779578274870014 ] ] ], [ [ [ 122.463624159618831, 10.779504939252202 ], [ 122.463498171421165, 10.779358944668155 ], [ 122.463048374748965, 10.779671194561814 ], [ 122.463187447154738, 10.779817759140666 ], [ 122.463624159618831, 10.779504939252202 ] ] ], [ [ [ 122.46334614913772, 10.780056424088938 ], [ 122.463206332752833, 10.779848537947775 ], [ 122.46311599518512, 10.779914997778572 ], [ 122.463221799058772, 10.78005080049274 ], [ 122.46334614913772, 10.780056424088938 ] ] ], [ [ [ 122.465614575092943, 10.780339927810651 ], [ 122.465931942491665, 10.780144567180926 ], [ 122.465997920102168, 10.780100317612455 ], [ 122.465910142001206, 10.779717747865512 ], [ 122.465298759191228, 10.779328272553661 ], [ 122.464859550721584, 10.779799457790556 ], [ 122.465163938973632, 10.780284604497959 ], [ 122.465452240728212, 10.780108032357859 ], [ 122.465614575092943, 10.780339927810651 ] ] ], [ [ [ 122.464120769428433, 10.780986693476486 ], [ 122.464958615936652, 10.780401313379899 ], [ 122.465117909640014, 10.780645657093123 ], [ 122.465267155877157, 10.780553786797416 ], [ 122.465098675530655, 10.780327840403265 ], [ 122.464918247967489, 10.780049593087016 ], [ 122.46470544488497, 10.780175566886156 ], [ 122.464424825834229, 10.780339265127603 ], [ 122.46442307580827, 10.780453199981659 ], [ 122.464291569905953, 10.780559851824798 ], [ 122.464035958866191, 10.780260210310562 ], [ 122.463795517313201, 10.780618339085676 ], [ 122.464120769428433, 10.780986693476486 ] ] ] ] } },
{ "type": "Feature", "properties": { "psgc": "0603041005", "admin_type": "Barangay", "region": "Region VI (Western Visayas)", "province": "Iloilo", "municity": "San Miguel", "barangay": "Barangay 13", "population": "628" }, "geometry": { "type": "MultiPolygon", "coordinates": [ [ [ [ 122.462379880466173, 10.778883217910099 ], [ 122.462939905822466, 10.778686729388832 ], [ 122.463136969514863, 10.778920611650195 ], [ 122.462910758246494, 10.779281378712383 ], [ 122.463048374748965, 10.779671194561814 ], [ 122.463498171419559, 10.779358945572529 ], [ 122.463624159618831, 10.779504939252202 ], [ 122.463187447154738, 10.779817759140666 ], [ 122.463206332752833, 10.779848537947775 ], [ 122.46334614913772, 10.780056424088938 ], [ 122.463777208942375, 10.780595618661879 ], [ 122.463795380723553, 10.780618338849258 ], [ 122.464035958866191, 10.780260210310562 ], [ 122.464291569904347, 10.780559852729171 ], [ 122.46442307580827, 10.780453199981659 ], [ 122.464424825832651, 10.780339266031973 ], [ 122.46470544488497, 10.780175566886156 ], [ 122.46410064379495, 10.779454787699294 ], [ 122.463939012468103, 10.779547541300346 ], [ 122.463882173863666, 10.779501500624557 ], [ 122.463778652478823, 10.779578274871596 ], [ 122.46369867187498, 10.779480508992654 ], [ 122.46377325821733, 10.779343958764235 ], [ 122.463680010709069, 10.779129246698377 ], [ 122.463800865816779, 10.779104187593337 ], [ 122.463787148905354, 10.778978395826865 ], [ 122.463693913071367, 10.778887842926956 ], [ 122.4636023610406, 10.778739530387117 ], [ 122.463501586198618, 10.778817572722867 ], [ 122.463293919454046, 10.778664205234097 ], [ 122.463207356994133, 10.778621309927171 ], [ 122.4630761423264, 10.77827594990605 ], [ 122.463098340657027, 10.778084360035582 ], [ 122.46309861496826, 10.77806325145901 ], [ 122.462173591813169, 10.776560302853534 ], [ 122.461147579574387, 10.775829105767187 ], [ 122.46142634815449, 10.775568770882822 ], [ 122.460914577556665, 10.774196915287536 ], [ 122.460850821829567, 10.774122148126777 ], [ 122.460290277078514, 10.77271258472129 ], [ 122.459422738808556, 10.773369101874588 ], [ 122.459294187523142, 10.774331021823984 ], [ 122.459019783130344, 10.77447813269456 ], [ 122.459300044202706, 10.775288995200686 ], [ 122.460064205667024, 10.776097905481057 ], [ 122.460371704632962, 10.776387739249287 ], [ 122.461094400446328, 10.77722203227294 ], [ 122.461898904899854, 10.777995836439883 ], [ 122.462379880466173, 10.778883217910099 ] ] ] ] } },
{ "type": "Feature", "properties": { "psgc": "0603041006", "admin_type": "Barangay", "region": "Region VI (Western Visayas)", "province": "Iloilo", "municity": "San Miguel", "barangay": "Barangay 14", "population": "660" }, "geometry": { "type": "MultiPolygon", "coordinates": [ [ [ [ 122.461084461591582, 10.784488158417046 ], [ 122.464241777213743, 10.781822177607419 ], [ 122.464044682693526, 10.781659507415972 ], [ 122.464462715021469, 10.781441824813498 ], [ 122.464120769428433, 10.780986693476486 ], [ 122.463795380882956, 10.780618248814877 ], [ 122.463795426333135, 10.780618293910873 ], [ 122.46334614913772, 10.780056424088938 ], [ 122.463221799058772, 10.78005080049274 ], [ 122.46311599518512, 10.779914997778572 ], [ 122.463206332752833, 10.779848537947775 ], [ 122.463173997311998, 10.77979583997878 ], [ 122.463048374748965, 10.779671194561814 ], [ 122.462910758246494, 10.779281378712383 ], [ 122.4628459083455, 10.779287889941269 ], [ 122.462673896559792, 10.779338128227099 ], [ 122.462610290565664, 10.779396211816085 ], [ 122.462427674483123, 10.779313197941505 ], [ 122.459953974412372, 10.782229379981212 ], [ 122.460268721688294, 10.782677756511875 ], [ 122.460233442454253, 10.782918892067659 ], [ 122.459836669401653, 10.783934675276626 ], [ 122.459853694528107, 10.784158674517654 ], [ 122.459986977665451, 10.7843311905229 ], [ 122.460236496646161, 10.784463710491947 ], [ 122.46059693922831, 10.784499654380912 ], [ 122.461084461591582, 10.784488158417046 ] ] ] ] } },
{ "type": "Feature", "properties": { "psgc": "0603041007", "admin_type": "Barangay", "region": "Region VI (Western Visayas)", "province": "Iloilo", "municity": "San Miguel", "barangay": "Barangay 15", "population": "1001" }, "geometry": { "type": "MultiPolygon", "coordinates": [ [ [ [ 122.459953974412372, 10.782229379981212 ], [ 122.462427674483123, 10.779313197941505 ], [ 122.462513437006947, 10.77912962267688 ], [ 122.461898904899854, 10.777995836439883 ], [ 122.461094400446328, 10.77722203227294 ], [ 122.460355383105949, 10.77636889709064 ], [ 122.460064205667024, 10.776097905481057 ], [ 122.45632940744018, 10.779966265560905 ], [ 122.456909950313431, 10.780120425304766 ], [ 122.457474578495976, 10.780446150532068 ], [ 122.457806745305021, 10.780979586544243 ], [ 122.457948729217236, 10.781481117750667 ], [ 122.458925656203476, 10.781923106532153 ], [ 122.459953974412372, 10.782229379981212 ] ] ] ] } },
{ "type": "Feature", "properties": { "psgc": "0603041008", "admin_type": "Barangay", "region": "Region VI (Western Visayas)", "province": "Iloilo", "municity": "San Miguel", "barangay": "Barangay 16", "population": "520" }, "geometry": { "type": "MultiPolygon", "coordinates": [ [ [ [ 122.460064205667024, 10.776097905481057 ], [ 122.459300044202706, 10.775288995200686 ], [ 122.459019783130344, 10.77447813269456 ], [ 122.459294187523142, 10.774331021823984 ], [ 122.459422738808556, 10.773369101874588 ], [ 122.459146229006066, 10.772798107377398 ], [ 122.458936155833044, 10.771864525138328 ], [ 122.457532923133684, 10.771938922841059 ], [ 122.454863793152811, 10.771757031686025 ], [ 122.455042626339747, 10.773881010970277 ], [ 122.455313063187063, 10.774218396971492 ], [ 122.455482662320904, 10.774647490193463 ], [ 122.455970787180064, 10.77451052046613 ], [ 122.456059621611857, 10.774634720545524 ], [ 122.456551075895206, 10.77458428007859 ], [ 122.457466364708196, 10.775918212756057 ], [ 122.458163684391735, 10.775724177897954 ], [ 122.458171563765205, 10.775726974437923 ], [ 122.459212351649299, 10.776096420215353 ], [ 122.460064205667024, 10.776097905481057 ] ] ] ] } },
{ "type": "Feature", "properties": { "psgc": "0603041009", "admin_type": "Barangay", "region": "Region VI (Western Visayas)", "province": "Iloilo", "municity": "San Miguel", "barangay": "Barangay 2", "population": "564" }, "geometry": { "type": "MultiPolygon", "coordinates": [ [ [ [ 122.468342337246725, 10.781373870828814 ], [ 122.468565618313633, 10.780994602796858 ], [ 122.467672698188792, 10.779902105266247 ], [ 122.467391979975361, 10.779895880009642 ], [ 122.467300871217546, 10.779960808666443 ], [ 122.4676639746327, 10.780477838384639 ], [ 122.467482312981346, 10.78056606106289 ], [ 122.467695505163462, 10.780927055008391 ], [ 122.46761217680239, 10.780970939597266 ], [ 122.467534193049019, 10.781279002755705 ], [ 122.467727853592748, 10.781248707039321 ], [ 122.467915376301718, 10.7814059991912 ], [ 122.468342337246725, 10.781373870828814 ] ] ], [ [ [ 122.474661824346484, 10.783851682939842 ], [ 122.47439032033445, 10.782937557487649 ], [ 122.473969975215866, 10.783061271782977 ], [ 122.473257332154986, 10.783562951550328 ], [ 122.472678657709366, 10.782930066506575 ], [ 122.472938493775089, 10.782546030731957 ], [ 122.47249095762524, 10.782348577610957 ], [ 122.471746235244055, 10.782419736399339 ], [ 122.471769038334443, 10.782666142170603 ], [ 122.470477109515471, 10.781326455346363 ], [ 122.469928139732318, 10.781660580089405 ], [ 122.469836883864645, 10.781477227841551 ], [ 122.469541525624408, 10.781649006961485 ], [ 122.469345332781103, 10.781324023041197 ], [ 122.469177795758696, 10.781362020996804 ], [ 122.469219677480041, 10.781492263382228 ], [ 122.469046707514622, 10.781587441143667 ], [ 122.469778538954557, 10.782661608870928 ], [ 122.469683186238299, 10.782717342465569 ], [ 122.46972723351513, 10.782771783605723 ], [ 122.469615509087305, 10.782889511330721 ], [ 122.469854434904065, 10.783125451836653 ], [ 122.469906782031856, 10.783083809853935 ], [ 122.469921908895515, 10.783069287932202 ], [ 122.470076242277116, 10.783164116415573 ], [ 122.470718446225064, 10.78294009694369 ], [ 122.471168265883435, 10.78362251255418 ], [ 122.471186278076758, 10.783803601450668 ], [ 122.471722143647767, 10.784790702352298 ], [ 122.471730317122606, 10.785002581145644 ], [ 122.472633364141672, 10.785083705539455 ], [ 122.474421994005922, 10.784288607769987 ], [ 122.474788423164171, 10.783996345777929 ], [ 122.474661824346484, 10.783851682939842 ] ] ] ] } },
{ "type": "Feature", "properties": { "psgc": "0603041010", "admin_type": "Barangay", "region": "Region VI (Western Visayas)", "province": "Iloilo", "municity": "San Miguel", "barangay": "Barangay 3", "population": "236" }, "geometry": { "type": "MultiPolygon", "coordinates": [ [ [ [ 122.469516821178033, 10.780148173268614 ], [ 122.468565618313633, 10.780994602796858 ], [ 122.468342337246725, 10.781373870828814 ], [ 122.467915376301718, 10.7814059991912 ], [ 122.467727853592748, 10.781248707039321 ], [ 122.467534193049019, 10.781279002755705 ], [ 122.467260585889164, 10.781729411238139 ], [ 122.46600165472492, 10.781715161967384 ], [ 122.466281835426344, 10.781905828031125 ], [ 122.466938485617874, 10.781930145165294 ], [ 122.468140287127866, 10.781844816542696 ], [ 122.469046707514622, 10.781587441143667 ], [ 122.469219677480041, 10.781492263382228 ], [ 122.469177795758696, 10.781362020996804 ], [ 122.469345332781103, 10.781324023041197 ], [ 122.469541525624408, 10.781649006961485 ], [ 122.469836883863067, 10.781477228745922 ], [ 122.469928139732318, 10.781660580089405 ], [ 122.470477109515471, 10.781326455346363 ], [ 122.470421542604356, 10.780618826171262 ], [ 122.469516821178033, 10.780148173268614 ] ] ] ] } },
{ "type": "Feature", "properties": { "psgc": "0603041011", "admin_type": "Barangay", "region": "Region VI (Western Visayas)", "province": "Iloilo", "municity": "San Miguel", "barangay": "Barangay 4", "population": "1415" }, "geometry": { "type": "MultiPolygon", "coordinates": [ [ [ [ 122.480488570808234, 10.775803566573682 ], [ 122.479044705694633, 10.775914554755179 ], [ 122.474683124270342, 10.777610488480679 ], [ 122.473756297780454, 10.77804341163127 ], [ 122.474063923421767, 10.778549023601183 ], [ 122.473876289877637, 10.77867734468113 ], [ 122.473726558267458, 10.778386121269994 ], [ 122.469516821178033, 10.780148173268614 ], [ 122.470421542604356, 10.780618826171262 ], [ 122.470477109515471, 10.781326455346363 ], [ 122.471769038334443, 10.782666142170603 ], [ 122.471746235242477, 10.782419737303709 ], [ 122.472490957623663, 10.782348578515331 ], [ 122.472938493773512, 10.782546031636336 ], [ 122.472678657709366, 10.782930066506575 ], [ 122.473257332154986, 10.783562951550328 ], [ 122.473969975215866, 10.783061271782977 ], [ 122.47439032033445, 10.782937557487649 ], [ 122.474661824344935, 10.783851683844214 ], [ 122.475027834523317, 10.783800618377247 ], [ 122.475941557391437, 10.783306242967029 ], [ 122.47729417684306, 10.783267563078896 ], [ 122.47927796501024, 10.781819025480686 ], [ 122.479563041388346, 10.780933795107922 ], [ 122.479989551340239, 10.780599513218039 ], [ 122.480889872014401, 10.780572309130493 ], [ 122.481258102401526, 10.780352784756074 ], [ 122.481687509502407, 10.780587044850634 ], [ 122.48192721499413, 10.780801844199864 ], [ 122.480878547187231, 10.778143078830411 ], [ 122.480488570808234, 10.775803566573682 ] ] ] ] } },
{ "type": "Feature", "properties": { "psgc": "0603041012", "admin_type": "Barangay", "region": "Region VI (Western Visayas)", "province": "Iloilo", "municity": "San Miguel", "barangay": "Barangay 5", "population": "852" }, "geometry": { "type": "MultiPolygon", "coordinates": [ [ [ [ 122.470718446225064, 10.78294009694369 ], [ 122.470076242277116, 10.783164116415573 ], [ 122.469108980862146, 10.784476950222965 ], [ 122.468573302934033, 10.784612693914202 ], [ 122.472670899240015, 10.789294313158248 ], [ 122.472870419674237, 10.790460092167157 ], [ 122.474166520938212, 10.795283725836853 ], [ 122.474702645181765, 10.796799703246812 ], [ 122.473153103359692, 10.798578696673841 ], [ 122.473664026604325, 10.800594755673149 ], [ 122.477180140228754, 10.798361039899623 ], [ 122.47807396943422, 10.797973665347026 ], [ 122.474295115557283, 10.788931660249967 ], [ 122.474337282748451, 10.788564447905083 ], [ 122.472854613201378, 10.786111662077229 ], [ 122.472762059437798, 10.785449167444179 ], [ 122.472633364141672, 10.785083705539455 ], [ 122.471730317122606, 10.785002581145644 ], [ 122.471722143647767, 10.784790702352298 ], [ 122.471186278076758, 10.783803601450668 ], [ 122.471168265883435, 10.78362251255418 ], [ 122.470718446225064, 10.78294009694369 ] ] ] ] } },
{ "type": "Feature", "properties": { "psgc": "0603041013", "admin_type": "Barangay", "region": "Region VI (Western Visayas)", "province": "Iloilo", "municity": "San Miguel", "barangay": "Barangay 6", "population": "321" }, "geometry": { "type": "MultiPolygon", "coordinates": [ [ [ [ 122.468140287127866, 10.781844816542696 ], [ 122.467961915399428, 10.782783029865037 ], [ 122.468573302934189, 10.784612693826279 ], [ 122.469108980862146, 10.784476950222965 ], [ 122.470076242277116, 10.783164116415573 ], [ 122.469921908895515, 10.783069287932202 ], [ 122.469854434904065, 10.783125451836653 ], [ 122.469615509087305, 10.782889511330721 ], [ 122.46972723351513, 10.782771783605723 ], [ 122.469683186238299, 10.782717342465569 ], [ 122.46977853895298, 10.782661609775296 ], [ 122.469046707514622, 10.781587441143667 ], [ 122.468140287127866, 10.781844816542696 ] ] ] ] } },
{ "type": "Feature", "properties": { "psgc": "0603041014", "admin_type": "Barangay", "region": "Region VI (Western Visayas)", "province": "Iloilo", "municity": "San Miguel", "barangay": "Barangay 7", "population": "357" }, "geometry": { "type": "MultiPolygon", "coordinates": [ [ [ [ 122.464775951296645, 10.777658977512864 ], [ 122.464640284417911, 10.777740099982147 ], [ 122.464658787980838, 10.777962754229517 ], [ 122.465072922656418, 10.778491424691747 ], [ 122.4650499455296, 10.778894720767543 ], [ 122.465298759191228, 10.779328272553661 ], [ 122.465910142001206, 10.779717747865512 ], [ 122.465997920102168, 10.780100317612455 ], [ 122.466159699643242, 10.779991817980001 ], [ 122.466285922425513, 10.779776679812763 ], [ 122.466664102752915, 10.779408834555715 ], [ 122.466466078323009, 10.779169209956963 ], [ 122.466350412760391, 10.77888665615345 ], [ 122.466017076237222, 10.778527157288842 ], [ 122.465696044797795, 10.778024953269771 ], [ 122.464775951296645, 10.777658977512864 ] ] ] ] } },
{ "type": "Feature", "properties": { "psgc": "0603041015", "admin_type": "Barangay", "region": "Region VI (Western Visayas)", "province": "Iloilo", "municity": "San Miguel", "barangay": "Barangay 8", "population": "1402" }, "geometry": { "type": "MultiPolygon", "coordinates": [ [ [ [ 122.467695505163462, 10.780927055008391 ], [ 122.467482312981346, 10.78056606106289 ], [ 122.466994569866301, 10.780849890279125 ], [ 122.4668615064314, 10.780551035162064 ], [ 122.466716114921482, 10.780657026589084 ], [ 122.466533688338743, 10.780355215875465 ], [ 122.466268372147198, 10.780518629259737 ], [ 122.466528207110755, 10.780907476806449 ], [ 122.466039663980965, 10.7812780029519 ], [ 122.466186386701423, 10.781515624871366 ], [ 122.466062370224776, 10.781576668185487 ], [ 122.466151123226481, 10.781716853939999 ], [ 122.467260585889164, 10.781729411238139 ], [ 122.467534193049019, 10.781279002755705 ], [ 122.46761217680239, 10.780970939597266 ], [ 122.467695505163462, 10.780927055008391 ] ] ], [ [ [ 122.46796191539697, 10.782783031271824 ], [ 122.468140287127866, 10.781844816542696 ], [ 122.466938485617874, 10.781930145165294 ], [ 122.465730067607723, 10.784552965577523 ], [ 122.473664026605903, 10.800594754768776 ], [ 122.473153103359692, 10.798578696673841 ], [ 122.474702645181765, 10.796799703246812 ], [ 122.474166520939789, 10.795283724932482 ], [ 122.472870419674237, 10.790460092167157 ], [ 122.472670899240015, 10.789294313158248 ], [ 122.468573302978513, 10.78461269391428 ], [ 122.46796191539697, 10.782783031271824 ] ] ] ] } },
{ "type": "Feature", "properties": { "psgc": "0603041016", "admin_type": "Barangay", "region": "Region VI (Western Visayas)", "province": "Iloilo", "municity": "San Miguel", "barangay": "Barangay 9", "population": "416" }, "geometry": { "type": "MultiPolygon", "coordinates": [ [ [ [ 122.465099901452021, 10.782219654844315 ], [ 122.464462351099826, 10.781441644115015 ], [ 122.464044682693526, 10.781659507415972 ], [ 122.464241777213743, 10.781822177607419 ], [ 122.461084461591582, 10.784488158417046 ], [ 122.462792530534017, 10.784279088766713 ], [ 122.463356832818775, 10.785410282261401 ], [ 122.465730067607723, 10.784552965577523 ], [ 122.466938485617874, 10.781930145165294 ], [ 122.466281835426344, 10.781905828031125 ], [ 122.46600165472492, 10.781715161967384 ], [ 122.465099901452021, 10.782219654844315 ] ] ] ] } },
{ "type": "Feature", "properties": { "psgc": "0603041017", "admin_type": "Barangay", "region": "Region VI (Western Visayas)", "province": "Iloilo", "municity": "San Miguel", "barangay": "Consolacion", "population": "2453" }, "geometry": { "type": "MultiPolygon", "coordinates": [ [ [ [ 122.483944704597633, 10.818431921438238 ], [ 122.49099477123444, 10.817707682982608 ], [ 122.487009925189156, 10.815489626909201 ], [ 122.483645556798407, 10.806629639441548 ], [ 122.47807396943422, 10.797973665347026 ], [ 122.477077317639001, 10.798403552689052 ], [ 122.473664026604325, 10.800594755673149 ], [ 122.473414722189474, 10.800908710655397 ], [ 122.472897369529633, 10.800884153582269 ], [ 122.472833465206037, 10.800889787441223 ], [ 122.472795090059336, 10.800911831312728 ], [ 122.472789221387671, 10.800946278052477 ], [ 122.472783317655299, 10.801000825404371 ], [ 122.472861613246721, 10.80106987237024 ], [ 122.472864212075336, 10.801245031919917 ], [ 122.472708048471759, 10.801959273720293 ], [ 122.472515330890744, 10.802840696624324 ], [ 122.472463768353037, 10.802981787226814 ], [ 122.472400627405392, 10.803154560067249 ], [ 122.472146528314099, 10.803137377305422 ], [ 122.471590743392895, 10.802636325056055 ], [ 122.471725592712716, 10.80219747085291 ], [ 122.471510555203437, 10.8020435791863 ], [ 122.47132117549998, 10.80183268590724 ], [ 122.470793651233294, 10.802333321607897 ], [ 122.470731069616292, 10.802689268280506 ], [ 122.470667816330632, 10.803428066921423 ], [ 122.469269126424635, 10.803850636186276 ], [ 122.468854240831561, 10.804154674807068 ], [ 122.468423997027273, 10.804383646748438 ], [ 122.468184270268381, 10.804176494162938 ], [ 122.467982809375272, 10.804229746262751 ], [ 122.467913058586817, 10.804256426488273 ], [ 122.4677962251005, 10.804631420981202 ], [ 122.467695454012258, 10.80468101888672 ], [ 122.467455302466632, 10.804715061984185 ], [ 122.467301342892881, 10.804182630492386 ], [ 122.466623410923873, 10.804326945770734 ], [ 122.465728277100865, 10.80466613976953 ], [ 122.464822520877476, 10.804442518192422 ], [ 122.464357354173401, 10.804709709666458 ], [ 122.46408186298035, 10.80488189910769 ], [ 122.463898865287874, 10.804895938758122 ], [ 122.463826405024022, 10.804812541850326 ], [ 122.463628925629536, 10.804803585098664 ], [ 122.463000023665558, 10.804981954647594 ], [ 122.464316823570528, 10.806169792804724 ], [ 122.470191376068513, 10.81347842289515 ], [ 122.471478576513661, 10.816548802694575 ], [ 122.473502749963927, 10.821378625579475 ], [ 122.483944704597633, 10.818431921438238 ] ] ] ] } },
{ "type": "Feature", "properties": { "psgc": "0603041018", "admin_type": "Barangay", "region": "Region VI (Western Visayas)", "province": "Iloilo", "municity": "San Miguel", "barangay": "Igtambo", "population": "2005" }, "geometry": { "type": "MultiPolygon", "coordinates": [ [ [ [ 122.460064205667024, 10.776097905481057 ], [ 122.459212351649299, 10.776096420215353 ], [ 122.458163684391735, 10.775724177897954 ], [ 122.457466364708196, 10.775918212756057 ], [ 122.456551075895206, 10.77458428007859 ], [ 122.456059621611857, 10.774634720545524 ], [ 122.455970787180064, 10.77451052046613 ], [ 122.455482662320904, 10.774647490193463 ], [ 122.455313063187063, 10.774218396971492 ], [ 122.455042626339747, 10.773881010970277 ], [ 122.454863793152811, 10.771757031686025 ], [ 122.454442451455208, 10.771723269182786 ], [ 122.447516394851988, 10.770924022165353 ], [ 122.445041061576347, 10.770633437814611 ], [ 122.444773077404733, 10.777083222704968 ], [ 122.44511611785876, 10.782451938157914 ], [ 122.445379505751433, 10.781937752482312 ], [ 122.445798752049853, 10.781608292453488 ], [ 122.446232793969273, 10.78140998614662 ], [ 122.446658713059577, 10.781418403684569 ], [ 122.447215908314632, 10.781633796647823 ], [ 122.447703307530062, 10.781902661938046 ], [ 122.448051520416428, 10.782056423898242 ], [ 122.448446309865446, 10.782149011539644 ], [ 122.448771708834542, 10.782073020130341 ], [ 122.449158009725878, 10.781794863414266 ], [ 122.449383247819171, 10.781435382558088 ], [ 122.449489146932677, 10.781118058487207 ], [ 122.44958259259117, 10.780834913869437 ], [ 122.449699048098225, 10.780674322076681 ], [ 122.449823359276124, 10.780452488185921 ], [ 122.450040572938349, 10.780246133845203 ], [ 122.450745659010636, 10.780048301095071 ], [ 122.451644251561802, 10.779904408831966 ], [ 122.45252437894186, 10.779832853894268 ], [ 122.453100542398445, 10.779786009262757 ], [ 122.453706286902872, 10.779736759429287 ], [ 122.455245106689489, 10.78002561693525 ], [ 122.45632940744018, 10.779966265560905 ], [ 122.460064205667024, 10.776097905481057 ] ] ] ] } },
{ "type": "Feature", "properties": { "psgc": "0603041019", "admin_type": "Barangay", "region": "Region VI (Western Visayas)", "province": "Iloilo", "municity": "San Miguel", "barangay": "San Antonio", "population": "1609" }, "geometry": { "type": "MultiPolygon", "coordinates": [ [ [ [ 122.44511611785876, 10.782451938157914 ], [ 122.444773077404733, 10.777083222704968 ], [ 122.445041061576347, 10.770633437814611 ], [ 122.44140922301321, 10.770124433566984 ], [ 122.434468423236993, 10.768822717315386 ], [ 122.432230804546052, 10.766666843077118 ], [ 122.431404720154873, 10.765749454537985 ], [ 122.431086058900036, 10.765398244505601 ], [ 122.430840854467618, 10.765125283773315 ], [ 122.430580351942794, 10.764859370295236 ], [ 122.430257296039102, 10.764534947617623 ], [ 122.429777604486816, 10.764030500013966 ], [ 122.427143135447864, 10.761358447771624 ], [ 122.426235362288423, 10.771897200611701 ], [ 122.428759064670729, 10.774351935424779 ], [ 122.431411807447745, 10.776719199288435 ], [ 122.435391598686508, 10.780278490279912 ], [ 122.439243902049512, 10.783640789991487 ], [ 122.443705562735317, 10.787612424915629 ], [ 122.44511611785876, 10.782451938157914 ] ] ] ] } },
{ "type": "Feature", "properties": { "psgc": "0603041020", "admin_type": "Barangay", "region": "Region VI (Western Visayas)", "province": "Iloilo", "municity": "San Miguel", "barangay": "San Jose", "population": "6309" }, "geometry": { "type": "MultiPolygon", "coordinates": [ [ [ [ 122.480878547187231, 10.778143078830411 ], [ 122.49497164262128, 10.774106211526048 ], [ 122.500314741041151, 10.76981528594195 ], [ 122.508076814176874, 10.763493608146778 ], [ 122.503543023546257, 10.756080691944739 ], [ 122.502438808721578, 10.754262001799717 ], [ 122.49814724186588, 10.755875576104039 ], [ 122.497912889926738, 10.755939516885537 ], [ 122.497657633783319, 10.755766819136243 ], [ 122.497523932396234, 10.755841259549168 ], [ 122.497384223534937, 10.756036290469698 ], [ 122.497354633326609, 10.756369326586311 ], [ 122.497301283709021, 10.756728646265914 ], [ 122.497144369832213, 10.756791563245248 ], [ 122.496964529432077, 10.756670672515982 ], [ 122.496848192698039, 10.756779597709105 ], [ 122.496876945883272, 10.756951930032796 ], [ 122.496586729670724, 10.756848088668399 ], [ 122.496499451467642, 10.756945575186561 ], [ 122.496446819665863, 10.757163717241946 ], [ 122.496115881490269, 10.757100009166463 ], [ 122.495982837123037, 10.75677819399794 ], [ 122.495750459471353, 10.756818017331804 ], [ 122.49537311714974, 10.756719775248877 ], [ 122.49519881787954, 10.756759691663564 ], [ 122.495001267549199, 10.756811056713085 ], [ 122.494670005987842, 10.756942602665765 ], [ 122.494385278071036, 10.756777940385449 ], [ 122.49420313663191, 10.756548457932762 ], [ 122.494123835268553, 10.756349420772871 ], [ 122.494159526113123, 10.756170960263402 ], [ 122.494105984000839, 10.755987734775458 ], [ 122.493961245414837, 10.755714714697159 ], [ 122.493859808755445, 10.755594906857164 ], [ 122.493719367929145, 10.755647320143764 ], [ 122.493601539903537, 10.755874544760992 ], [ 122.493278675957001, 10.755809314889587 ], [ 122.493084757074755, 10.75600521211131 ], [ 122.492842535788569, 10.756143602055623 ], [ 122.492503663000605, 10.756195690560387 ], [ 122.491681315040879, 10.75626001690128 ], [ 122.491367226378955, 10.756260017079462 ], [ 122.491240197357953, 10.75636112228414 ], [ 122.491206029819381, 10.756533350973982 ], [ 122.491124302700754, 10.75663898082462 ], [ 122.49091246849423, 10.756549619777036 ], [ 122.490767091946807, 10.756658494977037 ], [ 122.490572285911753, 10.756804617340375 ], [ 122.490374644223792, 10.75691053606791 ], [ 122.490220042754515, 10.756979004368075 ], [ 122.490153700142258, 10.757109484471025 ], [ 122.490010932075648, 10.757323636273652 ], [ 122.489933120676227, 10.757219732484762 ], [ 122.489689632788483, 10.75695899079007 ], [ 122.488299203618766, 10.757217043550327 ], [ 122.488039310037848, 10.757501268088321 ], [ 122.475769772036983, 10.767774967376889 ], [ 122.478908086111119, 10.773108723842213 ], [ 122.480488570808234, 10.775803566573682 ], [ 122.480878547187231, 10.778143078830411 ] ] ] ] } },
{ "type": "Feature", "properties": { "psgc": "0603041021", "admin_type": "Barangay", "region": "Region VI (Western Visayas)", "province": "Iloilo", "municity": "San Miguel", "barangay": "Santa Cruz", "population": "4019" }, "geometry": { "type": "MultiPolygon", "coordinates": [ [ [ [ 122.463628925629536, 10.804803585098664 ], [ 122.463826405024022, 10.804812541850326 ], [ 122.463898865287874, 10.804895938758122 ], [ 122.46408186298035, 10.80488189910769 ], [ 122.464822520877476, 10.804442518192422 ], [ 122.465728277100865, 10.80466613976953 ], [ 122.466623410923873, 10.804326945770734 ], [ 122.467301342892881, 10.804182630492386 ], [ 122.467455302466632, 10.804715061984185 ], [ 122.467695454012258, 10.80468101888672 ], [ 122.4677962251005, 10.804631420981202 ], [ 122.467913058586817, 10.804256426488273 ], [ 122.467982809375272, 10.804229746262751 ], [ 122.468184270268381, 10.804176494162938 ], [ 122.468423997027273, 10.804383646748438 ], [ 122.468854240831561, 10.804154674807068 ], [ 122.469269126424635, 10.803850636186276 ], [ 122.470667816330632, 10.803428066921423 ], [ 122.470731069616292, 10.802689268280506 ], [ 122.470793651233294, 10.802333321607897 ], [ 122.47132117549998, 10.80183268590724 ], [ 122.471510555203437, 10.8020435791863 ], [ 122.471725592712716, 10.80219747085291 ], [ 122.471590743392895, 10.802636325056055 ], [ 122.472146528314099, 10.803137377305422 ], [ 122.472400627405392, 10.803154560067249 ], [ 122.472515330890744, 10.802840696624324 ], [ 122.472864212075336, 10.801245031919917 ], [ 122.472861613246721, 10.80106987237024 ], [ 122.472783317655299, 10.801000825404371 ], [ 122.472795090059336, 10.800911831312728 ], [ 122.472833465206037, 10.800889787441223 ], [ 122.472897369529633, 10.800884153582269 ], [ 122.473414722189474, 10.800908710655397 ], [ 122.473664026604325, 10.800594755673149 ], [ 122.46797277012621, 10.789087703015372 ], [ 122.465730067607723, 10.784552965577523 ], [ 122.463356832818775, 10.785410282261401 ], [ 122.462792530534017, 10.784279088766713 ], [ 122.461084461591582, 10.784488158417046 ], [ 122.46059693922831, 10.784499654380912 ], [ 122.460236496646161, 10.784463710491947 ], [ 122.459986977665451, 10.7843311905229 ], [ 122.459853694528107, 10.784158674517654 ], [ 122.459836669401653, 10.783934675276626 ], [ 122.460233442454253, 10.782918892067659 ], [ 122.460268721688294, 10.782677756511875 ], [ 122.459953974412372, 10.782229379981212 ], [ 122.458925656203476, 10.781923106532153 ], [ 122.457948729217236, 10.781481117750667 ], [ 122.457806745305021, 10.780979586544243 ], [ 122.457482432923555, 10.780450681642851 ], [ 122.456909950313431, 10.780120425304766 ], [ 122.45632940744018, 10.779966265560905 ], [ 122.455245106689489, 10.78002561693525 ], [ 122.453706286902872, 10.779736759429287 ], [ 122.451644251561802, 10.779904408831966 ], [ 122.450745659010636, 10.780048301095071 ], [ 122.450040572938349, 10.780246133845203 ], [ 122.449823359276124, 10.780452488185921 ], [ 122.449699048098225, 10.780674322076681 ], [ 122.44958259259117, 10.780834913869437 ], [ 122.449383247819171, 10.781435382558088 ], [ 122.449158009725878, 10.781794863414266 ], [ 122.448771708834542, 10.782073020130341 ], [ 122.448446309865446, 10.782149011539644 ], [ 122.448051520416428, 10.782056423898242 ], [ 122.447703307530062, 10.781902661938046 ], [ 122.447215908314632, 10.781633796647823 ], [ 122.446658713059577, 10.781418403684569 ], [ 122.446232793969273, 10.78140998614662 ], [ 122.445798752049853, 10.781608292453488 ], [ 122.445379505751433, 10.781937752482312 ], [ 122.44511611785876, 10.782451938157914 ], [ 122.443705562735317, 10.787612424915629 ], [ 122.447945189234716, 10.791380340785466 ], [ 122.453313111266098, 10.796243598450015 ], [ 122.453533743297612, 10.796431143251288 ], [ 122.453562655549959, 10.79645568381348 ], [ 122.45361524534411, 10.796500963763544 ], [ 122.456070428645972, 10.798735161962501 ], [ 122.463000023665558, 10.804981954647594 ], [ 122.463628925629536, 10.804803585098664 ] ] ] ] } },
{ "type": "Feature", "properties": { "psgc": "0603041022", "admin_type": "Barangay", "region": "Region VI (Western Visayas)", "province": "Iloilo", "municity": "San Miguel", "barangay": "Santa Teresa", "population": "5633" }, "geometry": { "type": "MultiPolygon", "coordinates": [ [ [ [ 122.498275922662032, 10.817041433813483 ], [ 122.497416336758306, 10.813355772934214 ], [ 122.496860873470297, 10.809375387599603 ], [ 122.496748203027806, 10.806198039887359 ], [ 122.49598178009073, 10.801965097038652 ], [ 122.495404291351775, 10.793506878192648 ], [ 122.495404278708705, 10.793506673762449 ], [ 122.495404080397464, 10.793503787511558 ], [ 122.49540406912547, 10.793503621842417 ], [ 122.495404068701205, 10.793503616570634 ], [ 122.495404067464179, 10.793503598026248 ], [ 122.495404066458079, 10.793503583706059 ], [ 122.495381343012127, 10.79317075702901 ], [ 122.495369875560925, 10.793065118662319 ], [ 122.47807396943422, 10.797973665347026 ], [ 122.483645556798407, 10.806629639441548 ], [ 122.487009925189156, 10.815489626909201 ], [ 122.49099477123444, 10.817707682982608 ], [ 122.498275922662032, 10.817041433813483 ] ] ] ] } },
{ "type": "Feature", "properties": { "psgc": "0603041023", "admin_type": "Barangay", "region": "Region VI (Western Visayas)", "province": "Iloilo", "municity": "San Miguel", "barangay": "Santo Angel", "population": "1015" }, "geometry": { "type": "MultiPolygon", "coordinates": [ [ [ [ 122.426235362288423, 10.771897200611701 ], [ 122.427143135447864, 10.761358447771624 ], [ 122.425826523111098, 10.760017246002109 ], [ 122.420350174467174, 10.753728551892236 ], [ 122.419404717243509, 10.759590560881973 ], [ 122.41921356335952, 10.759934769580262 ], [ 122.418734893982247, 10.759183485047929 ], [ 122.418455403501952, 10.759558155244855 ], [ 122.418110411292361, 10.759766162414364 ], [ 122.41772317639402, 10.759798858998735 ], [ 122.417428802579536, 10.760229713224881 ], [ 122.417023615027276, 10.760020149410181 ], [ 122.416964108999281, 10.760267125314515 ], [ 122.416688195390947, 10.76029053559644 ], [ 122.416339546019529, 10.760385592372828 ], [ 122.41675469181844, 10.760946292329159 ], [ 122.416787926769118, 10.761281350007833 ], [ 122.416400374070875, 10.761472046843194 ], [ 122.416158357607031, 10.761484991658575 ], [ 122.415910798996961, 10.761862590696154 ], [ 122.416009617523741, 10.762069693066969 ], [ 122.4156779813204, 10.762125362194462 ], [ 122.415473887713077, 10.76255090013831 ], [ 122.416276793230537, 10.762815621466336 ], [ 122.416309513932859, 10.7634177161982 ], [ 122.416207360779822, 10.763685519748055 ], [ 122.415973337814933, 10.764154670076026 ], [ 122.415621632851227, 10.764577153675543 ], [ 122.415702179003731, 10.764973556188894 ], [ 122.415846966388855, 10.765186310690218 ], [ 122.415486260102767, 10.765507226247907 ], [ 122.415247628506279, 10.76577094307059 ], [ 122.415561031612398, 10.765886389641803 ], [ 122.415496702594496, 10.766115978491559 ], [ 122.415275771789538, 10.766236159877989 ], [ 122.415159363550458, 10.766365727495337 ], [ 122.415095111645016, 10.766555117123541 ], [ 122.414769892871462, 10.76654301818256 ], [ 122.414555512127109, 10.766278447104389 ], [ 122.414468316735338, 10.766318481771552 ], [ 122.414514058894284, 10.766691846887605 ], [ 122.41430496394139, 10.766697194877581 ], [ 122.414182765922092, 10.766817562761812 ], [ 122.41416507607785, 10.766955355347338 ], [ 122.414025487589214, 10.767058461158568 ], [ 122.413711328958144, 10.767333520348185 ], [ 122.413745803137118, 10.76752654188831 ], [ 122.413832699237147, 10.767641562019646 ], [ 122.413594154254085, 10.767859335548341 ], [ 122.413715786647373, 10.768031847974916 ], [ 122.41388979007327, 10.768152775500223 ], [ 122.414034710716919, 10.768296618078333 ], [ 122.413952778667621, 10.768618058116548 ], [ 122.4140107355406, 10.768681337874439 ], [ 122.414370970298833, 10.768607362609602 ], [ 122.414801175826753, 10.768389949307196 ], [ 122.415219212113598, 10.768459650849952 ], [ 122.415312549074301, 10.768247345068982 ], [ 122.415477636101031, 10.768474782500547 ], [ 122.415497576260123, 10.768675816351561 ], [ 122.41557599949806, 10.768667350025474 ], [ 122.415608269464059, 10.768497999693428 ], [ 122.415721811149965, 10.768348902107871 ], [ 122.415925171283575, 10.768306213632883 ], [ 122.416084622894061, 10.768444340823921 ], [ 122.416173304835482, 10.768506517741164 ], [ 122.416197595799176, 10.768590993669001 ], [ 122.415962231220689, 10.76866520626886 ], [ 122.415947390663916, 10.768831719000044 ], [ 122.415946992412955, 10.769038457279731 ], [ 122.415946771158886, 10.769153311878354 ], [ 122.415868215026535, 10.769230691954016 ], [ 122.415769281368341, 10.769333875089767 ], [ 122.415399813370058, 10.769426977344809 ], [ 122.414824146841227, 10.769277536892464 ], [ 122.414756064873714, 10.769444904971335 ], [ 122.414726580941746, 10.769674560206749 ], [ 122.415060186226057, 10.769857044023759 ], [ 122.41521434468801, 10.770230613518049 ], [ 122.415534058457723, 10.770087647565139 ], [ 122.415652380176255, 10.769970144187637 ], [ 122.415799507173944, 10.769974249610156 ], [ 122.415826130985323, 10.770223152582373 ], [ 122.41608570727621, 10.770143242999898 ], [ 122.416174968912202, 10.770036213366984 ], [ 122.41631410113429, 10.770170473114371 ], [ 122.41638730677262, 10.770358207130284 ], [ 122.416499439010423, 10.770438817578864 ], [ 122.416646514698058, 10.770469721717737 ], [ 122.416840215925305, 10.770416486767417 ], [ 122.417198700702812, 10.770582297886465 ], [ 122.421961520075129, 10.774393498987969 ], [ 122.426235362288423, 10.771897200611701 ] ] ] ] } },
{ "type": "Feature", "properties": { "psgc": "0603041024", "admin_type": "Barangay", "region": "Region VI (Western Visayas)", "province": "Iloilo", "municity": "San Miguel", "barangay": "Santo Niño", "population": "2808" }, "geometry": { "type": "MultiPolygon", "coordinates": [ [ [ [ 122.495369875560925, 10.793065118662319 ], [ 122.49536987152004, 10.793065080614383 ], [ 122.495369870166016, 10.793065069055503 ], [ 122.494909947876124, 10.788828209614286 ], [ 122.494263241713199, 10.784135251477087 ], [ 122.493527473598192, 10.781339131056557 ], [ 122.49497164262128, 10.774106211526048 ], [ 122.480878547187231, 10.778143078830411 ], [ 122.48192721499413, 10.780801844199864 ], [ 122.481687509502407, 10.780587044850634 ], [ 122.481258102401526, 10.780352784756074 ], [ 122.480889872014401, 10.780572309130493 ], [ 122.479989551340239, 10.780599513218039 ], [ 122.479563041388346, 10.780933795107922 ], [ 122.47927796501024, 10.781819025480686 ], [ 122.47729417684306, 10.783267563078896 ], [ 122.475941557391437, 10.783306242967029 ], [ 122.475027834523317, 10.783800618377247 ], [ 122.474661824344935, 10.783851683844214 ], [ 122.474788423164171, 10.783996345777929 ], [ 122.474421994005922, 10.784288607769987 ], [ 122.472633364141672, 10.785083705539455 ], [ 122.472762059437798, 10.785449167444179 ], [ 122.472854613201378, 10.786111662077229 ], [ 122.474337282748451, 10.788564447905083 ], [ 122.474295115557283, 10.788931660249967 ], [ 122.47807396943422, 10.797973665347026 ], [ 122.495369875560925, 10.793065118662319 ] ] ] ] } }
]
}
