{
"type": "FeatureCollection",
"name": "BOUNDARIES_SantaBarbara_Municipal",
"crs": { "type": "name", "properties": { "name": "urn:ogc:def:crs:OGC:1.3:CRS84" } },
"features": [
{ "type": "Feature", "properties": { "psgc": "0603043000", "admin_type": "Municipality", "region": "Region VI (Western Visayas)", "province": "Iloilo", "municity": "Santa Barbara", "barangay": null, "population": "68,467" }, "geometry": { "type": "MultiPolygon", "coordinates": [ [ [ [ 122.497835019621689, 10.77243489244572 ], [ 122.497825610663455, 10.772456532316722 ], [ 122.497357567779289, 10.773535429194553 ], [ 122.497357555020074, 10.77353544064275 ], [ 122.494862723125692, 10.777368919986239 ], [ 122.494788673283523, 10.777484283298284 ], [ 122.494448283453806, 10.778042773493496 ], [ 122.494400682173008, 10.778117465714745 ], [ 122.492509583938499, 10.781479110591444 ], [ 122.493708158485859, 10.785922623519623 ], [ 122.493755535950569, 10.786097224370627 ], [ 122.493792485119442, 10.786286993499681 ], [ 122.493822189389775, 10.786476264381959 ], [ 122.49411653008417, 10.787745122054345 ], [ 122.495054939591597, 10.792180599986114 ], [ 122.495185181754607, 10.792880852349874 ], [ 122.495249923743572, 10.794005685383619 ], [ 122.495405761468547, 10.795851214071234 ], [ 122.495703281538297, 10.799482736106162 ], [ 122.495723563096945, 10.799717520548118 ], [ 122.49581691827558, 10.800721613844932 ], [ 122.495813004910318, 10.800802957536881 ], [ 122.495885019588428, 10.80165127303348 ], [ 122.495885033029225, 10.801651265907774 ], [ 122.496074363980938, 10.802827685501342 ], [ 122.496924818087152, 10.808117239634319 ], [ 122.496921952982063, 10.808190016112695 ], [ 122.496982940159356, 10.809903498628255 ], [ 122.496982954228102, 10.809903510370285 ], [ 122.497171017755889, 10.813189322146863 ], [ 122.497189989094124, 10.81327815409837 ], [ 122.497416648176767, 10.814176121463342 ], [ 122.498948121534923, 10.817031921123656 ], [ 122.498980335894061, 10.817090520419715 ], [ 122.500232384128253, 10.819687064583874 ], [ 122.500232377108148, 10.819687087899084 ], [ 122.50335080476512, 10.825580958290415 ], [ 122.506515891777454, 10.82981951170153 ], [ 122.508929597103219, 10.832926303443289 ], [ 122.508929586128957, 10.832926318255792 ], [ 122.509335327903685, 10.833697274568534 ], [ 122.514404533338762, 10.84293617328917 ], [ 122.514404520603918, 10.842936184757443 ], [ 122.515856241034157, 10.846232285608316 ], [ 122.516933302498146, 10.848668121018099 ], [ 122.517019911451357, 10.84887253691303 ], [ 122.51749103125556, 10.84994327610992 ], [ 122.519015592230645, 10.853492153423989 ], [ 122.51911150216668, 10.853642618313996 ], [ 122.519111499014556, 10.853642644815988 ], [ 122.51923389845706, 10.85393813522289 ], [ 122.519253666076963, 10.854009209256001 ], [ 122.520023699416527, 10.855083579942212 ], [ 122.520241820502491, 10.855380889781562 ], [ 122.520835966381014, 10.856190804588467 ], [ 122.521271959804281, 10.856792458422625 ], [ 122.522912929748315, 10.859829848909433 ], [ 122.522999434402493, 10.860004432320242 ], [ 122.523660110273198, 10.861210432435232 ], [ 122.523877045431988, 10.861601795055492 ], [ 122.526348027097967, 10.866230982965629 ], [ 122.526706391897307, 10.866790639004407 ], [ 122.526761944671435, 10.866856752714922 ], [ 122.527038122960889, 10.867090868659748 ], [ 122.527100353142202, 10.867140403911204 ], [ 122.527274201357244, 10.867272455290856 ], [ 122.52747999687071, 10.867439934813321 ], [ 122.527712142177123, 10.867592356980625 ], [ 122.528063967942956, 10.86796797241735 ], [ 122.52819905280198, 10.868121297891621 ], [ 122.528346289258252, 10.868340027351339 ], [ 122.530906471356943, 10.870818819176188 ], [ 122.530906484087481, 10.870818807694505 ], [ 122.53130022327052, 10.871189428296249 ], [ 122.533312527608757, 10.872655646007509 ], [ 122.533704814146986, 10.872892034648231 ], [ 122.533892427930255, 10.873069215172666 ], [ 122.534358351725444, 10.873440209611532 ], [ 122.534457627296447, 10.873525983341763 ], [ 122.535090464160646, 10.874142448779146 ], [ 122.535841723772961, 10.874780288583908 ], [ 122.539882180589629, 10.871863533243532 ], [ 122.540462493056722, 10.8714626042027 ], [ 122.540968909025807, 10.871082952035879 ], [ 122.541025217070299, 10.871043068737904 ], [ 122.541829185394477, 10.870482900592695 ], [ 122.541829187114089, 10.87048290200787 ], [ 122.545960224295257, 10.86761485213674 ], [ 122.547911041190645, 10.866321347844677 ], [ 122.547911053933063, 10.866321336354062 ], [ 122.549901574512035, 10.865363573983226 ], [ 122.550459537215829, 10.865124564301581 ], [ 122.551997789989471, 10.864617128680127 ], [ 122.554918059602869, 10.863565071270818 ], [ 122.554918064324042, 10.863565076471613 ], [ 122.557500824152029, 10.862345539293818 ], [ 122.55750082475052, 10.862345544486393 ], [ 122.557500837048153, 10.862345533204474 ], [ 122.55750083750037, 10.862345532990947 ], [ 122.557500837479381, 10.862345532808865 ], [ 122.558072405324978, 10.861821173448442 ], [ 122.561044987423244, 10.858953178373181 ], [ 122.566252803545822, 10.853952940727906 ], [ 122.56687277904642, 10.853447342899582 ], [ 122.567039073945054, 10.853285360124641 ], [ 122.567562923412368, 10.852684180623587 ], [ 122.568638053089046, 10.851494455732938 ], [ 122.569803515705303, 10.850319631120948 ], [ 122.569820241065472, 10.850302249092644 ], [ 122.569820239860405, 10.850302248145816 ], [ 122.569841802947451, 10.850279025172863 ], [ 122.569841790184626, 10.850279036673474 ], [ 122.570609096709148, 10.849504238502799 ], [ 122.570609083945499, 10.849504250003722 ], [ 122.574700989604068, 10.844793736488839 ], [ 122.574834145081169, 10.844635278279585 ], [ 122.575203801924289, 10.844210721956628 ], [ 122.575203789155438, 10.844210733459349 ], [ 122.580325091309135, 10.838252316041826 ], [ 122.588753669432037, 10.838347764164133 ], [ 122.588817657818467, 10.838341544409003 ], [ 122.58912336042809, 10.838340913315999 ], [ 122.589957523948215, 10.838357881550168 ], [ 122.589957521042791, 10.83835789326119 ], [ 122.591098013870749, 10.837890586037574 ], [ 122.595601989656956, 10.835766327675328 ], [ 122.595602002441595, 10.83576631616239 ], [ 122.598416778604275, 10.834765445575083 ], [ 122.59851563025056, 10.834587725549444 ], [ 122.598674200326968, 10.834308700209137 ], [ 122.598791106501722, 10.83405581280763 ], [ 122.599259977957416, 10.832642389046013 ], [ 122.598910932423138, 10.831801516028468 ], [ 122.598013370689813, 10.831357742260675 ], [ 122.597605553491476, 10.830904565248565 ], [ 122.597444687382833, 10.830395289371191 ], [ 122.597377144626932, 10.82963268346796 ], [ 122.597645509481509, 10.829427886787011 ], [ 122.598122867027868, 10.829591784062384 ], [ 122.598635284044249, 10.829617269052228 ], [ 122.599852565024193, 10.828519803080825 ], [ 122.599882896217537, 10.828118542398521 ], [ 122.599036167026838, 10.827760337412061 ], [ 122.598608751749524, 10.827844633484451 ], [ 122.598101829019271, 10.82809266851992 ], [ 122.597697982710415, 10.828086248209665 ], [ 122.597680552005585, 10.82807655329615 ], [ 122.597262658562286, 10.827842442137523 ], [ 122.597161923269098, 10.827725131438404 ], [ 122.597121416893287, 10.827636250642307 ], [ 122.59705911768593, 10.827508218985571 ], [ 122.596855333770378, 10.827067875232121 ], [ 122.596831904334536, 10.826926027289449 ], [ 122.596817149741241, 10.826695714449608 ], [ 122.596785819151819, 10.826248773872562 ], [ 122.596976392542715, 10.825897810951853 ], [ 122.597228649769747, 10.825622648461655 ], [ 122.597295779609084, 10.825601359388038 ], [ 122.598522458333491, 10.8259363993332 ], [ 122.59957327718503, 10.825814283301243 ], [ 122.600370307009726, 10.825571969023049 ], [ 122.600721094652627, 10.825194593350989 ], [ 122.6006787560231, 10.824810196910946 ], [ 122.600353016069917, 10.824608086599254 ], [ 122.599632695343701, 10.824419568421691 ], [ 122.599111875873206, 10.823977042456791 ], [ 122.598715922132328, 10.823405628867157 ], [ 122.598740981470129, 10.822739625937887 ], [ 122.599271491493965, 10.822371274563999 ], [ 122.60093990042941, 10.821731041651953 ], [ 122.601278123460915, 10.821946218284799 ], [ 122.601671845510509, 10.821841173556969 ], [ 122.601788042475775, 10.821403378615532 ], [ 122.601631305861119, 10.821034063682854 ], [ 122.60105558315081, 10.820799693583096 ], [ 122.600872861063777, 10.820427326733887 ], [ 122.600352316187696, 10.820101801914491 ], [ 122.599781129218059, 10.819604542841214 ], [ 122.599615563247568, 10.8190408539124 ], [ 122.59896875637962, 10.818432244888704 ], [ 122.598227798054239, 10.818415306198901 ], [ 122.598286206073766, 10.818053859034576 ], [ 122.600437342875708, 10.818275086406992 ], [ 122.600920140626812, 10.81861744500986 ], [ 122.601416910900056, 10.818692706193771 ], [ 122.602008896060298, 10.818903852458114 ], [ 122.602511198094035, 10.81886617783484 ], [ 122.603351197267472, 10.818636643664279 ], [ 122.603500123840647, 10.818788503873568 ], [ 122.603492220618008, 10.819263184719004 ], [ 122.603348537088905, 10.82006460842889 ], [ 122.603348524292144, 10.820064619943807 ], [ 122.603552285369545, 10.820613931397492 ], [ 122.60414516419543, 10.820656979417228 ], [ 122.604845501336385, 10.820472426856581 ], [ 122.605078386215609, 10.82026342399444 ], [ 122.605120531784522, 10.819925200665702 ], [ 122.605121746634623, 10.819528035781552 ], [ 122.604906443885071, 10.818537997410814 ], [ 122.604922571515019, 10.817359569082045 ], [ 122.605067537305516, 10.816738582738328 ], [ 122.605255723742644, 10.816420411533031 ], [ 122.605177069194838, 10.816205269870009 ], [ 122.604581935385156, 10.815658797430025 ], [ 122.603860469697167, 10.815348342460785 ], [ 122.603286178192732, 10.815266393350372 ], [ 122.602766994635559, 10.815612391194939 ], [ 122.60273927759232, 10.816609654957308 ], [ 122.602769693975873, 10.817128470413806 ], [ 122.602686903928671, 10.817438236384154 ], [ 122.602161639424537, 10.817663167749515 ], [ 122.601634154879051, 10.817125123856455 ], [ 122.601444986547037, 10.816110121029448 ], [ 122.602055179162235, 10.815062164933863 ], [ 122.601736711428146, 10.814209580426123 ], [ 122.600725574917263, 10.813647235405357 ], [ 122.5994112300761, 10.813456590857166 ], [ 122.599106318996945, 10.81305355351029 ], [ 122.598782264657771, 10.812690897426826 ], [ 122.598416873957987, 10.812416169647406 ], [ 122.597820676269237, 10.812376339391419 ], [ 122.597433952128057, 10.812261318462514 ], [ 122.597160784722149, 10.811909988016838 ], [ 122.597370514075081, 10.811165622136896 ], [ 122.597132517550762, 10.810609785122281 ], [ 122.596694132634696, 10.810446530506027 ], [ 122.59649016162551, 10.810499135330081 ], [ 122.596230560157139, 10.810869446686858 ], [ 122.595931061698849, 10.811661158705462 ], [ 122.595732419163951, 10.812006619081938 ], [ 122.595253033007708, 10.81220310474423 ], [ 122.594915370810057, 10.812135413453019 ], [ 122.594294090933829, 10.811700422414985 ], [ 122.593869952500114, 10.811286651684904 ], [ 122.593251856217677, 10.810927435985821 ], [ 122.592447886719327, 10.810957231182361 ], [ 122.591638350515595, 10.811359513022483 ], [ 122.59105034943002, 10.811748179418208 ], [ 122.590809760691712, 10.812323928427386 ], [ 122.590622951771195, 10.812493215626853 ], [ 122.590035015286787, 10.812607220513884 ], [ 122.589051802085578, 10.812507691551742 ], [ 122.58792631607065, 10.812026985937623 ], [ 122.587140599040552, 10.812187349218259 ], [ 122.586786551827757, 10.812069950194397 ], [ 122.586240684663935, 10.812206910208722 ], [ 122.585925521746034, 10.812516935199055 ], [ 122.584929337368294, 10.81331345369065 ], [ 122.584767896654554, 10.813379239015477 ], [ 122.584574160693592, 10.81322340498922 ], [ 122.584344180930216, 10.813420021028127 ], [ 122.583740639645541, 10.813499295308029 ], [ 122.58349752832099, 10.81346752031995 ], [ 122.582964826520694, 10.813486815079836 ], [ 122.582498185296146, 10.813284093630291 ], [ 122.582192231983683, 10.812761273271297 ], [ 122.581937928431827, 10.812473623386344 ], [ 122.581480383076297, 10.812187881622542 ], [ 122.581117281533764, 10.812014411709109 ], [ 122.580873025245239, 10.811860699928983 ], [ 122.580712386666747, 10.81171938662796 ], [ 122.580324486498043, 10.811713140762368 ], [ 122.580033748316083, 10.811757618143872 ], [ 122.579925363041099, 10.81168173185633 ], [ 122.57986924660014, 10.811555916654127 ], [ 122.579820505840715, 10.811279520375699 ], [ 122.578897322730327, 10.810431258945366 ], [ 122.578552010256146, 10.810397147585633 ], [ 122.577550980845416, 10.80980010385105 ], [ 122.576813936125788, 10.809468646580653 ], [ 122.576392794338616, 10.809081489406655 ], [ 122.575943037380085, 10.808455100307862 ], [ 122.575572225093225, 10.808045498089223 ], [ 122.575535226522092, 10.808058872400784 ], [ 122.569726666144732, 10.80678636463006 ], [ 122.562849968613193, 10.805360958622586 ], [ 122.560774845963792, 10.804934387614789 ], [ 122.560641985736737, 10.804906966113228 ], [ 122.558515835072512, 10.804467640194455 ], [ 122.558515821997645, 10.804467649350098 ], [ 122.558315725870656, 10.802891381069026 ], [ 122.558303932738113, 10.802736543282197 ], [ 122.558001037437876, 10.799398803972508 ], [ 122.558001024656804, 10.799398815458746 ], [ 122.558001024575958, 10.799398808903669 ], [ 122.557991061113498, 10.798590999664281 ], [ 122.557984780876481, 10.798350491511078 ], [ 122.55793615113852, 10.791274329842816 ], [ 122.556675114868042, 10.791664768523709 ], [ 122.556430264269153, 10.791747461616273 ], [ 122.546754291067387, 10.79477660631453 ], [ 122.546589891787818, 10.79483097746183 ], [ 122.543096515040816, 10.795943331562984 ], [ 122.543055248743045, 10.79595724956892 ], [ 122.542468043295798, 10.796075689541583 ], [ 122.542356956019873, 10.796101445993695 ], [ 122.54149918172871, 10.796277547192556 ], [ 122.540511209165288, 10.796320500529633 ], [ 122.536465837603714, 10.796501121937094 ], [ 122.536465824833471, 10.796501133410779 ], [ 122.536281848759785, 10.796508553083044 ], [ 122.535194283405573, 10.796534298270554 ], [ 122.535143366165471, 10.796535679657334 ], [ 122.533807341557889, 10.796702634715905 ], [ 122.533559161513338, 10.796665301470394 ], [ 122.531804157614999, 10.796385720160997 ], [ 122.528198895414448, 10.791433505661804 ], [ 122.527700854716997, 10.79077478000986 ], [ 122.527660091255711, 10.790733692927896 ], [ 122.527660078487656, 10.79073370439575 ], [ 122.527627262630915, 10.790680103407198 ], [ 122.527025908654423, 10.789978481554247 ], [ 122.525768594200684, 10.78833178045271 ], [ 122.525732781180622, 10.788282765454497 ], [ 122.521534430887371, 10.782997479939505 ], [ 122.520635354409748, 10.781793410922921 ], [ 122.517362224273853, 10.777689354709917 ], [ 122.517362237042406, 10.777689343249849 ], [ 122.517320867212945, 10.777634566333766 ], [ 122.515941816350448, 10.7758861083921 ], [ 122.515818696475563, 10.775732167640369 ], [ 122.515658777298952, 10.775535905718455 ], [ 122.515658764530329, 10.77553591717723 ], [ 122.515530687869315, 10.775378626002512 ], [ 122.515530700637981, 10.775378614543833 ], [ 122.513078064787976, 10.77216839705083 ], [ 122.512549820269655, 10.771479297105524 ], [ 122.512489400476312, 10.771393403579198 ], [ 122.512063174339005, 10.77065851144129 ], [ 122.511923793783382, 10.770420445783703 ], [ 122.511892294235793, 10.770368256995587 ], [ 122.507455149913213, 10.762767383911788 ], [ 122.500438965073556, 10.769709317150243 ], [ 122.500438965349332, 10.769709317580206 ], [ 122.499420398179808, 10.770678308748195 ], [ 122.498770686021984, 10.771286500089095 ], [ 122.498709857351898, 10.771363215646389 ], [ 122.497835019621689, 10.77243489244572 ] ] ] ] } }
]
}
