{
"type": "FeatureCollection",
"name": "TRANSPORT_CABATUAN_POIs",
"crs": { "type": "name", "properties": { "name": "urn:ogc:def:crs:OGC:1.3:CRS84" } },
"features": [
{ "type": "Feature", "properties": { "ID": "TR-012", "name": "Iloilo City-Santa Barbara Multicab Terminal", "type": "Transport", "address": "RFJX+M4G Iloilo City-Santa Barbara Multicab Terminal, Cabatuan, Iloilo", "barangay": null, "municity": "Cabatuan", "facebook": null, "url": null, "mobile_contact": null, "landline_connect": null, "email": null, "logo": null, "latitude": 10.831691, "longitude": 122.497821 }, "geometry": { "type": "Point", "coordinates": [ 122.497821, 10.831691 ] } },
{ "type": "Feature", "properties": { "ID": "TR-013", "name": "Iloilo International Airport", "type": "Transport", "address": "RFJW+JF4 Iloilo International Airport (ILO), Iloilo Airport Access Road, Cabatuan, 5031 Iloilo", "barangay": null, "municity": "Cabatuan", "facebook": null, "url": "https://en.wikipedia.org/wiki/Iloilo_International_Airport", "mobile_contact": null, "landline_connect": "(033) 320 8058", "email": null, "logo": null, "latitude": 10.831501, "longitude": 122.496207 }, "geometry": { "type": "Point", "coordinates": [ 122.496207, 10.831501 ] } },
{ "type": "Feature", "properties": { "ID": "TR-092", "name": "VACT Apron (Aeroway)", "type": "Transport", "address": "Iloilo International Airport, Airport Access Road, Cadagmayan Norte, Iloilo, Western Visayas, 5002, Philippines", "barangay": null, "municity": "Cabatuan", "facebook": null, "url": null, "mobile_contact": null, "landline_connect": null, "email": null, "logo": null, "latitude": 10.834578, "longitude": 122.498277 }, "geometry": { "type": "Point", "coordinates": [ 122.498277, 10.834578 ] } },
{ "type": "Feature", "properties": { "ID": "TR-014", "name": "Puyas Tricycle Terminal", "type": "Transport", "address": "VGMF+WJ7 Puyas Tricycle Terminal, Unnamed Road, Cabatuan, Iloilo", "barangay": "Puyas", "municity": "Cabatuan", "facebook": null, "url": null, "mobile_contact": null, "landline_connect": null, "email": null, "logo": null, "latitude": 10.884794, "longitude": 122.524056 }, "geometry": { "type": "Point", "coordinates": [ 122.524056, 10.884794 ] } },
{ "type": "Feature", "properties": { "ID": "TR-097", "name": "Cabatuan Terminal (Bus Stop)", "type": "Transport", "address": "Cabatuan Terminal, Confessor Drive, Zacarias Subdivision, Cabatuan, Iloilo, Western Visayas, 5031, Philippines", "barangay": null, "municity": "Cabatuan", "facebook": null, "url": null, "mobile_contact": null, "landline_connect": null, "email": null, "logo": null, "latitude": 10.879886, "longitude": 122.48244 }, "geometry": { "type": "Point", "coordinates": [ 122.48244, 10.879886 ] } }
]
}
