{
"type": "FeatureCollection",
"name": "Transport_2025-05-26",
"crs": { "type": "name", "properties": { "name": "urn:ogc:def:crs:OGC:1.3:CRS84" } },
"features": [
{ "type": "Feature", "properties": { "ID": "TR-055", "name": "Buenavista - Alibhon Jeepney Terminal", "type": "Transport", "address": "MJWX+RRR, Guimaras Circumferential Rd, Buenavista, Guimaras", "barangay": "Buenavista", "municity": "Guimaras", "facebook": null, "url": null, "mobile_contact": null, "landline_connect": null, "email": null, "logo": null, "latitude": 10.697144, "longitude": 122.649534 }, "geometry": { "type": "Point", "coordinates": [ 122.649534, 10.697144 ] } },
{ "type": "Feature", "properties": { "ID": "TR-056", "name": "MacArthurs Wharf Ferry Terminal", "type": "Transport", "address": "MJQ7+C6 Buenavista, Guimaras", "barangay": "Buenavista", "municity": "Guimaras", "facebook": null, "url": null, "mobile_contact": null, "landline_connect": null, "email": null, "logo": null, "latitude": 10.688645, "longitude": 122.613042 }, "geometry": { "type": "Point", "coordinates": [ 122.613042, 10.688645 ] } },
{ "type": "Feature", "properties": { "ID": "TR-057", "name": "Jordan Wharf", "type": "Transport", "address": "MH8Q+PPG, Jordan, Guimaras", "barangay": "Jordan", "municity": "Guimaras", "facebook": null, "url": null, "mobile_contact": null, "landline_connect": null, "email": null, "logo": null, "latitude": 10.666854, "longitude": 122.589329 }, "geometry": { "type": "Point", "coordinates": [ 122.589329, 10.666854 ] } },
{ "type": "Feature", "properties": { "ID": "TR-058", "name": "Jordan Guimaras Jetty Port", "type": "Transport", "address": "MH8Q+RM Jordan-Hoskyn Rd, Jordan, Guimaras", "barangay": "Jordan", "municity": "Guimaras", "facebook": null, "url": null, "mobile_contact": null, "landline_connect": null, "email": null, "logo": null, "latitude": 10.667042, "longitude": 122.589191 }, "geometry": { "type": "Point", "coordinates": [ 122.589191, 10.667042 ] } },
{ "type": "Feature", "properties": { "ID": "TR-059", "name": "Guimaras-Iloilo Ferry Wharf (Ro-Ro)", "type": "Transport", "address": "MH8M+5VG, Road, Jordan, Guimaras", "barangay": "Jordan", "municity": "Guimaras", "facebook": null, "url": null, "mobile_contact": null, "landline_connect": null, "email": null, "logo": null, "latitude": 10.665463, "longitude": 122.584717 }, "geometry": { "type": "Point", "coordinates": [ 122.584717, 10.665463 ] } },
{ "type": "Feature", "properties": { "ID": "TR-060", "name": "Buenavista New Terminal Market", "type": "Transport", "address": "MMX6+P6M, Guimaras Circumferential Rd, Buenavista, Guimaras", "barangay": "Buenavista", "municity": "Guimaras", "facebook": null, "url": null, "mobile_contact": null, "landline_connect": null, "email": null, "logo": null, "latitude": 10.699387, "longitude": 122.660526 }, "geometry": { "type": "Point", "coordinates": [ 122.660526, 10.699387 ] } },
{ "type": "Feature", "properties": { "ID": "TR-061", "name": "Nueva Valencia Jetty Port Dungcaan", "type": "Transport", "address": "FGC3+92R, Nueva Valencia, Guimaras", "barangay": "Nueva Valencia", "municity": "Guimaras", "facebook": null, "url": null, "mobile_contact": null, "landline_connect": null, "email": null, "logo": null, "latitude": 10.471015, "longitude": 122.50251 }, "geometry": { "type": "Point", "coordinates": [ 122.50251, 10.471015 ] } },
{ "type": "Feature", "properties": { "ID": "TR-062", "name": "Lucmayan Nueva Valencia Terminal", "type": "Transport", "address": "CGXF+W4 Guimaras Circumferential Rd, Nueva Valencia, Guimaras", "barangay": "Nueva Valencia", "municity": "Guimaras", "facebook": null, "url": null, "mobile_contact": null, "landline_connect": null, "email": null, "logo": null, "latitude": 10.449784, "longitude": 122.522875 }, "geometry": { "type": "Point", "coordinates": [ 122.522875, 10.449784 ] } },
{ "type": "Feature", "properties": { "ID": "TR-063", "name": "Tumanda Wharf", "type": "Transport", "address": "HPC5+22 Sitio Tumanda Cabano, San Lorenzo, Lalawigan ng Guimaras", "barangay": "San Lorenzo", "municity": "Guimaras", "facebook": null, "url": null, "mobile_contact": null, "landline_connect": null, "email": null, "logo": null, "latitude": 10.570114, "longitude": 122.707611 }, "geometry": { "type": "Point", "coordinates": [ 122.707611, 10.570114 ] } },
{ "type": "Feature", "properties": { "ID": "TR-064", "name": "Sitio Bliss Tricycle Terminal", "type": "Transport", "address": "HHPM+CW2, Jordan, Guimaras", "barangay": "Jordan", "municity": "Guimaras", "facebook": null, "url": null, "mobile_contact": null, "landline_connect": null, "email": null, "logo": null, "latitude": 10.586022, "longitude": 122.584761 }, "geometry": { "type": "Point", "coordinates": [ 122.584761, 10.586022 ] } },
{ "type": "Feature", "properties": { "ID": "TR-091", "name": "Inampulungan Airstrip", "type": "Transport", "address": "FM7Q+JMQ Island, Sibunag, Guimaras", "barangay": "Sibunag", "municity": "Guimaras", "facebook": null, "url": null, "mobile_contact": null, "landline_connect": null, "email": null, "logo": null, "latitude": 10.464097, "longitude": 122.689228 }, "geometry": { "type": "Point", "coordinates": [ 122.689228, 10.464097 ] } },
{ "type": "Feature", "properties": { "ID": "TR-102", "name": "San Lorenzo Ro-Ro Wharf", "type": "Transport", "address": "JP5C+MMX San Lorenzo, Guimaras", "barangay": "San Lorenzo", "municity": "Guimaras", "facebook": null, "url": null, "mobile_contact": null, "landline_connect": null, "email": null, "logo": null, "latitude": 10.609458, "longitude": 122.721266 }, "geometry": { "type": "Point", "coordinates": [ 122.721266, 10.609458 ] } },
{ "type": "Feature", "properties": { "ID": "TR-103", "name": "Ferry Terminal (Nueva Valencia)", "type": "Transport", "address": "CG47+F79 Nueva Valencia, Guimaras", "barangay": "Nueva Valencia", "municity": "Guimaras", "facebook": null, "url": null, "mobile_contact": null, "landline_connect": null, "email": null, "logo": null, "latitude": 10.406158, "longitude": 122.51324 }, "geometry": { "type": "Point", "coordinates": [ 122.51324, 10.406158 ] } },
{ "type": "Feature", "properties": { "ID": "TR-146", "name": "Unnamed Helipad ", "type": "Transport", "address": "FP25+39Q Sibunag, Guimaras", "barangay": "Sibunag", "municity": "Guimaras", "facebook": null, "url": null, "mobile_contact": null, "landline_connect": null, "email": null, "logo": null, "latitude": 10.450216, "longitude": 122.708477 }, "geometry": { "type": "Point", "coordinates": [ 122.708477, 10.450216 ] } }
]
}
