{
"type": "FeatureCollection",
"name": "TRANSPORT_PAVIA_POIs",
"crs": { "type": "name", "properties": { "name": "urn:ogc:def:crs:OGC:1.3:CRS84" } },
"features": [
{ "type": "Feature", "properties": { "ID": "TR-015", "name": "Tricycle Terminal", "type": "Transport", "address": "QG2C+XQ9 Tricycle Terminal, Pavia, Iloilo", "barangay": null, "municity": "Pavia", "facebook": null, "url": null, "mobile_contact": null, "landline_connect": null, "email": null, "logo": null, "latitude": 10.752411, "longitude": 122.521991 }, "geometry": { "type": "Point", "coordinates": [ 122.521991, 10.752411 ] } },
{ "type": "Feature", "properties": { "ID": "TR-037", "name": "Jibao-an Modernized Jeepney Terminal", "type": "Transport", "address": "PGVC+32F Jibao - An, Iloilo Circumferential Rd 1, Iloilo City, Iloilo", "barangay": "Jibao-an", "municity": "Pavia", "facebook": null, "url": null, "mobile_contact": null, "landline_connect": null, "email": null, "logo": null, "latitude": 10.742891, "longitude": 122.520087 }, "geometry": { "type": "Point", "coordinates": [ 122.520087, 10.742891 ] } },
{ "type": "Feature", "properties": { "ID": "TR-086", "name": "Tricycle Terminal (Pavia)", "type": "Transport", "address": "QG2C+XQ9, Pavia, Iloilo", "barangay": "Pandac", "municity": "Pavia", "facebook": null, "url": null, "mobile_contact": null, "landline_connect": null, "email": null, "logo": null, "latitude": 10.752517, "longitude": 122.522016 }, "geometry": { "type": "Point", "coordinates": [ 122.522016, 10.752517 ] } },
{ "type": "Feature", "properties": { "ID": "TR-105", "name": "Parc Regency-Monticello Jeepney Service (Parc Regency Avenue Stop)", "type": "Transport", "address": "Parc Regency - Monticello Jeepney Service, Parc Regency Avenue, Parc Regency Residences, Ungka II, Ungka I, Pavia, Iloilo, Western Visayas, 5001, Philippines", "barangay": null, "municity": "Pavia", "facebook": null, "url": null, "mobile_contact": null, "landline_connect": null, "email": null, "logo": null, "latitude": 10.755194, "longitude": 122.534162 }, "geometry": { "type": "Point", "coordinates": [ 122.534162, 10.755194 ] } },
{ "type": "Feature", "properties": { "ID": "TR-107", "name": "Parc Regency-Monticello Jeepney Service (Benigno S. Aquino Jr. Avenue Stop)", "type": "Transport", "address": "Parc Regency - Monticello Jeepney Service, Benigno S. Aquino Jr. Avenue, Ungka Ⅱ, Ungka II, Ungka I, Pavia, Iloilo, Western Visayas, 5001, Philippines", "barangay": null, "municity": "Pavia", "facebook": null, "url": null, "mobile_contact": null, "landline_connect": null, "email": null, "logo": null, "latitude": 10.754336, "longitude": 122.537773 }, "geometry": { "type": "Point", "coordinates": [ 122.537773, 10.754336 ] } },
{ "type": "Feature", "properties": { "ID": "TR-110", "name": "Parc Regency-Monticello Jeepney Service (Ungka Old Railway Road Stop)", "type": "Transport", "address": "Parc Regency - Monticello Jeepney Service, Ungka Old Railway Road, Ungka II, Aganan, Pavia, Iloilo, Western Visayas, 5001, Philippines", "barangay": null, "municity": "Pavia", "facebook": null, "url": null, "mobile_contact": null, "landline_connect": null, "email": null, "logo": null, "latitude": 10.757457, "longitude": 122.535386 }, "geometry": { "type": "Point", "coordinates": [ 122.535386, 10.757457 ] } },
{ "type": "Feature", "properties": { "ID": "TR-024", "name": "Robinsons Pavia Transport Terminal", "type": "Transport", "address": "QG3Q+4RF, Unnamed Road, Pavia, Iloilo", "barangay": null, "municity": "Pavia", "facebook": null, "url": null, "mobile_contact": null, "landline_connect": null, "email": null, "logo": null, "latitude": 10.752867, "longitude": 122.539421 }, "geometry": { "type": "Point", "coordinates": [ 122.539421, 10.752867 ] } },
{ "type": "Feature", "properties": { "ID": "TR-030", "name": "Pavia People's Terminal", "type": "Transport", "address": "QG3Q+CJ Benigno Aquino Jr. Avenue, Pavia, Iloilo", "barangay": null, "municity": "Pavia", "facebook": null, "url": null, "mobile_contact": null, "landline_connect": null, "email": null, "logo": null, "latitude": 10.75398, "longitude": 122.538978 }, "geometry": { "type": "Point", "coordinates": [ 122.538978, 10.75398 ] } },
{ "type": "Feature", "properties": { "ID": "TR-038", "name": "MEXJeep Pavia Terminal", "type": "Transport", "address": "QG3Q+GJG, Barangay Road, Pavia, Iloilo", "barangay": null, "municity": "Pavia", "facebook": null, "url": null, "mobile_contact": null, "landline_connect": null, "email": null, "logo": null, "latitude": 10.753989, "longitude": 122.539109 }, "geometry": { "type": "Point", "coordinates": [ 122.539109, 10.753989 ] } },
{ "type": "Feature", "properties": { "ID": "TR-052", "name": "Calinog", "type": "Transport", "address": "QG3Q+HM Pavia People's Terminal, Ungka Uno, Pavia, 5001 Iloilo", "barangay": null, "municity": "Pavia", "facebook": null, "url": null, "mobile_contact": null, "landline_connect": null, "email": null, "logo": null, "latitude": 10.753932, "longitude": 122.539121 }, "geometry": { "type": "Point", "coordinates": [ 122.539121, 10.753932 ] } },
{ "type": "Feature", "properties": { "ID": "TR-122", "name": "Ungka (II) - Iloilo (Jeepney Stop)", "type": "Transport", "address": "Ungka-Iloilo, Benigno S. Aquino Jr. Avenue, Ungka Ⅱ, Ungka II, Ungka I, Pavia, Iloilo, Western Visayas, 5001, Philippines", "barangay": null, "municity": "Pavia", "facebook": null, "url": null, "mobile_contact": null, "landline_connect": null, "email": null, "logo": null, "latitude": 10.753988, "longitude": 122.538389 }, "geometry": { "type": "Point", "coordinates": [ 122.538389, 10.753988 ] } },
{ "type": "Feature", "properties": { "ID": "TR-139", "name": "Unnamed Taxi Stand ", "type": "Transport", "address": "Taxi Stand, Benigno S. Aquino Jr. Avenue, Ungka Ⅱ, Ungka II, Ungka I, Pavia, Iloilo, Western Visayas, 5001, Philippines", "barangay": "Ungka II", "municity": "Pavia", "facebook": null, "url": null, "mobile_contact": null, "landline_connect": null, "email": null, "logo": null, "latitude": 10.754117, "longitude": 122.538386 }, "geometry": { "type": "Point", "coordinates": [ 122.538386, 10.754117 ] } },
{ "type": "Feature", "properties": { "ID": "TR-140", "name": "Ungka-CPU (Jeepney Stop)", "type": "Transport", "address": "Ungka-CPU, Benigno S. Aquino Jr. Avenue, Ungka Ⅱ, Ungka II, Ungka I, Pavia, Iloilo, Western Visayas, 5001, Philippines", "barangay": null, "municity": "Pavia", "facebook": null, "url": null, "mobile_contact": null, "landline_connect": null, "email": null, "logo": null, "latitude": 10.75381, "longitude": 122.538399 }, "geometry": { "type": "Point", "coordinates": [ 122.538399, 10.75381 ] } },
{ "type": "Feature", "properties": { "ID": "TR-033", "name": "AGTRIDA Trisikad Terminal", "type": "Transport", "address": "QG9P+JCW, Road 1, Pavia, Iloilo", "barangay": null, "municity": "Pavia", "facebook": null, "url": null, "mobile_contact": null, "landline_connect": null, "email": null, "logo": null, "latitude": 10.769746, "longitude": 122.53617 }, "geometry": { "type": "Point", "coordinates": [ 122.53617, 10.769746 ] } },
{ "type": "Feature", "properties": { "ID": "TR-108", "name": "Parc Regency-Monticello Jeepney Service (PRP Main Street Stop) ", "type": "Transport", "address": "Parc Regency - Monticello Jeepney Service, PRP Main Street, Parc Regency Residences, Aganan, Ungka I, Pavia, Iloilo, Western Visayas, 5001, Philippines", "barangay": null, "municity": "Pavia", "facebook": null, "url": null, "mobile_contact": null, "landline_connect": null, "email": null, "logo": null, "latitude": 10.76049, "longitude": 122.53274 }, "geometry": { "type": "Point", "coordinates": [ 122.53274, 10.76049 ] } },
{ "type": "Feature", "properties": { "ID": "TR-109", "name": "Parc Regency-Monticello Jeepney Service (PRP 1st Street Stop)", "type": "Transport", "address": "Parc Regency - Monticello Jeepney Service, PRP 1st Street, Parc Regency Residences, Aganan, Ungka I, Pavia, Iloilo, Western Visayas, 5001, Philippines", "barangay": null, "municity": "Pavia", "facebook": null, "url": null, "mobile_contact": null, "landline_connect": null, "email": null, "logo": null, "latitude": 10.761667, "longitude": 122.531226 }, "geometry": { "type": "Point", "coordinates": [ 122.531226, 10.761667 ] } },
{ "type": "Feature", "properties": { "ID": "TR-106", "name": "Parc Regency-Monticello Jeepney Service (Anchovy Street Stop)", "type": "Transport", "address": "Parc Regency - Monticello Jeepney Service, Anchovy Street, Pandac, Jibao-an, Pavia, Iloilo, Western Visayas, 5001, Philippines", "barangay": null, "municity": "Pavia", "facebook": null, "url": null, "mobile_contact": null, "landline_connect": null, "email": null, "logo": null, "latitude": 10.762762, "longitude": 122.516961 }, "geometry": { "type": "Point", "coordinates": [ 122.516961, 10.762762 ] } },
{ "type": "Feature", "properties": { "ID": "TR-111", "name": "Parc Regency-Monticello Jeepney Service (F. Gorriceta Avenue Stop)", "type": "Transport", "address": "Parc Regency - Monticello Jeepney Service, F. Gorriceta Avenue, CPU Centennial Village, Poblacion, Aganan, Pavia, Iloilo, Western Visayas, 5001, Philippines", "barangay": null, "municity": "Pavia", "facebook": null, "url": null, "mobile_contact": null, "landline_connect": null, "email": null, "logo": null, "latitude": 10.758013, "longitude": 122.526634 }, "geometry": { "type": "Point", "coordinates": [ 122.526634, 10.758013 ] } },
{ "type": "Feature", "properties": { "ID": "TR-047", "name": "Pagsangaan-Quintin Salas Tricycle Terminal", "type": "Transport", "address": "QH83+3F Pavia-Anilao-Pagsanga-an Rd, Pavia, Iloilo", "barangay": "Pagsanga-an", "municity": "Pavia", "facebook": null, "url": null, "mobile_contact": null, "landline_connect": null, "email": null, "logo": null, "latitude": 10.765211, "longitude": 122.553684 }, "geometry": { "type": "Point", "coordinates": [ 122.553684, 10.765211 ] } },
{ "type": "Feature", "properties": { "ID": "TR-085", "name": "Pagsanga-an - Poblacion - Quintin Salas Tricycle Terminal", "type": "Transport", "address": "QH83+3G8, Pagsanga-an, Pavia, Iloilo", "barangay": "Pagsanga-an", "municity": "Pavia", "facebook": null, "url": null, "mobile_contact": null, "landline_connect": null, "email": null, "logo": null, "latitude": 10.765171, "longitude": 122.553831 }, "geometry": { "type": "Point", "coordinates": [ 122.553831, 10.765171 ] } },
{ "type": "Feature", "properties": { "ID": "TR-043", "name": "Savannah Shuttle Terminal", "type": "Transport", "address": "PGV7+W67, Pavia, Iloilo", "barangay": "Jibao-an", "municity": "Pavia", "facebook": null, "url": null, "mobile_contact": null, "landline_connect": null, "email": null, "logo": null, "latitude": 10.745367, "longitude": 122.512895 }, "geometry": { "type": "Point", "coordinates": [ 122.512895, 10.745367 ] } },
{ "type": "Feature", "properties": { "ID": "TR-112", "name": "Leon PUV", "type": "Transport", "address": "Leon PUV, Iloilo R-2 Road, Jibao-an, Pavia, Iloilo, Western Visayas, 5001, Philippines", "barangay": "Jibao-an", "municity": "Pavia", "facebook": null, "url": null, "mobile_contact": null, "landline_connect": null, "email": null, "logo": null, "latitude": 10.744244, "longitude": 122.5142 }, "geometry": { "type": "Point", "coordinates": [ 122.5142, 10.744244 ] } },
{ "type": "Feature", "properties": { "ID": "TR-134", "name": "Mandurriao Iloilo (Jeepney Stop)", "type": "Transport", "address": "Mandurriao Iloilo, Iloilo R-2 Road, Jibao-an, Pavia, Iloilo, Western Visayas, 5001, Philippines", "barangay": "Jibao-an", "municity": "Pavia", "facebook": null, "url": null, "mobile_contact": null, "landline_connect": null, "email": null, "logo": null, "latitude": 10.745033, "longitude": 122.513515 }, "geometry": { "type": "Point", "coordinates": [ 122.513515, 10.745033 ] } },
{ "type": "Feature", "properties": { "ID": "TR-065", "name": "Old Pavia Train Station", "type": "Transport", "address": "QGFQ+8M Pavia, Iloilo", "barangay": null, "municity": "Pavia", "facebook": null, "url": null, "mobile_contact": null, "landline_connect": null, "email": null, "logo": null, "latitude": 10.773295, "longitude": 122.539196 }, "geometry": { "type": "Point", "coordinates": [ 122.539196, 10.773295 ] } }
]
}
