{
"type": "FeatureCollection",
"name": "Transport_2025-05-26",
"crs": { "type": "name", "properties": { "name": "urn:ogc:def:crs:OGC:1.3:CRS84" } },
"features": [
{ "type": "Feature", "properties": { "ID": "TR-001", "name": "Iloilo Central Line Bus & Jeepney Terminal", "type": "Transport", "address": "PGWQ+GJ Iloilo City, Iloilo", "barangay": "Jaro", "municity": "Iloilo City", "facebook": null, "url": null, "mobile_contact": null, "landline_connect": null, "email": null, "logo": null, "latitude": 10.746294, "longitude": 122.53911 }, "geometry": { "type": "Point", "coordinates": [ 122.53911, 10.746294 ] } },
{ "type": "Feature", "properties": { "ID": "TR-002", "name": "Ceres Northbound Terminal", "type": "Transport", "address": "QH3C+PV7 Ceres Northbound Terminal Iloilo City, Jaro, Iloilo City, Iloilo", "barangay": "Jaro", "municity": "Iloilo City", "facebook": null, "url": null, "mobile_contact": null, "landline_connect": null, "email": null, "logo": null, "latitude": 10.754276, "longitude": 122.572175 }, "geometry": { "type": "Point", "coordinates": [ 122.572175, 10.754276 ] } },
{ "type": "Feature", "properties": { "ID": "TR-004", "name": "Tagbak Bus Terminal", "type": "Transport", "address": "QH6H+Q2 Tagbak Bus Terminal, Jaro, Iloilo City, Iloilo", "barangay": "Jaro", "municity": "Iloilo City", "facebook": null, "url": null, "mobile_contact": null, "landline_connect": null, "email": null, "logo": null, "latitude": 10.761957, "longitude": 122.57759 }, "geometry": { "type": "Point", "coordinates": [ 122.57759, 10.761957 ] } },
{ "type": "Feature", "properties": { "ID": "TR-005", "name": "Ceres Terminal Jaro to Caticlan", "type": "Transport", "address": "QH3C+JVX Ceres Terminal jaro to caticlan, 3rd St, Jaro, Iloilo City, Iloilo", "barangay": "Jaro", "municity": "Iloilo City", "facebook": null, "url": null, "mobile_contact": null, "landline_connect": null, "email": null, "logo": null, "latitude": 10.754124, "longitude": 122.57222 }, "geometry": { "type": "Point", "coordinates": [ 122.57222, 10.754124 ] } },
{ "type": "Feature", "properties": { "ID": "TR-006", "name": "ALPS Bus Terminal - Iloilo", "type": "Transport", "address": "QH6G+8Q ALPS Bus Terminal - Iloilo, MacArthur Dr., Tagbak, Jaro, Iloilo City, 5000, Iloilo", "barangay": "Jaro", "municity": "Iloilo City", "facebook": null, "url": null, "mobile_contact": "0915 954 4647", "landline_connect": null, "email": null, "logo": null, "latitude": 10.760821, "longitude": 122.576905 }, "geometry": { "type": "Point", "coordinates": [ 122.576905, 10.760821 ] } },
{ "type": "Feature", "properties": { "ID": "TR-007", "name": "Don Benito Acap Southern Iloilo Line Jeepney Terminal", "type": "Transport", "address": "MFVX+5R Don Benito Acap Southern Iloilo Line Jeepney Terminal, Osmeña St, Villa Arevalo District, Iloilo City, 5000 Iloilo", "barangay": "Arevalo", "municity": "Iloilo City", "facebook": null, "url": null, "mobile_contact": null, "landline_connect": null, "email": null, "logo": null, "latitude": 10.692966, "longitude": 122.499613 }, "geometry": { "type": "Point", "coordinates": [ 122.499613, 10.692966 ] } },
{ "type": "Feature", "properties": { "ID": "TR-008", "name": "Brgy. San Pedro, Molo Terminal", "type": "Transport", "address": "MGXW+JX Brgy. San Pedro, Molo Terminal, San Pedro St, Molo, Iloilo City, Iloilo", "barangay": "Molo", "municity": "Iloilo City", "facebook": null, "url": null, "mobile_contact": null, "landline_connect": null, "email": null, "logo": null, "latitude": 10.699089, "longitude": 122.547388 }, "geometry": { "type": "Point", "coordinates": [ 122.547388, 10.699089 ] } },
{ "type": "Feature", "properties": { "ID": "TR-009", "name": "Super/ Iloilo Terminal Market", "type": "Transport", "address": "MHV7+5Q Super/ Iloilo Terminal Market, Iloilo City Proper, Iloilo City, Iloilo", "barangay": "Iloilo City Proper", "municity": "Iloilo City", "facebook": null, "url": "iloilocity.gov.ph", "mobile_contact": null, "landline_connect": null, "email": null, "logo": null, "latitude": 10.692999, "longitude": 122.5645 }, "geometry": { "type": "Point", "coordinates": [ 122.5645, 10.692999 ] } },
{ "type": "Feature", "properties": { "ID": "TR-010", "name": "New Ceres Terminal", "type": "Transport", "address": "QH3C+HWC New Ceres Terminal, Jaro, Iloilo City, Iloilo", "barangay": "Jaro", "municity": "Iloilo City", "facebook": null, "url": null, "mobile_contact": null, "landline_connect": null, "email": null, "logo": null, "latitude": 10.753948, "longitude": 122.572254 }, "geometry": { "type": "Point", "coordinates": [ 122.572254, 10.753948 ] } },
{ "type": "Feature", "properties": { "ID": "TR-011", "name": "Ceres Terminal Antique Bound", "type": "Transport", "address": "MGR2+XX Ceres Terminal Antique Bound, 127 Osmeña St, Villa Arevalo District, Iloilo City, Iloilo", "barangay": "Arevalo", "municity": "Iloilo City", "facebook": null, "url": null, "mobile_contact": null, "landline_connect": null, "email": null, "logo": null, "latitude": 10.692476, "longitude": 122.502443 }, "geometry": { "type": "Point", "coordinates": [ 122.502443, 10.692476 ] } },
{ "type": "Feature", "properties": { "ID": "TR-016", "name": "Tricycle Terminal to FastCraft Iloilo", "type": "Transport", "address": "MHW9+HP9 Tricycle Terminal to FastCraft Ilo-Ilo, JM Basa St, Iloilo City Proper, Iloilo City, 5000 Iloilo", "barangay": "Iloilo City Proper", "municity": "Iloilo City", "facebook": null, "url": null, "mobile_contact": null, "landline_connect": null, "email": null, "logo": null, "latitude": 10.696553, "longitude": 122.569404 }, "geometry": { "type": "Point", "coordinates": [ 122.569404, 10.696553 ] } },
{ "type": "Feature", "properties": { "ID": "TR-017", "name": "Mohon Terminal", "type": "Transport", "address": "MFVX+8X9, Villa Arevalo District, Iloilo City, Iloilo", "barangay": "Arevalo", "municity": "Iloilo City", "facebook": null, "url": null, "mobile_contact": null, "landline_connect": null, "email": null, "logo": null, "latitude": 10.69383, "longitude": 122.4997 }, "geometry": { "type": "Point", "coordinates": [ 122.4997, 10.69383 ] } },
{ "type": "Feature", "properties": { "ID": "TR-019", "name": "Ticud Terminal", "type": "Transport", "address": "PH8H+XXC, La Paz, Iloilo City, Iloilo", "barangay": "La Paz", "municity": "Iloilo City", "facebook": null, "url": null, "mobile_contact": null, "landline_connect": null, "email": null, "logo": null, "latitude": 10.718056, "longitude": 122.580144 }, "geometry": { "type": "Point", "coordinates": [ 122.580144, 10.718056 ] } },
{ "type": "Feature", "properties": { "ID": "TR-020", "name": "Iloilo Fastcraft & Roro - Terminal", "type": "Transport", "address": "MHWF+GC New Iloilo Ferry Terminal Access Rd, Lapuz, Iloilo City, 5000 Iloilo", "barangay": "Lapuz", "municity": "Iloilo City", "facebook": null, "url": null, "mobile_contact": null, "landline_connect": null, "email": null, "logo": null, "latitude": 10.696436, "longitude": 122.573475 }, "geometry": { "type": "Point", "coordinates": [ 122.573475, 10.696436 ] } },
{ "type": "Feature", "properties": { "ID": "TR-021", "name": "MEXJeep Mohon Terminal", "type": "Transport", "address": "MFVX+5WJ, Osmeña St, Villa Arevalo District, Iloilo City, Iloilo", "barangay": "Arevalo", "municity": "Iloilo City", "facebook": null, "url": null, "mobile_contact": null, "landline_connect": null, "email": null, "logo": null, "latitude": 10.693518, "longitude": 122.499285 }, "geometry": { "type": "Point", "coordinates": [ 122.499285, 10.693518 ] } },
{ "type": "Feature", "properties": { "ID": "TR-022", "name": "Weesam Express Iloilo", "type": "Transport", "address": "MHWF+HF Mulle Muelle Loney St, Lapuz, Iloilo City, Iloilo", "barangay": "Lapuz", "municity": "Iloilo City", "facebook": null, "url": null, "mobile_contact": null, "landline_connect": "(033) 337 3282", "email": null, "logo": null, "latitude": 10.696579, "longitude": 122.573427 }, "geometry": { "type": "Point", "coordinates": [ 122.573427, 10.696579 ] } },
{ "type": "Feature", "properties": { "ID": "TR-023", "name": "Guimaras Iloilo Ferry Terminal", "type": "Transport", "address": "MHVM+29 Iloilo City Proper, Iloilo City, Iloilo", "barangay": "Iloilo City Proper", "municity": "Iloilo City", "facebook": null, "url": null, "mobile_contact": null, "landline_connect": null, "email": null, "logo": null, "latitude": 10.693481, "longitude": 122.583472 }, "geometry": { "type": "Point", "coordinates": [ 122.583472, 10.693481 ] } },
{ "type": "Feature", "properties": { "ID": "TR-025", "name": "Iloilo Ferry Terminal-Parola", "type": "Transport", "address": "MHRM+X9 Fort San Pedro, Parola, Iloilo Proper, Iloilo City, Iloilo", "barangay": "Iloilo City Proper", "municity": "Iloilo City", "facebook": null, "url": null, "mobile_contact": null, "landline_connect": null, "email": null, "logo": null, "latitude": 10.692988, "longitude": 122.585263 }, "geometry": { "type": "Point", "coordinates": [ 122.585263, 10.692988 ] } },
{ "type": "Feature", "properties": { "ID": "TR-027", "name": "Baldoza Land Transport Terminal", "type": "Transport", "address": "PH7J+CR Lapuz, Iloilo City, Iloilo", "barangay": "Lapuz", "municity": "Iloilo City", "facebook": null, "url": null, "mobile_contact": null, "landline_connect": null, "email": null, "logo": null, "latitude": 10.714727, "longitude": 122.582593 }, "geometry": { "type": "Point", "coordinates": [ 122.582593, 10.714727 ] } },
{ "type": "Feature", "properties": { "ID": "TR-028", "name": "Iloilo-Jordan Port Iloilo", "type": "Transport", "address": "PH2H+H6 Lapuz, Iloilo City, Iloilo", "barangay": "Lapuz", "municity": "Iloilo City", "facebook": null, "url": null, "mobile_contact": null, "landline_connect": null, "email": null, "logo": null, "latitude": 10.702427, "longitude": 122.578053 }, "geometry": { "type": "Point", "coordinates": [ 122.578053, 10.702427 ] } },
{ "type": "Feature", "properties": { "ID": "TR-029", "name": "RJB Star Transport Service Terminal", "type": "Transport", "address": "385 5th St, Jaro, Iloilo City, Iloilo", "barangay": "Jaro", "municity": "Iloilo City", "facebook": "Rjb Star Transport and Services", "url": "https://m.facebook.com/Rjb-Star-Transport-Services-1091520754383768/?ref=bookmarks", "mobile_contact": "9989840673", "landline_connect": null, "email": null, "logo": null, "latitude": 10.753226, "longitude": 122.572254 }, "geometry": { "type": "Point", "coordinates": [ 122.572254, 10.753226 ] } },
{ "type": "Feature", "properties": { "ID": "TR-031", "name": "Iloilo Domestic Port", "type": "Transport", "address": "MHQJ+QQ5, Fort San Pedro Dr, Iloilo City Proper, Iloilo City, 5000 Iloilo", "barangay": "Iloilo City Proper", "municity": "Iloilo City", "facebook": null, "url": null, "mobile_contact": null, "landline_connect": "(033) 337 6945", "email": null, "logo": null, "latitude": 10.690102, "longitude": 122.581937 }, "geometry": { "type": "Point", "coordinates": [ 122.581937, 10.690102 ] } },
{ "type": "Feature", "properties": { "ID": "TR-032", "name": "Visayas Container Terminal", "type": "Transport", "address": "PH4V+MC9, Lapuz, Iloilo City, Iloilo", "barangay": "Lapuz", "municity": "Iloilo City", "facebook": null, "url": null, "mobile_contact": null, "landline_connect": null, "email": null, "logo": null, "latitude": 10.707336, "longitude": 122.593824 }, "geometry": { "type": "Point", "coordinates": [ 122.593824, 10.707336 ] } },
{ "type": "Feature", "properties": { "ID": "TR-034", "name": "Ticud Terminal", "type": "Transport", "address": "PH8J+QF La Paz, Iloilo City, Iloilo", "barangay": "La Paz", "municity": "Iloilo City", "facebook": null, "url": null, "mobile_contact": null, "landline_connect": null, "email": null, "logo": null, "latitude": 10.717264, "longitude": 122.579906 }, "geometry": { "type": "Point", "coordinates": [ 122.579906, 10.717264 ] } },
{ "type": "Feature", "properties": { "ID": "TR-035", "name": "Iloilo Commercial Port Complex", "type": "Transport", "address": "PH4V+P39, Lapuz, Iloilo City, Iloilo", "barangay": "Lapuz", "municity": "Iloilo City", "facebook": null, "url": null, "mobile_contact": null, "landline_connect": null, "email": null, "logo": null, "latitude": 10.707592, "longitude": 122.59283 }, "geometry": { "type": "Point", "coordinates": [ 122.59283, 10.707592 ] } },
{ "type": "Feature", "properties": { "ID": "TR-036", "name": "Ortiz Wharf", "type": "Transport", "address": "MHQC+QR Iloilo City Proper, Iloilo City, Iloilo", "barangay": "Iloilo City Proper", "municity": "Iloilo City", "facebook": null, "url": null, "mobile_contact": null, "landline_connect": null, "email": null, "logo": null, "latitude": 10.689631, "longitude": 122.572054 }, "geometry": { "type": "Point", "coordinates": [ 122.572054, 10.689631 ] } },
{ "type": "Feature", "properties": { "ID": "TR-039", "name": "Plazleta Gay Jeepney Stop", "type": "Transport", "address": "MHW9+PH Iznart St, Iloilo City Proper, Iloilo City, Iloilo", "barangay": "Iloilo City Proper", "municity": "Iloilo City", "facebook": null, "url": null, "mobile_contact": null, "landline_connect": null, "email": null, "logo": null, "latitude": 10.697619, "longitude": 122.568852 }, "geometry": { "type": "Point", "coordinates": [ 122.568852, 10.697619 ] } },
{ "type": "Feature", "properties": { "ID": "TR-040", "name": "Don Benito Acap Southbound Terminal", "type": "Transport", "address": "MGPH+QFF, Osmeña Street, Villa Arevalo District, Iloilo City, Iloilo", "barangay": "Arevalo", "municity": "Iloilo City", "facebook": null, "url": null, "mobile_contact": null, "landline_connect": null, "email": null, "logo": null, "latitude": 10.687026, "longitude": 122.528712 }, "geometry": { "type": "Point", "coordinates": [ 122.528712, 10.687026 ] } },
{ "type": "Feature", "properties": { "ID": "TR-042", "name": "Ceres Liner", "type": "Transport", "address": "QH3F+Q2 Jaro, Iloilo City, Iloilo", "barangay": "Jaro", "municity": "Iloilo City", "facebook": null, "url": null, "mobile_contact": null, "landline_connect": null, "email": null, "logo": null, "latitude": 10.755443, "longitude": 122.572614 }, "geometry": { "type": "Point", "coordinates": [ 122.572614, 10.755443 ] } },
{ "type": "Feature", "properties": { "ID": "TR-044", "name": "Milagrosa Shipping Lines", "type": "Transport", "address": "PH2H+8J Lapuz, Iloilo City, Iloilo", "barangay": "Lapuz", "municity": "Iloilo City", "facebook": null, "url": null, "mobile_contact": null, "landline_connect": null, "email": null, "logo": null, "latitude": 10.701405, "longitude": 122.579059 }, "geometry": { "type": "Point", "coordinates": [ 122.579059, 10.701405 ] } },
{ "type": "Feature", "properties": { "ID": "TR-045", "name": "Sooc Tricycle Terminal Area", "type": "Transport", "address": "MGQ9+W7 Gloryville Subdivision, Villa Arevalo District, Iloilo City, Iloilo", "barangay": "Arevalo", "municity": "Iloilo City", "facebook": null, "url": null, "mobile_contact": null, "landline_connect": null, "email": null, "logo": null, "latitude": 10.690364, "longitude": 122.518261 }, "geometry": { "type": "Point", "coordinates": [ 122.518261, 10.690364 ] } },
{ "type": "Feature", "properties": { "ID": "TR-049", "name": "Ocean Jet - Iloilo", "type": "Transport", "address": "MHWF+HG Muelle Loney St, Iloilo City Proper, Iloilo City, Iloilo", "barangay": "Iloilo City Proper", "municity": "Iloilo City", "facebook": null, "url": "http://www.oceanjet.net/", "mobile_contact": null, "landline_connect": "(033) 335 8887", "email": null, "logo": null, "latitude": 10.696419, "longitude": 122.573782 }, "geometry": { "type": "Point", "coordinates": [ 122.573782, 10.696419 ] } },
{ "type": "Feature", "properties": { "ID": "TR-050", "name": "Festive Walk Transport Hub", "type": "Transport", "address": "PG8W+WR9 Festive Walk Mall, Megaworld Blvd, Mandurriao, Iloilo City, Iloilo", "barangay": "Mandurriao", "municity": "Iloilo City", "facebook": "https://www.facebook.com/FestiveWalkIloilo/", "url": null, "mobile_contact": null, "landline_connect": null, "email": null, "logo": null, "latitude": 10.717338, "longitude": 122.547117 }, "geometry": { "type": "Point", "coordinates": [ 122.547117, 10.717338 ] } },
{ "type": "Feature", "properties": { "ID": "TR-051", "name": "SM Jeepney Terminal and Traveler's Lounge", "type": "Transport", "address": "PH72+9P Mandurriao, Iloilo City, 5000 Iloilo", "barangay": "Mandurriao", "municity": "Iloilo City", "facebook": null, "url": null, "mobile_contact": null, "landline_connect": null, "email": null, "logo": null, "latitude": 10.713459, "longitude": 122.551762 }, "geometry": { "type": "Point", "coordinates": [ 122.551762, 10.713459 ] } },
{ "type": "Feature", "properties": { "ID": "TR-066", "name": "Ortiz Jeepney Stop", "type": "Transport", "address": "MHRC+QH Ortiz Street, Iloilo City Proper, Iloilo City, Iloilo", "barangay": "Iloilo City Proper", "municity": "Iloilo City", "facebook": null, "url": null, "mobile_contact": null, "landline_connect": null, "email": null, "logo": null, "latitude": 10.691976, "longitude": 122.571498 }, "geometry": { "type": "Point", "coordinates": [ 122.571498, 10.691976 ] } },
{ "type": "Feature", "properties": { "ID": "TR-067", "name": "Plaza Libertad Jeepney Stop", "type": "Transport", "address": "MHRF+W8 Iloilo City Proper, Iloilo City, Iloilo", "barangay": "Iloilo City Proper", "municity": "Iloilo City", "facebook": null, "url": null, "mobile_contact": null, "landline_connect": null, "email": null, "logo": null, "latitude": 10.692339, "longitude": 122.573272 }, "geometry": { "type": "Point", "coordinates": [ 122.573272, 10.692339 ] } },
{ "type": "Feature", "properties": { "ID": "TR-068", "name": "Amigo Jeepney Stop", "type": "Transport", "address": "MHX9+7H Iznart St, Iloilo City Proper, Iloilo City, Iloilo", "barangay": "Iloilo City Proper", "municity": "Iloilo City", "facebook": null, "url": null, "mobile_contact": null, "landline_connect": null, "email": null, "logo": null, "latitude": 10.698209, "longitude": 122.5689 }, "geometry": { "type": "Point", "coordinates": [ 122.5689, 10.698209 ] } },
{ "type": "Feature", "properties": { "ID": "TR-069", "name": "UP-Stoplight Jeepney Stop", "type": "Transport", "address": "MHX4+W3 General Luna St, Iloilo City Proper, Iloilo City, Iloilo", "barangay": "Iloilo City Proper", "municity": "Iloilo City", "facebook": null, "url": null, "mobile_contact": null, "landline_connect": null, "email": null, "logo": null, "latitude": 10.699852, "longitude": 122.555148 }, "geometry": { "type": "Point", "coordinates": [ 122.555148, 10.699852 ] } },
{ "type": "Feature", "properties": { "ID": "TR-070", "name": "Iloilo Central School-Assumption Jeepney Stop", "type": "Transport", "address": "PH28+C5 General Luna St, Iloilo City Proper, Iloilo City, Iloilo", "barangay": "Iloilo City Proper", "municity": "Iloilo City", "facebook": null, "url": null, "mobile_contact": null, "landline_connect": null, "email": null, "logo": null, "latitude": 10.701109, "longitude": 122.565499 }, "geometry": { "type": "Point", "coordinates": [ 122.565499, 10.701109 ] } },
{ "type": "Feature", "properties": { "ID": "TR-071", "name": "Villa Aurora-OWWA Jeepney Stop", "type": "Transport", "address": "PH25+3R General Luna St, Iloilo City Proper, Iloilo City, 5000 Iloilo", "barangay": "Iloilo City Proper", "municity": "Iloilo City", "facebook": null, "url": null, "mobile_contact": null, "landline_connect": null, "email": null, "logo": null, "latitude": 10.700258, "longitude": 122.559592 }, "geometry": { "type": "Point", "coordinates": [ 122.559592, 10.700258 ] } },
{ "type": "Feature", "properties": { "ID": "TR-072", "name": "Atrium-Provincial Capitol Jeepney Stop", "type": "Transport", "address": "PH29+HG Iloilo City Proper, Iloilo City, Iloilo", "barangay": "Iloilo City Proper", "municity": "Iloilo City", "facebook": null, "url": null, "mobile_contact": null, "landline_connect": null, "email": null, "logo": null, "latitude": 10.701502, "longitude": 122.568794 }, "geometry": { "type": "Point", "coordinates": [ 122.568794, 10.701502 ] } },
{ "type": "Feature", "properties": { "ID": "TR-073", "name": "Robinsons Iloilo Jeepney Stop", "type": "Transport", "address": "MHV8+97 De Leon St, Iloilo City Proper, Iloilo City, Iloilo", "barangay": "Iloilo City Proper", "municity": "Iloilo City", "facebook": null, "url": null, "mobile_contact": null, "landline_connect": null, "email": null, "logo": null, "latitude": 10.693413, "longitude": 122.565749 }, "geometry": { "type": "Point", "coordinates": [ 122.565749, 10.693413 ] } },
{ "type": "Feature", "properties": { "ID": "TR-074", "name": "University of San Agustin Jeepney Stop", "type": "Transport", "address": "PH27+87 General Luna St, Iloilo City Proper, Iloilo City, Iloilo", "barangay": "Iloilo City Proper", "municity": "Iloilo City", "facebook": null, "url": null, "mobile_contact": null, "landline_connect": null, "email": null, "logo": null, "latitude": 10.700819, "longitude": 122.563195 }, "geometry": { "type": "Point", "coordinates": [ 122.563195, 10.700819 ] } },
{ "type": "Feature", "properties": { "ID": "TR-075", "name": "Maria Clara UI Jeepney Stop", "type": "Transport", "address": "MHR9+VM Iloilo City Proper, Iloilo City, Iloilo", "barangay": "Iloilo City Proper", "municity": "Iloilo City", "facebook": null, "url": null, "mobile_contact": null, "landline_connect": null, "email": null, "logo": null, "latitude": 10.69219, "longitude": 122.569138 }, "geometry": { "type": "Point", "coordinates": [ 122.569138, 10.69219 ] } },
{ "type": "Feature", "properties": { "ID": "TR-076", "name": "Guanco Jeepney Stop", "type": "Transport", "address": "MHVC+FC JM Basa St, Iloilo City Proper, Iloilo City, Iloilo", "barangay": "Iloilo City Proper", "municity": "Iloilo City", "facebook": null, "url": null, "mobile_contact": null, "landline_connect": null, "email": null, "logo": null, "latitude": 10.693704, "longitude": 122.571116 }, "geometry": { "type": "Point", "coordinates": [ 122.571116, 10.693704 ] } },
{ "type": "Feature", "properties": { "ID": "TR-077", "name": "Iznart De Leon Jeepney Stop", "type": "Transport", "address": "MHV9+GH De Leon St, Iloilo City Proper, Iloilo City, Iloilo", "barangay": "Iloilo City Proper", "municity": "Iloilo City", "facebook": null, "url": null, "mobile_contact": null, "landline_connect": null, "email": null, "logo": null, "latitude": 10.693763, "longitude": 122.568918 }, "geometry": { "type": "Point", "coordinates": [ 122.568918, 10.693763 ] } },
{ "type": "Feature", "properties": { "ID": "TR-078", "name": "Iloilo City-Airport Shuttle", "type": "Transport", "address": "PH72+XQM, SM City Iloilo Driveway, Mandurriao, Iloilo City, 5000 Iloilo", "barangay": "Mandurriao", "municity": "Iloilo City", "facebook": null, "url": null, "mobile_contact": null, "landline_connect": null, "email": null, "logo": null, "latitude": 10.714984, "longitude": 122.551916 }, "geometry": { "type": "Point", "coordinates": [ 122.551916, 10.714984 ] } },
{ "type": "Feature", "properties": { "ID": "TR-079", "name": "Aldeguer Jeepney Stop", "type": "Transport", "address": "MHVC+X4 Calle Real, JM Basa St, Iloilo City Proper, Iloilo City, Iloilo", "barangay": "Iloilo City Proper", "municity": "Iloilo City", "facebook": null, "url": null, "mobile_contact": null, "landline_connect": null, "email": null, "logo": null, "latitude": 10.69492, "longitude": 122.570273 }, "geometry": { "type": "Point", "coordinates": [ 122.570273, 10.69492 ] } },
{ "type": "Feature", "properties": { "ID": "TR-080", "name": "Metro Iloilo Transport Service Cooperative", "type": "Transport", "address": "QH6G+MW Jaro, Iloilo City, Iloilo", "barangay": "Jaro", "municity": "Iloilo City", "facebook": null, "url": null, "mobile_contact": null, "landline_connect": null, "email": null, "logo": null, "latitude": 10.761597, "longitude": 122.577417 }, "geometry": { "type": "Point", "coordinates": [ 122.577417, 10.761597 ] } },
{ "type": "Feature", "properties": { "ID": "TR-081", "name": "Iloilo City (Bus Stop)", "type": "Transport", "address": "PHC6+5R Jaro, Iloilo City, Iloilo", "barangay": "Jaro", "municity": "Iloilo City", "facebook": null, "url": null, "mobile_contact": null, "landline_connect": null, "email": null, "logo": null, "latitude": 10.720403, "longitude": 122.562055 }, "geometry": { "type": "Point", "coordinates": [ 122.562055, 10.720403 ] } },
{ "type": "Feature", "properties": { "ID": "TR-082", "name": "Iloilo City (Bus Stop)", "type": "Transport", "address": "PHC6+4Q Jaro, Iloilo City, Iloilo", "barangay": "Jaro", "municity": "Iloilo City", "facebook": null, "url": null, "mobile_contact": null, "landline_connect": null, "email": null, "logo": null, "latitude": 10.720319, "longitude": 122.561948 }, "geometry": { "type": "Point", "coordinates": [ 122.561948, 10.720319 ] } },
{ "type": "Feature", "properties": { "ID": "TR-083", "name": "Iloilo Doctors Hospital Jeepney Stop", "type": "Transport", "address": "MHW3+JP Timawa St, Molo, Iloilo City, Iloilo", "barangay": "Molo", "municity": "Iloilo City", "facebook": null, "url": null, "mobile_contact": null, "landline_connect": null, "email": null, "logo": null, "latitude": 10.696563, "longitude": 122.554342 }, "geometry": { "type": "Point", "coordinates": [ 122.554342, 10.696563 ] } },
{ "type": "Feature", "properties": { "ID": "TR-084", "name": "City Hall Jeepney Stop", "type": "Transport", "address": "MHVC+5W Oritz Street, Iloilo City Proper, Iloilo City, Iloilo", "barangay": "Iloilo City Proper", "municity": "Iloilo City", "facebook": null, "url": null, "mobile_contact": null, "landline_connect": null, "email": null, "logo": null, "latitude": 10.693, "longitude": 122.572355 }, "geometry": { "type": "Point", "coordinates": [ 122.572355, 10.693 ] } },
{ "type": "Feature", "properties": { "ID": "TR-088", "name": "Public Bus Stop (Jaro)", "type": "Transport", "address": "PGGX+6Q6, Jaro, Iloilo City, Iloilo", "barangay": "Jaro", "municity": "Iloilo City", "facebook": null, "url": null, "mobile_contact": null, "landline_connect": null, "email": null, "logo": null, "latitude": 10.725562, "longitude": 122.549379 }, "geometry": { "type": "Point", "coordinates": [ 122.549379, 10.725562 ] } },
{ "type": "Feature", "properties": { "ID": "TR-089", "name": "Southwest Tour Boracay Inc.", "type": "Transport", "address": "PGGX+H4 Brgy, Jaro, Iloilo City, 5000 Iloilo", "barangay": "Jaro", "municity": "Iloilo City", "facebook": null, "url": null, "mobile_contact": null, "landline_connect": "(033) 321 1113", "email": null, "logo": null, "latitude": 10.726497, "longitude": 122.547793 }, "geometry": { "type": "Point", "coordinates": [ 122.547793, 10.726497 ] } },
{ "type": "Feature", "properties": { "ID": "TR-090", "name": "Lapuz Jeepney Station", "type": "Transport", "address": "PH3G+G43, Lapuz, Iloilo City, Iloilo", "barangay": "Lapuz", "municity": "Iloilo City", "facebook": null, "url": null, "mobile_contact": null, "landline_connect": null, "email": null, "logo": null, "latitude": 10.703777, "longitude": 122.575287 }, "geometry": { "type": "Point", "coordinates": [ 122.575287, 10.703777 ] } },
{ "type": "Feature", "properties": { "ID": "TR-093", "name": "Anaros Subdivision Waiting Shed", "type": "Transport", "address": "Anaros Subdivision Waiting Shed, Guzman Street, Ana Ros Village Subdivision, Mandurriao, Hibao-an Sur, Iloilo City, Western Visayas, 5000, Philippines", "barangay": "Mandurriao", "municity": "Iloilo City", "facebook": null, "url": null, "mobile_contact": null, "landline_connect": null, "email": null, "logo": null, "latitude": 10.725758, "longitude": 122.528404 }, "geometry": { "type": "Point", "coordinates": [ 122.528404, 10.725758 ] } },
{ "type": "Feature", "properties": { "ID": "TR-094", "name": "Angelicum School (Bus Stop)", "type": "Transport", "address": "Angelicum School, MacArthur Drive, Banker's Village, Tabuc Suba, Jaro, Cubay, Iloilo City, Western Visayas, 5000, Philippines", "barangay": "Jaro", "municity": "Iloilo City", "facebook": null, "url": null, "mobile_contact": null, "landline_connect": null, "email": null, "logo": null, "latitude": 10.731911, "longitude": 122.55981 }, "geometry": { "type": "Point", "coordinates": [ 122.55981, 10.731911 ] } },
{ "type": "Feature", "properties": { "ID": "TR-095", "name": "Banker's Village (Bus Stop)", "type": "Transport", "address": "Banker's Village, MacArthur Drive, Quintin Salas, Jaro, Quintin Salas, Iloilo City, Western Visayas, 5000, Philippines", "barangay": "Jaro", "municity": "Iloilo City", "facebook": null, "url": null, "mobile_contact": null, "landline_connect": null, "email": null, "logo": null, "latitude": 10.736034, "longitude": 122.56108 }, "geometry": { "type": "Point", "coordinates": [ 122.56108, 10.736034 ] } },
{ "type": "Feature", "properties": { "ID": "TR-096", "name": "Benedicto (Bus Stop)", "type": "Transport", "address": "Benedicto, Washington Street, Benedicto, Jaro, Arguelles, Iloilo City, Western Visayas, 5000, Philippines", "barangay": "Jaro", "municity": "Iloilo City", "facebook": null, "url": null, "mobile_contact": null, "landline_connect": null, "email": null, "logo": null, "latitude": 10.725878, "longitude": 122.557778 }, "geometry": { "type": "Point", "coordinates": [ 122.557778, 10.725878 ] } },
{ "type": "Feature", "properties": { "ID": "TR-098", "name": "De Leon St. Intersection (Bus Stop)", "type": "Transport", "address": "De Leon St. Intersection, Valeria Street, Magsaysay, City Proper, Iloilo City, Western Visayas, 5000, Philippines", "barangay": "Iloilo City Proper", "municity": "Iloilo City", "facebook": null, "url": null, "mobile_contact": null, "landline_connect": null, "email": null, "logo": null, "latitude": 10.693671, "longitude": 122.56793 }, "geometry": { "type": "Point", "coordinates": [ 122.56793, 10.693671 ] } },
{ "type": "Feature", "properties": { "ID": "TR-099", "name": "Drop-off Point & Jeepney Stop, Lapuz to Pier", "type": "Transport", "address": "Drop-off Point & Jeepney Stop, Lapuz to Pier, General Luna Street, City Proper, Iloilo City, Western Visayas, 5000, Philippines", "barangay": "Iloilo City Proper", "municity": "Iloilo City", "facebook": null, "url": null, "mobile_contact": null, "landline_connect": null, "email": null, "logo": null, "latitude": 10.70146, "longitude": 122.567879 }, "geometry": { "type": "Point", "coordinates": [ 122.567879, 10.70146 ] } },
{ "type": "Feature", "properties": { "ID": "TR-100", "name": "SM Strata Bus/Jeepney Terminal", "type": "Transport", "address": "SM Strata Bus/Jeepney Terminal, Tanzon, Bakhaw, Mandurriao, Bolilao, Iloilo City, Western Visayas, 5000, Philippines", "barangay": "Mandurriao", "municity": "Iloilo City", "facebook": null, "url": null, "mobile_contact": null, "landline_connect": null, "email": null, "logo": null, "latitude": 10.713099, "longitude": 122.55315 }, "geometry": { "type": "Point", "coordinates": [ 122.55315, 10.713099 ] } },
{ "type": "Feature", "properties": { "ID": "TR-101", "name": "Igbaras Jeepney", "type": "Transport", "address": "Igbaras Jeepney, Fuentes Street, Flores, City Proper, Iloilo City, Western Visayas, 5000, Philippines", "barangay": "Iloilo City Proper", "municity": "Iloilo City", "facebook": null, "url": null, "mobile_contact": null, "landline_connect": null, "email": null, "logo": null, "latitude": 10.692801, "longitude": 122.563241 }, "geometry": { "type": "Point", "coordinates": [ 122.563241, 10.692801 ] } },
{ "type": "Feature", "properties": { "ID": "TR-114", "name": "Jeepney Stop (Jaro Liko Nfa)", "type": "Transport", "address": "Jeepney (jaro liko nfa), Ortiz Street, City Proper, Iloilo City, Western Visayas, 5000, Philippines", "barangay": "Iloilo City Proper", "municity": "Iloilo City", "facebook": null, "url": null, "mobile_contact": null, "landline_connect": null, "email": null, "logo": null, "latitude": 10.692042, "longitude": 122.571705 }, "geometry": { "type": "Point", "coordinates": [ 122.571705, 10.692042 ] } },
{ "type": "Feature", "properties": { "ID": "TR-115", "name": "Jeepney to Tagbak (Jeepney Stop)", "type": "Transport", "address": "Jeepney to Tagbak, Mabini Street, Aurora Subdivision, City Proper, Bolilao, Iloilo City, Western Visayas, 5000, Philippines", "barangay": null, "municity": "Iloilo City", "facebook": null, "url": null, "mobile_contact": null, "landline_connect": null, "email": null, "logo": null, "latitude": 10.697743, "longitude": 122.564743 }, "geometry": { "type": "Point", "coordinates": [ 122.564743, 10.697743 ] } },
{ "type": "Feature", "properties": { "ID": "TR-116", "name": "La Paz to Leganes (Jeepney Stop)", "type": "Transport", "address": "La Paz to Leganes, Burgos Street, Railway, La Paz, Iloilo City, Western Visayas, 5000, Philippines", "barangay": null, "municity": "Iloilo City", "facebook": null, "url": null, "mobile_contact": null, "landline_connect": null, "email": null, "logo": null, "latitude": 10.710906, "longitude": 122.570153 }, "geometry": { "type": "Point", "coordinates": [ 122.570153, 10.710906 ] } },
{ "type": "Feature", "properties": { "ID": "TR-117", "name": "Kapitolyo Rotonda (Iznart Street Jeepney Stop)", "type": "Transport", "address": "Kapitolyo Rotonda, Iznart Street, President Roxas, City Proper, Iloilo City, Western Visayas, 5000, Philippines", "barangay": null, "municity": "Iloilo City", "facebook": null, "url": null, "mobile_contact": null, "landline_connect": null, "email": null, "logo": null, "latitude": 10.701049, "longitude": 122.568983 }, "geometry": { "type": "Point", "coordinates": [ 122.568983, 10.701049 ] } },
{ "type": "Feature", "properties": { "ID": "TR-118", "name": "Kapitolyo Rotonda (Bonifacio Drive Jeepney Stop)", "type": "Transport", "address": "Kapitolyo Rotonda, Bonifacio Drive, President Roxas, City Proper, Iloilo City, Western Visayas, 5000, Philippines", "barangay": null, "municity": "Iloilo City", "facebook": null, "url": null, "mobile_contact": null, "landline_connect": null, "email": null, "logo": null, "latitude": 10.702827, "longitude": 122.568158 }, "geometry": { "type": "Point", "coordinates": [ 122.568158, 10.702827 ] } },
{ "type": "Feature", "properties": { "ID": "TR-119", "name": "LTO Region 6 (Jeepney Stop)", "type": "Transport", "address": "LTO Region 6, MacArthur Drive, Quintin Salas, Jaro, Quintin Salas, Iloilo City, Western Visayas, 5000, Philippines", "barangay": null, "municity": "Iloilo City", "facebook": null, "url": null, "mobile_contact": null, "landline_connect": null, "email": null, "logo": null, "latitude": 10.737629, "longitude": 122.561848 }, "geometry": { "type": "Point", "coordinates": [ 122.561848, 10.737629 ] } },
{ "type": "Feature", "properties": { "ID": "TR-120", "name": "Jeepney to Balabago (Jeepney Stop)", "type": "Transport", "address": "Jeepney to Balabago, Plaza Rizal Street, Benedicto, Jaro, Arguelles, Iloilo City, Western Visayas, 5000, Philippines", "barangay": "Jaro", "municity": "Iloilo City", "facebook": null, "url": null, "mobile_contact": null, "landline_connect": null, "email": null, "logo": null, "latitude": 10.725273, "longitude": 122.557223 }, "geometry": { "type": "Point", "coordinates": [ 122.557223, 10.725273 ] } },
{ "type": "Feature", "properties": { "ID": "TR-121", "name": "Jeepney to Lapaz (Jeepney Stop)", "type": "Transport", "address": "Jeepney to Lapaz, Rizal Street, City Proper, Iloilo City, Western Visayas, 5000, Philippines", "barangay": "Iloilo City Proper", "municity": "Iloilo City", "facebook": null, "url": null, "mobile_contact": null, "landline_connect": null, "email": null, "logo": null, "latitude": 10.691938, "longitude": 122.571649 }, "geometry": { "type": "Point", "coordinates": [ 122.571649, 10.691938 ] } },
{ "type": "Feature", "properties": { "ID": "TR-123", "name": "Ungka (I) - Iloilo (Jeepney Stop)", "type": "Transport", "address": "Ungka-Iloilo, Benigno S. Aquino, Jr. Avenue, Ungka, Jaro, Iloilo City, Western Visayas, 5000, Philippines", "barangay": null, "municity": "Iloilo City", "facebook": null, "url": null, "mobile_contact": null, "landline_connect": null, "email": null, "logo": null, "latitude": 10.746016, "longitude": 122.539471 }, "geometry": { "type": "Point", "coordinates": [ 122.539471, 10.746016 ] } },
{ "type": "Feature", "properties": { "ID": "TR-124", "name": "MV Hechanova (Jeepney Stop)", "type": "Transport", "address": "MV Hechanova, MacArthur Drive, M. V. Hechanova, Jaro, Quintin Salas, Iloilo City, Western Visayas, 5000, Philippines", "barangay": "Jaro", "municity": "Iloilo City", "facebook": null, "url": null, "mobile_contact": null, "landline_connect": null, "email": null, "logo": null, "latitude": 10.747559, "longitude": 122.568337 }, "geometry": { "type": "Point", "coordinates": [ 122.568337, 10.747559 ] } },
{ "type": "Feature", "properties": { "ID": "TR-125", "name": "Iloilo Memorial Park (Jeepney Stop)", "type": "Transport", "address": "Iloilo Memorial Park, MacArthur Drive, Tagbac, Jaro, Balantang, Iloilo City, Western Visayas, 5000, Philippines", "barangay": "Jaro", "municity": "Iloilo City", "facebook": null, "url": null, "mobile_contact": null, "landline_connect": null, "email": null, "logo": null, "latitude": 10.759154, "longitude": 122.575898 }, "geometry": { "type": "Point", "coordinates": [ 122.575898, 10.759154 ] } },
{ "type": "Feature", "properties": { "ID": "TR-126", "name": "Iloilo City Port (Jeepney Stop)", "type": "Transport", "address": "Iloilo City Port, Fort San Pedro Drive, City Proper, Iloilo City, Western Visayas, 5000, Philippines", "barangay": "Iloilo City Proper", "municity": "Iloilo City", "facebook": null, "url": null, "mobile_contact": null, "landline_connect": null, "email": null, "logo": null, "latitude": 10.690743, "longitude": 122.582778 }, "geometry": { "type": "Point", "coordinates": [ 122.582778, 10.690743 ] } },
{ "type": "Feature", "properties": { "ID": "TR-127", "name": "Jaro Cemetery (Jeepney Stop)", "type": "Transport", "address": "Jaro Cemetery, MacArthur Drive, Quintin Salas, Jaro, Quintin Salas, Iloilo City, Western Visayas, 5000, Philippines", "barangay": "Jaro", "municity": "Iloilo City", "facebook": null, "url": null, "mobile_contact": null, "landline_connect": null, "email": null, "logo": null, "latitude": 10.742121, "longitude": 122.564569 }, "geometry": { "type": "Point", "coordinates": [ 122.564569, 10.742121 ] } },
{ "type": "Feature", "properties": { "ID": "TR-128", "name": "NFA Jaro (Jeepney Stop)", "type": "Transport", "address": "NFA Jaro, MacArthur Drive, Quintin Salas, Jaro, Quintin Salas, Iloilo City, Western Visayas, 5000, Philippines", "barangay": "Jaro", "municity": "Iloilo City", "facebook": null, "url": null, "mobile_contact": null, "landline_connect": null, "email": null, "logo": null, "latitude": 10.740064, "longitude": 122.563416 }, "geometry": { "type": "Point", "coordinates": [ 122.563416, 10.740064 ] } },
{ "type": "Feature", "properties": { "ID": "TR-129", "name": "Foton Iloilo (Jeepney Stop)", "type": "Transport", "address": "Foton Iloilo, MacArthur Drive, Cubay, Jaro, Quintin Salas, Iloilo City, Western Visayas, 5000, Philippines", "barangay": "Cubay", "municity": "Iloilo City", "facebook": null, "url": null, "mobile_contact": null, "landline_connect": null, "email": null, "logo": null, "latitude": 10.736102, "longitude": 122.561294 }, "geometry": { "type": "Point", "coordinates": [ 122.561294, 10.736102 ] } },
{ "type": "Feature", "properties": { "ID": "TR-130", "name": "Grand Plains (Jeepney Stop)", "type": "Transport", "address": "Grand Plains, MacArthur Drive, M. V. Hechanova, Jaro, Quintin Salas, Iloilo City, Western Visayas, 5000, Philippines", "barangay": "Quintin Salas", "municity": "Iloilo City", "facebook": null, "url": null, "mobile_contact": null, "landline_connect": null, "email": null, "logo": null, "latitude": 10.74555, "longitude": 122.567001 }, "geometry": { "type": "Point", "coordinates": [ 122.567001, 10.74555 ] } },
{ "type": "Feature", "properties": { "ID": "TR-131", "name": "Jaro Palengke (Jeepney Stop)", "type": "Transport", "address": "Jaro Palengke, Simeon Ledesma Street, Simeon Ledesma, Jaro, Arguelles, Iloilo City, Western Visayas, 5000, Philippines", "barangay": "Jaro", "municity": "Iloilo City", "facebook": null, "url": null, "mobile_contact": null, "landline_connect": null, "email": null, "logo": null, "latitude": 10.729085, "longitude": 122.557128 }, "geometry": { "type": "Point", "coordinates": [ 122.557128, 10.729085 ] } },
{ "type": "Feature", "properties": { "ID": "TR-132", "name": "Lopez Jaena/Ledesma (Jeepney Stop)", "type": "Transport", "address": "Lopez Jaena/Ledesma, Simeon Ledesma Street, Maria Cristina, Jaro, Arguelles, Iloilo City, Western Visayas, 5000, Philippines", "barangay": "Jaro", "municity": "Iloilo City", "facebook": null, "url": null, "mobile_contact": null, "landline_connect": null, "email": null, "logo": null, "latitude": 10.727769, "longitude": 122.555773 }, "geometry": { "type": "Point", "coordinates": [ 122.555773, 10.727769 ] } },
{ "type": "Feature", "properties": { "ID": "TR-133", "name": "Iloilo Supermart (Jeepney Stop)", "type": "Transport", "address": "Iloilo Supermart, MacArthur Drive, Phase 2-A, Cubay, Jaro, Cubay, Iloilo City, Western Visayas, 5000, Philippines", "barangay": "Cubay", "municity": "Iloilo City", "facebook": null, "url": null, "mobile_contact": null, "landline_connect": null, "email": null, "logo": null, "latitude": 10.73372, "longitude": 122.56039 }, "geometry": { "type": "Point", "coordinates": [ 122.56039, 10.73372 ] } },
{ "type": "Feature", "properties": { "ID": "TR-137", "name": "Triumph Home Depot (Jeepney Stop)", "type": "Transport", "address": "Triumph Home Depot, MacArthur Drive, Tagbac, Jaro, Balantang, Iloilo City, Western Visayas, 5000, Philippines", "barangay": "Balantang", "municity": "Iloilo City", "facebook": null, "url": null, "mobile_contact": null, "landline_connect": null, "email": null, "logo": null, "latitude": 10.757741, "longitude": 122.575141 }, "geometry": { "type": "Point", "coordinates": [ 122.575141, 10.757741 ] } },
{ "type": "Feature", "properties": { "ID": "TR-138", "name": "Isatu (Jeepney Stop)", "type": "Transport", "address": "Isatu, Burgos Street, Railway, La Paz, Tabuc Suba, Iloilo City, Western Visayas, 5000, Philippines", "barangay": null, "municity": "Iloilo City", "facebook": null, "url": null, "mobile_contact": null, "landline_connect": null, "email": null, "logo": null, "latitude": 10.71624, "longitude": 122.566052 }, "geometry": { "type": "Point", "coordinates": [ 122.566052, 10.71624 ] } },
{ "type": "Feature", "properties": { "ID": "TR-141", "name": "SM City Iloilo Helipad", "type": "Transport", "address": "SM City Iloilo Helipad, SM City Terminal Service Road, Bakhaw, Mandurriao, Bolilao, Iloilo City, Western Visayas, 5000, Philippines", "barangay": "Mandurriao", "municity": "Iloilo City", "facebook": null, "url": null, "mobile_contact": null, "landline_connect": null, "email": null, "logo": null, "latitude": 10.715458, "longitude": 122.550961 }, "geometry": { "type": "Point", "coordinates": [ 122.550961, 10.715458 ] } },
{ "type": "Feature", "properties": { "ID": "TR-142", "name": "Injap Tower Helipad", "type": "Transport", "address": "Injap Tower Helipad, East Service Road, San Rafael, Mandurriao, Bolilao, Iloilo City, Western Visayas, 5000, Philippines", "barangay": "Mandurriao", "municity": "Iloilo City", "facebook": null, "url": null, "mobile_contact": null, "landline_connect": null, "email": null, "logo": null, "latitude": 10.713961, "longitude": 122.552799 }, "geometry": { "type": "Point", "coordinates": [ 122.552799, 10.713961 ] } },
{ "type": "Feature", "properties": { "ID": "TR-143", "name": "Power Barge Helipad", "type": "Transport", "address": "Power Barge Helipad, Everlasting Street, Lapuz, Iloilo City, Western Visayas, 5000, Philippines", "barangay": "Lapuz", "municity": "Iloilo City", "facebook": null, "url": null, "mobile_contact": null, "landline_connect": null, "email": null, "logo": null, "latitude": 10.698802, "longitude": 122.588553 }, "geometry": { "type": "Point", "coordinates": [ 122.588553, 10.698802 ] } },
{ "type": "Feature", "properties": { "ID": "TR-145", "name": "SM City Iloilo (Jeepney Stop)", "type": "Transport", "address": "SM City Iloilo, Benigno S. Aquino, Jr. Avenue, Bakhaw, Mandurriao, Bolilao, Iloilo City, Western Visayas, 5000, Philippines", "barangay": "Mandurriao", "municity": "Iloilo City", "facebook": null, "url": null, "mobile_contact": null, "landline_connect": null, "email": null, "logo": null, "latitude": 10.713642, "longitude": 122.552208 }, "geometry": { "type": "Point", "coordinates": [ 122.552208, 10.713642 ] } },
{ "type": "Feature", "properties": { "ID": "TR-147", "name": "Unnamed Helipad ", "type": "Transport", "address": "PG5X+CH7 Iloilo City, Iloilo", "barangay": "Iloilo City Proper", "municity": "Iloilo City", "facebook": null, "url": null, "mobile_contact": null, "landline_connect": null, "email": null, "logo": null, "latitude": 10.708537, "longitude": 122.548936 }, "geometry": { "type": "Point", "coordinates": [ 122.548936, 10.708537 ] } },
{ "type": "Feature", "properties": { "ID": "TR-148", "name": "Unnamed Jeepney Stop", "type": "Transport", "address": "MGWV+V53 Iloilo City, Iloilo", "barangay": "Iloilo City Proper", "municity": "Iloilo City", "facebook": null, "url": null, "mobile_contact": null, "landline_connect": null, "email": null, "logo": null, "latitude": 10.697129, "longitude": 122.542935 }, "geometry": { "type": "Point", "coordinates": [ 122.542935, 10.697129 ] } },
{ "type": "Feature", "properties": { "ID": "TR-149", "name": "Unnamed Jeepney Stop", "type": "Transport", "address": "PHF2+293 Iloilo City, Iloilo", "barangay": "Iloilo City Proper", "municity": "Iloilo City", "facebook": null, "url": null, "mobile_contact": null, "landline_connect": null, "email": null, "logo": null, "latitude": 10.722517, "longitude": 122.55091 }, "geometry": { "type": "Point", "coordinates": [ 122.55091, 10.722517 ] } },
{ "type": "Feature", "properties": { "ID": "TR-150", "name": "Unnamed Jeepney Stop", "type": "Transport", "address": "PGGX+7M8 Iloilo City, Iloilo", "barangay": "Iloilo City Proper", "municity": "Iloilo City", "facebook": null, "url": null, "mobile_contact": null, "landline_connect": null, "email": null, "logo": null, "latitude": 10.725657, "longitude": 122.549194 }, "geometry": { "type": "Point", "coordinates": [ 122.549194, 10.725657 ] } }
]
}
