{
"type": "FeatureCollection",
"name": "HEALTH_OTON_Health_Facilities_Insights",
"crs": { "type": "name", "properties": { "name": "urn:ogc:def:crs:OGC:1.3:CRS84" } },
"features": [
{ "type": "Feature", "properties": { "name": "Vivus Salvare Pharma And Medical Supplies Distribution", "category": "Health", "type": "Pharmacy", "address": "Block 53 Lot 3 Phase 1, Lumina Homes, Brgy. Abilay Norte, Oton, Iloilo City, 5020 Iloilo", "contact_mobile": "9777150541", "contact_landline": null, "email": null, "barangay": "Abilay Norte", "district": null, "municity": "Oton", "province": "Iloilo", "logo": null, "facebook": null, "url": null }, "geometry": { "type": "Point", "coordinates": [ 122.493428, 10.752867 ] } },
{ "type": "Feature", "properties": { "name": "Kaite's Drugmart Oton", "category": "Health", "type": "Pharmacy", "address": "JP Laurel, Oton, 5020 Iloilo", "contact_mobile": "9634404045", "contact_landline": null, "email": null, "barangay": "Alegre", "district": null, "municity": "Oton", "province": "Iloilo", "logo": null, "facebook": null, "url": null }, "geometry": { "type": "Point", "coordinates": [ 122.49618, 10.6861 ] } },
{ "type": "Feature", "properties": { "name": "Nutriance Pharmacy", "category": "Health", "type": "Pharmacy", "address": "Selasor Building, Iloilo - Antique Rd S, Oton, 5020 Iloilo", "contact_mobile": "9228357627", "contact_landline": null, "email": null, "barangay": "Cabanbanan", "district": null, "municity": "Oton", "province": "Iloilo", "logo": null, "facebook": null, "url": null }, "geometry": { "type": "Point", "coordinates": [ 122.4335, 10.684117 ] } },
{ "type": "Feature", "properties": { "name": "Rg's Pharmacy", "category": "Health", "type": "Pharmacy", "address": "PF37+P8 Oton, Iloilo", "contact_mobile": null, "contact_landline": "(033)3333476", "email": "Rgspharmacy060309@gmail.com", "barangay": "Buray", "district": null, "municity": "Oton", "province": "Iloilo", "logo": "https://drive.google.com/uc?export=view&id=1zLLz7cOhucYYdqK_pwruYJNCLWRHopTF", "facebook": "https://www.facebook.com/rgspharmacy", "url": null }, "geometry": { "type": "Point", "coordinates": [ 122.463363, 10.704261 ] } },
{ "type": "Feature", "properties": { "name": "C.R.H. Pharma", "category": "Health", "type": "Pharmacy", "address": "MCJG+VFJ, Oton, Iloilo", "contact_mobile": null, "contact_landline": null, "email": null, "barangay": "Cabanbanan", "district": null, "municity": "Oton", "province": "Iloilo", "logo": null, "facebook": null, "url": null }, "geometry": { "type": "Point", "coordinates": [ 122.426225, 10.682468 ] } },
{ "type": "Feature", "properties": { "name": "Health Center", "category": "Health", "type": "Primary Care Facilities", "address": "PFMP+428, Oton - San Jose-Santa Barbara Rd, Oton, Iloilo", "contact_mobile": null, "contact_landline": null, "email": null, "barangay": "Mambog", "district": null, "municity": "Oton", "province": "Iloilo", "logo": null, "facebook": null, "url": null }, "geometry": { "type": "Point", "coordinates": [ 122.485093, 10.732792 ] } },
{ "type": "Feature", "properties": { "name": "LK Drug", "category": "Health", "type": "Pharmacy", "address": "MFVX+JC7, Pakiad Rd, Oton, Iloilo", "contact_mobile": null, "contact_landline": null, "email": null, "barangay": "San Nicolas", "district": null, "municity": "Oton", "province": "Iloilo", "logo": null, "facebook": null, "url": null }, "geometry": { "type": "Point", "coordinates": [ 122.498539, 10.69403 ] } },
{ "type": "Feature", "properties": { "name": "Farmacia Hinosa Laboratory And Medical Specialty Clinic", "category": "Health", "type": "Diagnostic Centers", "address": "Bonifacio St, Oton, 5020 Iloilo", "contact_mobile": null, "contact_landline": "(033)3932262", "email": null, "barangay": "Poblacion East", "district": null, "municity": "Oton", "province": "Iloilo", "logo": null, "facebook": null, "url": null }, "geometry": { "type": "Point", "coordinates": [ 122.477786, 10.690753 ] } },
{ "type": "Feature", "properties": { "name": "Farmacia Hinosa Laboratory And Medical Specialty Clinic", "category": "Health", "type": "Primary Care Facilities", "address": "Bonifacio St, Oton, 5020 Iloilo", "contact_mobile": null, "contact_landline": "(033)3932262", "email": null, "barangay": "Poblacion East", "district": null, "municity": "Oton", "province": "Iloilo", "logo": null, "facebook": null, "url": null }, "geometry": { "type": "Point", "coordinates": [ 122.477786, 10.690753 ] } },
{ "type": "Feature", "properties": { "name": "Fourth Pharmacy", "category": "Health", "type": "Pharmacy", "address": "MFRG+CX9, Oton, 5020 Iloilo", "contact_mobile": null, "contact_landline": null, "email": null, "barangay": "Poblacion South", "district": null, "municity": "Oton", "province": "Iloilo", "logo": null, "facebook": "https://www.facebook.com/4thPharmacy", "url": null }, "geometry": { "type": "Point", "coordinates": [ 122.477491, 10.69102 ] } },
{ "type": "Feature", "properties": { "name": "Oton Health Center", "category": "Health", "type": "Primary Care Facilities", "address": "MFRG+PXR, Mabini St, Oton, 5020 Iloilo", "contact_mobile": null, "contact_landline": null, "email": null, "barangay": "Poblacion West", "district": null, "municity": "Oton", "province": "Iloilo", "logo": null, "facebook": null, "url": null }, "geometry": { "type": "Point", "coordinates": [ 122.477397, 10.691871 ] } },
{ "type": "Feature", "properties": { "name": "TGP The Generics Pharmacy", "category": "Health", "type": "Pharmacy", "address": "MARKET STALL NO. 5 OTON PUBLIC MARKET, OTON, ILOILO, Oton, Iloilo, Iloilo City, 5020 Iloilo", "contact_mobile": "9778455005", "contact_landline": null, "email": null, "barangay": "Poblacion South", "district": null, "municity": "Oton", "province": "Iloilo", "logo": "https://drive.google.com/uc?export=view&id=1WISI5p2HKjPDV5_QPphHn91Wv_HJhoxf", "facebook": null, "url": "http://www.tgp.com.ph/" }, "geometry": { "type": "Point", "coordinates": [ 122.477595, 10.691329 ] } },
{ "type": "Feature", "properties": { "name": "Tito Dok Escanlar Pharmacy", "category": "Health", "type": "Pharmacy", "address": "MFRG+XW4, Mabini St, Oton, Iloilo", "contact_mobile": null, "contact_landline": null, "email": null, "barangay": "Poblacion West", "district": null, "municity": "Oton", "province": "Iloilo", "logo": null, "facebook": null, "url": null }, "geometry": { "type": "Point", "coordinates": [ 122.477312, 10.692388 ] } },
{ "type": "Feature", "properties": { "name": "Drei & Z Pharmacy", "category": "Health", "type": "Pharmacy", "address": "Mabini St, Oton, 5020 Iloilo", "contact_mobile": "9125352030", "contact_landline": null, "email": "parochelin.laiden@gmail.com", "barangay": "Poblacion South", "district": null, "municity": "Oton", "province": "Iloilo", "logo": null, "facebook": "https://www.facebook.com/profile.php?id=100092559836401", "url": null }, "geometry": { "type": "Point", "coordinates": [ 122.476803, 10.690553 ] } },
{ "type": "Feature", "properties": { "name": "E.V.T Pharmacy", "category": "Health", "type": "Pharmacy", "address": "MFVG+2XC, Mabini St, Oton, Iloilo", "contact_mobile": null, "contact_landline": null, "email": null, "barangay": "Poblacion West", "district": null, "municity": "Oton", "province": "Iloilo", "logo": null, "facebook": null, "url": null }, "geometry": { "type": "Point", "coordinates": [ 122.477395, 10.692572 ] } },
{ "type": "Feature", "properties": { "name": "Engle's Pharmacy", "category": "Health", "type": "Pharmacy", "address": "MFR9+GJG, Benedicto St, Oton, Iloilo", "contact_mobile": null, "contact_landline": null, "email": null, "barangay": "Poblacion South", "district": null, "municity": "Oton", "province": "Iloilo", "logo": null, "facebook": null, "url": null }, "geometry": { "type": "Point", "coordinates": [ 122.469059, 10.691315 ] } },
{ "type": "Feature", "properties": { "name": "Life Extension Philippines Integrative Medical Clinic & Pharmacy (Oton Branch)", "category": "Health", "type": "Primary Care Facilities", "address": "J.C. Zulueta St, Oton, 5020 Iloilo", "contact_mobile": "9173181195", "contact_landline": null, "email": null, "barangay": "Poblacion South", "district": null, "municity": "Oton", "province": "Iloilo", "logo": null, "facebook": null, "url": "https://www.lifeextensionphilippines.ph/" }, "geometry": { "type": "Point", "coordinates": [ 122.472975, 10.691266 ] } },
{ "type": "Feature", "properties": { "name": "Life Extension Philippines Integrative Medical Clinic & Pharmacy (Oton Branch)", "category": "Health", "type": "Pharmacy", "address": "J.C. Zulueta St, Oton, 5020 Iloilo", "contact_mobile": "9173181195", "contact_landline": null, "email": null, "barangay": "Poblacion South", "district": null, "municity": "Oton", "province": "Iloilo", "logo": null, "facebook": null, "url": "https://www.lifeextensionphilippines.ph/" }, "geometry": { "type": "Point", "coordinates": [ 122.472975, 10.691266 ] } },
{ "type": "Feature", "properties": { "name": "Medicos-Oton Physicians", "category": "Health", "type": "Diagnostic Centers", "address": "MFRF+HWP, Oton, Iloilo", "contact_mobile": null, "contact_landline": null, "email": null, "barangay": "Poblacion South", "district": null, "municity": "Oton", "province": "Iloilo", "logo": null, "facebook": null, "url": null }, "geometry": { "type": "Point", "coordinates": [ 122.474842, 10.691461 ] } },
{ "type": "Feature", "properties": { "name": "Medicus Diagnostic Center - Oton", "category": "Health", "type": "Diagnostic Centers", "address": "J.C Zulueta Street, Oton, Iloilo", "contact_mobile": null, "contact_landline": "(033)5101193", "email": null, "barangay": "Poblacion South", "district": null, "municity": "Oton", "province": "Iloilo", "logo": null, "facebook": "https://www.facebook.com/medicusoton.ph", "url": "http://www.medicus.com.ph/" }, "geometry": { "type": "Point", "coordinates": [ 122.47024, 10.691763 ] } },
{ "type": "Feature", "properties": { "name": "Oton Dental Imaging Center", "category": "Health", "type": "Specialty Outpatient Centers", "address": "J.C Zulueta Street, Oton, Iloilo", "contact_mobile": null, "contact_landline": "(033)5030261", "email": null, "barangay": "Poblacion South", "district": null, "municity": "Oton", "province": "Iloilo", "logo": "https://drive.google.com/uc?export=view&id=1smiWROeLZiWbv7GU-3Y7i-nxfA6ReGkL", "facebook": "https://www.facebook.com/profile.php?id=100077109690965", "url": null }, "geometry": { "type": "Point", "coordinates": [ 122.476048, 10.69108 ] } },
{ "type": "Feature", "properties": { "name": "Quicklab Diagnostic, Inc", "category": "Health", "type": "Diagnostic Centers", "address": "MFRF+J36, Oton, Iloilo", "contact_mobile": null, "contact_landline": "(033)70504", "email": null, "barangay": "Poblacion South", "district": null, "municity": "Oton", "province": "Iloilo", "logo": null, "facebook": null, "url": null }, "geometry": { "type": "Point", "coordinates": [ 122.472652, 10.691526 ] } },
{ "type": "Feature", "properties": { "name": "Rose Pharmacy", "category": "Health", "type": "Pharmacy", "address": "Gaisano Capital,J.C Zulueta st.,Oton, Iloilo City, Iloilo", "contact_mobile": null, "contact_landline": "(033)3350615", "email": null, "barangay": "Poblacion South", "district": null, "municity": "Oton", "province": "Iloilo", "logo": "https://drive.google.com/uc?export=view&id=14JIJ98mtjSpKY0CqPhcFQnA-uvnzQwLh", "facebook": null, "url": "http://www.rosepharmacy.com/" }, "geometry": { "type": "Point", "coordinates": [ 122.469947, 10.691374 ] } },
{ "type": "Feature", "properties": { "name": "Silla Medica Pharmacy", "category": "Health", "type": "Pharmacy", "address": "MFRG+MRG, Mabini St, Oton, Iloilo", "contact_mobile": null, "contact_landline": null, "email": null, "barangay": "Poblacion South", "district": null, "municity": "Oton", "province": "Iloilo", "logo": null, "facebook": null, "url": null }, "geometry": { "type": "Point", "coordinates": [ 122.477053, 10.691699 ] } },
{ "type": "Feature", "properties": { "name": "Sonido Dental Clinic", "category": "Health", "type": "Specialty Outpatient Centers", "address": "2nd Floor, Aria Plaza, Mabini St, Oton, Iloilo", "contact_mobile": "9288241427", "contact_landline": null, "email": "sonidodentalclinic1@gmail.com", "barangay": "Poblacion South", "district": null, "municity": "Oton", "province": "Iloilo", "logo": "https://drive.google.com/uc?export=view&id=11I4V9nu-80hXcIm7C0eZ4EiiPn5zvE1O", "facebook": "https://www.facebook.com/sonidodentalclinic", "url": null }, "geometry": { "type": "Point", "coordinates": [ 122.476586, 10.690607 ] } },
{ "type": "Feature", "properties": { "name": "Talamera-Magapa Dental Clinic Oton Branch", "category": "Health", "type": "Specialty Outpatient Centers", "address": "Mabini St, Oton, 5020 Iloilo", "contact_mobile": "9398255222", "contact_landline": null, "email": "pagibigfelix@yahoo.com", "barangay": "Poblacion West", "district": null, "municity": "Oton", "province": "Iloilo", "logo": "https://drive.google.com/uc?export=view&id=1q48M4HgqJsTv74Q5fRpHr02ZZeCSKoKL", "facebook": "https://www.facebook.com/TMDCtonBranch?mibextid=LQQJ4d", "url": null }, "geometry": { "type": "Point", "coordinates": [ 122.477411, 10.692609 ] } },
{ "type": "Feature", "properties": { "name": "Tri-Med Pharmaceutical Distributor", "category": "Health", "type": "Pharmacy", "address": "MFRG+FH5 LORD'S PLACE SPACE RENTAL, J.C. Zulueta St, Oton, 5020 Iloilo", "contact_mobile": null, "contact_landline": null, "email": null, "barangay": "Poblacion South", "district": null, "municity": "Oton", "province": "Iloilo", "logo": null, "facebook": null, "url": null }, "geometry": { "type": "Point", "coordinates": [ 122.476469, 10.691127 ] } },
{ "type": "Feature", "properties": { "name": "Allgreen - Iloilo", "category": "Health", "type": "Pharmacy", "address": "GF VISTAMALL, ALLGREEN ILOILO, Oton, 5020 Iloilo", "contact_mobile": null, "contact_landline": null, "email": "allgreenilo2022@gmail.com", "barangay": "Polo Maestra Bita", "district": null, "municity": "Oton", "province": "Iloilo", "logo": "https://drive.google.com/uc?export=view&id=13NqV8AGp0fNSR37SMFiHvf1V9QiY8j_I", "facebook": "https://www.facebook.com/profile.php?id=100089813082290", "url": null }, "geometry": { "type": "Point", "coordinates": [ 122.513507, 10.736783 ] } }
]
}
