{
"type": "FeatureCollection",
"name": "HEALTH_ILOILO_Health_Facilities_Insights",
"crs": { "type": "name", "properties": { "name": "urn:ogc:def:crs:OGC:1.3:CRS84" } },
"features": [
{ "type": "Feature", "properties": { "name": "Berlin Pharmacy", "category": "Health", "type": "Pharmacy", "address": "MHW3+HX8, Infante cor. Delgado, Molo, Iloilo City, 5000 Iloilo", "contact_mobile": null, "contact_landline": "(033)3367286", "email": null, "barangay": "Timawa Tanza I", "district": "City Proper", "municity": "Iloilo City", "province": "Iloilo", "logo": null, "facebook": null, "url": null }, "geometry": { "type": "Point", "coordinates": [ 122.554957, 10.696405 ] } },
{ "type": "Feature", "properties": { "name": "Best Care Specialty Clinic And Diagnostic Center, Incorporated", "category": "Health", "type": "Specialty Outpatient Centers", "address": "44 Quezon St, Iloilo City Proper, Iloilo City, 5000 Iloilo", "contact_mobile": null, "contact_landline": "(033)3372789", "email": null, "barangay": "Roxas Village", "district": "City Proper", "municity": "Iloilo City", "province": "Iloilo", "logo": null, "facebook": null, "url": null }, "geometry": { "type": "Point", "coordinates": [ 122.566218, 10.695493 ] } },
{ "type": "Feature", "properties": { "name": "Best Care Specialty Clinic And Diagnostic Center, Incorporated", "category": "Health", "type": "Diagnostic Centers", "address": "44 Quezon St, Iloilo City Proper, Iloilo City, 5000 Iloilo", "contact_mobile": null, "contact_landline": "(033)3372789", "email": null, "barangay": "Roxas Village", "district": "City Proper", "municity": "Iloilo City", "province": "Iloilo", "logo": null, "facebook": null, "url": null }, "geometry": { "type": "Point", "coordinates": [ 122.566218, 10.695493 ] } },
{ "type": "Feature", "properties": { "name": "Bunda Pharmacy", "category": "Health", "type": "Pharmacy", "address": "DOOR B, MHVC+2FV CK BLDG, Mapa St, Iloilo City Proper, Iloilo City, 5000 Iloilo", "contact_mobile": null, "contact_landline": null, "email": null, "barangay": "Ortiz", "district": "City Proper", "municity": "Iloilo City", "province": "Iloilo", "logo": null, "facebook": null, "url": null }, "geometry": { "type": "Point", "coordinates": [ 122.571178, 10.692628 ] } },
{ "type": "Feature", "properties": { "name": "Dr. V.T. Taleon Medical Clinic X-ray and Diagnostic Laboratory", "category": "Health", "type": "Diagnostic Centers", "address": "YMCA Building, Iznart Street, Danao, Iloilo City, Iloilo", "contact_mobile": null, "contact_landline": "(033)3372568", "email": null, "barangay": "President Roxas", "district": "City Proper", "municity": "Iloilo City", "province": "Iloilo", "logo": null, "facebook": null, "url": null }, "geometry": { "type": "Point", "coordinates": [ 122.569174, 10.700678 ] } },
{ "type": "Feature", "properties": { "name": "Health Metrics Inc.", "category": "Health", "type": "Diagnostic Centers", "address": "AMK Building, 68 Gen. Luna St., Iloilo City", "contact_mobile": null, "contact_landline": null, "email": "hmi-iloilo@healthmetrics.com.ph", "barangay": "Inday", "district": "City Proper", "municity": "Iloilo City", "province": "Iloilo", "logo": "https://drive.google.com/uc?export=view&id=11lvCSXFih_DfNmV0-zjFavejzBdJHefZ", "facebook": "https://www.facebook.com/healthmetricsPH", "url": "https://www.healthmetrics.com.ph/" }, "geometry": { "type": "Point", "coordinates": [ 122.558448, 10.700424 ] } },
{ "type": "Feature", "properties": { "name": "Healthlink (Iloilo), Inc.", "category": "Health", "type": "Primary Care Facilities", "address": "Mabini St, Iloilo City Proper, Iloilo City, 5000 Iloilo", "contact_mobile": "0950-571-8337", "contact_landline": "(033)3364098", "email": null, "barangay": "San Agustin", "district": "City Proper", "municity": "Iloilo City", "province": "Iloilo", "logo": "https://drive.google.com/uc?export=view&id=11jz6Zk0S3dkGLlfpAtLVevvANoe4H0Tv", "facebook": null, "url": "http://www.healthlinkiloilo.com/" }, "geometry": { "type": "Point", "coordinates": [ 122.564663, 10.698748 ] } },
{ "type": "Feature", "properties": { "name": "Iloilo City Social Hygiene Clinic / Klinika Ilonggo", "category": "Health", "type": "Specialty Outpatient Centers", "address": "MHV5+98J, Rizal St, Iloilo City Proper, Iloilo City, Iloilo", "contact_mobile": null, "contact_landline": "(033)3153031", "email": null, "barangay": "Tanza-Esperanza", "district": "City Proper", "municity": "Iloilo City", "province": "Iloilo", "logo": null, "facebook": null, "url": null }, "geometry": { "type": "Point", "coordinates": [ 122.558257, 10.693468 ] } },
{ "type": "Feature", "properties": { "name": "Kua Women's Clinic & Ultrasound Center", "category": "Health", "type": "Specialty Outpatient Centers", "address": "Gloria 168 Bdlg., 21 Ledesma St, Iloilo City Proper, Iloilo City, 5000 Iloilo", "contact_mobile": null, "contact_landline": "333930025", "email": null, "barangay": "Roxas Village", "district": "City Proper", "municity": "Iloilo City", "province": "Iloilo", "logo": null, "facebook": null, "url": null }, "geometry": { "type": "Point", "coordinates": [ 122.565607, 10.695188 ] } },
{ "type": "Feature", "properties": { "name": "Life Extension (robinsons Mall Iloilo) Medical Clinic, Pharmacy, & Laboratory Center", "category": "Health", "type": "Primary Care Facilities", "address": "Level 1 Shophouse, Robinson's Place, City, De Leon St, Iloilo City Proper, Iloilo City, Iloilo", "contact_mobile": "9173181142", "contact_landline": null, "email": null, "barangay": "Roxas Village", "district": "City Proper", "municity": "Iloilo City", "province": "Iloilo", "logo": null, "facebook": null, "url": null }, "geometry": { "type": "Point", "coordinates": [ 122.566039, 10.693584 ] } },
{ "type": "Feature", "properties": { "name": "Life Extension (robinsons Mall Iloilo) Medical Clinic, Pharmacy, & Laboratory Center", "category": "Health", "type": "Pharmacy", "address": "Level 1 Shophouse, Robinson's Place, City, De Leon St, Iloilo City Proper, Iloilo City, Iloilo", "contact_mobile": "9173181142", "contact_landline": null, "email": null, "barangay": "Roxas Village", "district": "City Proper", "municity": "Iloilo City", "province": "Iloilo", "logo": null, "facebook": null, "url": null }, "geometry": { "type": "Point", "coordinates": [ 122.566039, 10.693584 ] } },
{ "type": "Feature", "properties": { "name": "Medicus Eye Clinic", "category": "Health", "type": "Specialty Outpatient Centers", "address": "2nd floor, Medicus Main, Lourdes Bldg, Quezon St, Iloilo City Proper, Iloilo City, 5000 Iloilo", "contact_mobile": "9995575386", "contact_landline": null, "email": null, "barangay": "Danao", "district": "City Proper", "municity": "Iloilo City", "province": "Iloilo", "logo": null, "facebook": null, "url": null }, "geometry": { "type": "Point", "coordinates": [ 122.566544, 10.701083 ] } },
{ "type": "Feature", "properties": { "name": "Mercury Drug Gen. Luna Branch", "category": "Health", "type": "Pharmacy", "address": "Lolita Building, General Luna St, Iloilo City Proper, Iloilo City, 5000 Iloilo", "contact_mobile": null, "contact_landline": null, "email": null, "barangay": "Sampaguita", "district": "City Proper", "municity": "Iloilo City", "province": "Iloilo", "logo": "https://drive.google.com/uc?export=view&id=1-3ZIoKxrSzJNiR__AhNjEIaL8XWYaw_C", "facebook": null, "url": "https://www.mercurydrug.com/" }, "geometry": { "type": "Point", "coordinates": [ 122.566203, 10.701207 ] } },
{ "type": "Feature", "properties": { "name": "Mercury Drug Iznart Branch", "category": "Health", "type": "Pharmacy", "address": "TCT Building, Iznart St, Iloilo City Proper, Iloilo City, Iloilo", "contact_mobile": null, "contact_landline": "(033)3350710", "email": null, "barangay": "Edganzon", "district": "City Proper", "municity": "Iloilo City", "province": "Iloilo", "logo": "https://drive.google.com/uc?export=view&id=1-3ZIoKxrSzJNiR__AhNjEIaL8XWYaw_C", "facebook": null, "url": "https://www.mercurydrug.com/" }, "geometry": { "type": "Point", "coordinates": [ 122.569, 10.697102 ] } },
{ "type": "Feature", "properties": { "name": "Mercury Drug Valeria Branch", "category": "Health", "type": "Pharmacy", "address": "corner Valeria St, Iloilo City Proper, Iloilo City, Iloilo", "contact_mobile": null, "contact_landline": "(033)3377727", "email": null, "barangay": "Edganzon", "district": "City Proper", "municity": "Iloilo City", "province": "Iloilo", "logo": "https://drive.google.com/uc?export=view&id=1-3ZIoKxrSzJNiR__AhNjEIaL8XWYaw_C", "facebook": null, "url": "https://www.mercurydrug.com/" }, "geometry": { "type": "Point", "coordinates": [ 122.567604, 10.697503 ] } },
{ "type": "Feature", "properties": { "name": "Plaza Libertad Medical Specialists' Center", "category": "Health", "type": "Primary Care Facilities", "address": "De la Rama St, Iloilo City Proper, Iloilo City, Iloilo", "contact_mobile": null, "contact_landline": "333368604", "email": null, "barangay": "Zamora-Melliza", "district": "City Proper", "municity": "Iloilo City", "province": "Iloilo", "logo": null, "facebook": null, "url": "https://www.plmsciloilo.com/" }, "geometry": { "type": "Point", "coordinates": [ 122.574336, 10.693942 ] } },
{ "type": "Feature", "properties": { "name": "Plaza Libertad Medical Specialists' Center", "category": "Health", "type": "Diagnostic Centers", "address": "De la Rama St, Iloilo City Proper, Iloilo City, Iloilo", "contact_mobile": null, "contact_landline": "333368604", "email": null, "barangay": "Zamora-Melliza", "district": "City Proper", "municity": "Iloilo City", "province": "Iloilo", "logo": null, "facebook": null, "url": "https://www.plmsciloilo.com/" }, "geometry": { "type": "Point", "coordinates": [ 122.574336, 10.693942 ] } },
{ "type": "Feature", "properties": { "name": "St. Paul's Hospital of Iloilo, Inc.", "category": "Health", "type": "Hospitals", "address": "Saint Paul's Hospital, General Luna St, Iloilo City Proper, Iloilo City, 5000 Iloilo", "contact_mobile": null, "contact_landline": "(033) 337 2742", "email": "sphiloilo@gmail.com ", "barangay": "Danao", "district": "City Proper", "municity": "Iloilo City", "province": "Iloilo", "logo": "https://drive.google.com/uc?export=view&id=1yGNyr4iSFZw9anlaX16hkbvvenS6sdzL", "facebook": "https://www.facebook.com/SphiloiloOfficial", "url": "https://sphiloilo.com/" }, "geometry": { "type": "Point", "coordinates": [ 122.566809, 10.701885 ] } },
{ "type": "Feature", "properties": { "name": "TGP The Generics Pharmacy", "category": "Health", "type": "Pharmacy", "address": "1-01322 ROBINSONS PLACE ILOILO, CORNER DE LEON - QUEZON ST., ILOILO CITY, ILOILO, Iloilo City,, Iloilo City, 5000 Iloilo", "contact_mobile": "9953234740", "contact_landline": null, "email": null, "barangay": "Roxas Village", "district": "City Proper", "municity": "Iloilo City", "province": "Iloilo", "logo": "https://drive.google.com/uc?export=view&id=1WISI5p2HKjPDV5_QPphHn91Wv_HJhoxf", "facebook": null, "url": "http://www.tgp.com.ph/" }, "geometry": { "type": "Point", "coordinates": [ 122.564933, 10.693483 ] } },
{ "type": "Feature", "properties": { "name": "Asia Pacific Medical Center - Iloilo", "category": "Health", "type": "Hospitals", "address": "Brgy. Ungka, Jaro, Iloilo City, Philippines 5000", "contact_mobile": null, "contact_landline": "(033) 339 9991", "email": "customercare@apmc-iloilo.com", "barangay": "Sambag", "district": "Jaro", "municity": "Iloilo City", "province": "Iloilo", "logo": "https://drive.google.com/uc?export=view&id=15uTruCTnoPvr2yCHef1xj6N6hBAwtVb8", "facebook": "https://www.facebook.com/asiapacificmedicalcenteriloilo", "url": "https://apmc-iloilo.com/" }, "geometry": { "type": "Point", "coordinates": [ 122.539919, 10.743666 ] } },
{ "type": "Feature", "properties": { "name": "Balabago Health Center", "category": "Health", "type": "Primary Care Facilities", "address": "PHQG+7RH, Balabago Road, Jaro, Iloilo City, Iloilo", "contact_mobile": null, "contact_landline": "(033) 301 4470", "email": null, "barangay": "Balabago", "district": "Jaro", "municity": "Iloilo City", "province": "Iloilo", "logo": null, "facebook": null, "url": null }, "geometry": { "type": "Point", "coordinates": [ 122.577108, 10.738201 ] } },
{ "type": "Feature", "properties": { "name": "Balberona Bluestar Family Planning And Maternity Clinic", "category": "Health", "type": "Specialty Outpatient Centers", "address": "Zone 1, Lot 2, Block 3, Coastal View Subdivision, Barangay, Jaro, Iloilo City, Iloilo", "contact_mobile": "9197960644", "contact_landline": null, "email": null, "barangay": "Balabago", "district": "Jaro", "municity": "Iloilo City", "province": "Iloilo", "logo": null, "facebook": null, "url": null }, "geometry": { "type": "Point", "coordinates": [ 122.582868, 10.742392 ] } },
{ "type": "Feature", "properties": { "name": "Brgy. San Pedro Health Center", "category": "Health", "type": "Primary Care Facilities", "address": "PHC8+57M, Brgy. M.H. Del Pilar, Jaro, Iloilo City, 5000 Iloilo", "contact_mobile": null, "contact_landline": null, "email": null, "barangay": "San Pedro (Jaro)", "district": "Jaro", "municity": "Iloilo City", "province": "Iloilo", "logo": null, "facebook": null, "url": null }, "geometry": { "type": "Point", "coordinates": [ 122.565681, 10.720462 ] } },
{ "type": "Feature", "properties": { "name": "Glory Pharmacy", "category": "Health", "type": "Pharmacy", "address": "QH6H+W9C, Jaro, Iloilo City, Iloilo", "contact_mobile": null, "contact_landline": null, "email": null, "barangay": "Tagbac", "district": "Jaro", "municity": "Iloilo City", "province": "Iloilo", "logo": null, "facebook": null, "url": null }, "geometry": { "type": "Point", "coordinates": [ 122.57836, 10.762283 ] } },
{ "type": "Feature", "properties": { "name": "Iloilo Mission Hospital", "category": "Health", "type": "Hospitals", "address": "Mission Rd, Jaro, Iloilo City, Iloilo", "contact_mobile": null, "contact_landline": "(033) 320 0315", "email": "info@imh.ph", "barangay": "Montinola", "district": "Jaro", "municity": "Iloilo City", "province": "Iloilo", "logo": "https://drive.google.com/uc?export=view&id=1NqvU04E54Qf5v0yq1S7sA-tGw_AuEQK8", "facebook": "https://www.facebook.com/iloilomissionhospital", "url": null }, "geometry": { "type": "Point", "coordinates": [ 122.560529, 10.714712 ] } },
{ "type": "Feature", "properties": { "name": "Jaro I Health Center Iloilo City Health Office", "category": "Health", "type": "Primary Care Facilities", "address": "Washington St., Brgy. Benedcito Jaro, Iloilo City, Philippines", "contact_mobile": null, "contact_landline": null, "email": "jaro1healthcenter@yahoo.com", "barangay": "Benedicto (Jaro)", "district": "Jaro", "municity": "Iloilo City", "province": "Iloilo", "logo": null, "facebook": "https://www.facebook.com/profile.php?id=100089542789232", "url": null }, "geometry": { "type": "Point", "coordinates": [ 122.557678, 10.725491 ] } },
{ "type": "Feature", "properties": { "name": "Mercury Drug Jaro Branch", "category": "Health", "type": "Pharmacy", "address": "Jaro Cathedral Seminario St, Jaro, Iloilo City, 5000 Iloilo", "contact_mobile": null, "contact_landline": "(033)3294127", "email": null, "barangay": "El 98 Castilla (Claudio Lopez)", "district": "Jaro", "municity": "Iloilo City", "province": "Iloilo", "logo": "https://drive.google.com/uc?export=view&id=1-3ZIoKxrSzJNiR__AhNjEIaL8XWYaw_C", "facebook": null, "url": "https://www.mercurydrug.com/" }, "geometry": { "type": "Point", "coordinates": [ 122.55562, 10.723343 ] } },
{ "type": "Feature", "properties": { "name": "Metro Iloilo Hospital And Medical Center, Inc.", "category": "Health", "type": "Hospitals", "address": "QH7J+297, Metropolis Ave, Jaro, Iloilo City, Iloilo", "contact_mobile": null, "contact_landline": "(033) 3271527", "email": null, "barangay": "Tagbac", "district": "Jaro", "municity": "Iloilo City", "province": "Iloilo", "logo": "https://drive.google.com/uc?export=view&id=1hIGeNq7jeQfGSqKFOc9bxAZ7xVV92hFJ", "facebook": "https://www.facebook.com/MIHMCIPH/", "url": "http://metroiloilohospital.com/" }, "geometry": { "type": "Point", "coordinates": [ 122.580926, 10.76253 ] } },
{ "type": "Feature", "properties": { "name": "Midwest Urology Iloilo", "category": "Health", "type": "Specialty Outpatient Centers", "address": "Jalandoni St, Jaro, Iloilo City, 5000 Iloilo", "contact_mobile": null, "contact_landline": "(033)3301756", "email": "midwesturologycenter@yahoo.co", "barangay": "Our Lady Of Lourdes", "district": "Jaro", "municity": "Iloilo City", "province": "Iloilo", "logo": null, "facebook": "https://www.facebook.com/people/Mid-West-Urology/100004267639273/", "url": null }, "geometry": { "type": "Point", "coordinates": [ 122.559279, 10.717274 ] } },
{ "type": "Feature", "properties": { "name": "Newborn Screening Center Visayas", "category": "Health", "type": "Diagnostic Centers", "address": "PH86+45F, West Visayas State University Medical Center, E. Lopez St., Jaro,, Iloilo City, 5000 Iloilo", "contact_mobile": "\n0917 589 4011", "contact_landline": "(033)3293744", "email": "info@newbornscreening.ph", "barangay": "Montinola", "district": "Jaro", "municity": "Iloilo City", "province": "Iloilo", "logo": "https://drive.google.com/uc?export=view&id=1UUfI6mYJeEPXIvASre1q2Fsii0gyOdes", "facebook": null, "url": "http://www.newbornscreening.ph/" }, "geometry": { "type": "Point", "coordinates": [ 122.560408, 10.715323 ] } },
{ "type": "Feature", "properties": { "name": "Rx Queen Pharmacy", "category": "Health", "type": "Pharmacy", "address": "Queencita Building, E Lopez St, Jaro, Iloilo City, 5000 Iloilo", "contact_mobile": null, "contact_landline": "(033)5083762", "email": null, "barangay": "Montinola", "district": "Jaro", "municity": "Iloilo City", "province": "Iloilo", "logo": null, "facebook": null, "url": null }, "geometry": { "type": "Point", "coordinates": [ 122.562401, 10.715779 ] } },
{ "type": "Feature", "properties": { "name": "Transnational Medical & Diagnostic Center, Inc.", "category": "Health", "type": "Primary Care Facilities", "address": "PHC5+X96, Jaro, Iloilo City, Iloilo", "contact_mobile": null, "contact_landline": null, "email": null, "barangay": "Luna (Jaro)", "district": "Jaro", "municity": "Iloilo City", "province": "Iloilo", "logo": null, "facebook": null, "url": null }, "geometry": { "type": "Point", "coordinates": [ 122.558375, 10.722404 ] } },
{ "type": "Feature", "properties": { "name": "Transnational Medical & Diagnostic Center, Inc.", "category": "Health", "type": "Diagnostic Centers", "address": "PHC5+X96, Jaro, Iloilo City, Iloilo", "contact_mobile": null, "contact_landline": null, "email": null, "barangay": "Luna (Jaro)", "district": "Jaro", "municity": "Iloilo City", "province": "Iloilo", "logo": null, "facebook": null, "url": null }, "geometry": { "type": "Point", "coordinates": [ 122.558375, 10.722404 ] } },
{ "type": "Feature", "properties": { "name": "West Visayas State University Medical Center", "category": "Health", "type": "Hospitals", "address": "PH86+CFH, E Lopez St, Jaro, Iloilo City, 5000 Iloilo", "contact_mobile": null, "contact_landline": "(033) 320 2431", "email": "medcenter@wvsu.edu.ph", "barangay": "Montinola", "district": "Jaro", "municity": "Iloilo City", "province": "Iloilo", "logo": "https://drive.google.com/uc?export=view&id=1md5WpFbF4RFoaVkFSU015E5H21eIFMYl", "facebook": "https://www.facebook.com/wvsuofficialpage", "url": "http://www.wvsu.edu.ph/medcenter/" }, "geometry": { "type": "Point", "coordinates": [ 122.561236, 10.716062 ] } },
{ "type": "Feature", "properties": { "name": "Iloilo Doctors' Hospital, Inc.", "category": "Health", "type": "Hospitals", "address": "West Ave, Molo, Iloilo City, 5000 Iloilo", "contact_mobile": null, "contact_landline": "(033) 337 8646", "email": "info@iloilodoctorshospital.com", "barangay": "East Timawa", "district": "Molo", "municity": "Iloilo City", "province": "Iloilo", "logo": "https://drive.google.com/uc?export=view&id=1va158_p74a_B21fbZatCn4gkK88tFQud", "facebook": "facebook.com/iloilodoctorshospitalinc", "url": "https://iloilodoctorshospital.com/" }, "geometry": { "type": "Point", "coordinates": [ 122.554451, 10.696614 ] } },
{ "type": "Feature", "properties": { "name": "The Medical City Iloilo", "category": "Health", "type": "Hospitals", "address": "Esplanade 2, Molo, Iloilo City", "contact_mobile": "(+63) 956-276-0764", "contact_landline": " (033) 339-7340", "email": "info@themedicalcityiloilo.com", "barangay": "Tap-oc", "district": "Molo", "municity": "Iloilo City", "province": "Iloilo", "logo": "https://drive.google.com/uc?export=view&id=1fG1tMLEfwoxlldcjWkMGDWfFEzzXqRKp", "facebook": "https://www.facebook.com/themedicalcityiloilo", "url": "http://www.themedicalcityiloilo.com/" }, "geometry": { "type": "Point", "coordinates": [ 122.542771, 10.69955 ] } },
{ "type": "Feature", "properties": { "name": "Active Hearing Center - Qualimed-Iloilo", "category": "Health", "type": "Specialty Outpatient Centers", "address": "3rd floor Eye and Ear Center, Qualimed Hospital, Donato Pison Ave, Mandurriao, Iloilo City, Iloilo", "contact_mobile": "9274947065", "contact_landline": null, "email": "info@activehearing.com.ph", "barangay": "San Rafael", "district": "Mandurriao", "municity": "Iloilo City", "province": "Iloilo", "logo": "https://drive.google.com/uc?export=view&id=1mlgmyHg7qFxgNhu_lua7wEI6J-VBv-QK", "facebook": "https://www.facebook.com/achiloilo/", "url": "http://www.activehearing.com.ph/" }, "geometry": { "type": "Point", "coordinates": [ 122.547812, 10.706566 ] } },
{ "type": "Feature", "properties": { "name": "Center For Health Development - Western Visayas", "category": "Health", "type": "Primary Care Facilities", "address": "PG9R+VPV, Mandurriao, Iloilo City, 5000 Iloilo", "contact_mobile": null, "contact_landline": "(033)3322329", "email": null, "barangay": "Abeto Mirasol Taft South (Quirino Abeto)", "district": "Mandurriao", "municity": "Iloilo City", "province": "Iloilo", "logo": "https://drive.google.com/uc?export=view&id=1px6-YA_xUNg-g5od4UOUmPZa-PpdWG1F", "facebook": null, "url": "http://ro6.doh.gov.ph/" }, "geometry": { "type": "Point", "coordinates": [ 122.541839, 10.719741 ] } },
{ "type": "Feature", "properties": { "name": "Clinica Konsulta Inc Iloilo", "category": "Health", "type": "Primary Care Facilities", "address": "2nd floor Unit B15A & B15B Festive Walk Annex Abeto, Mirasol St, Mandurriao, Iloilo City, 5000 Iloilo", "contact_mobile": "9185851083", "contact_landline": null, "email": null, "barangay": "Buhang Taft North", "district": "Mandurriao", "municity": "Iloilo City", "province": "Iloilo", "logo": null, "facebook": null, "url": null }, "geometry": { "type": "Point", "coordinates": [ 122.547496, 10.717508 ] } },
{ "type": "Feature", "properties": { "name": "Healthway Qualimed Hospital Iloilo", "category": "Health", "type": "Hospitals", "address": "Atria Park District, Mandurriao, Iloilo City, Iloilo", "contact_mobile": "(63) 948-041-4379", "contact_landline": "(033) 500-4000", "email": "care@healthway.com.ph", "barangay": "San Rafael", "district": "Mandurriao", "municity": "Iloilo City", "province": "Iloilo", "logo": "https://drive.google.com/uc?export=view&id=1gr8HmSUIHnBnr0J5KwZ0MwG2HQxcjN0w", "facebook": "https://www.facebook.com/HMNQualimed.Iloilo", "url": "https://healthwaymedicalnetwork.com.ph/our-network/healthway-qualimed-iloilo/" }, "geometry": { "type": "Point", "coordinates": [ 122.547707, 10.706543 ] } },
{ "type": "Feature", "properties": { "name": "Identified Dental Clinic - Mandurriao Clinic", "category": "Health", "type": "Specialty Outpatient Centers", "address": "80 Guzman St, Mandurriao, Iloilo City, Iloilo", "contact_mobile": "9930683668", "contact_landline": null, "email": null, "barangay": "Guzman-Jesena", "district": "Mandurriao", "municity": "Iloilo City", "province": "Iloilo", "logo": null, "facebook": "https://www.facebook.com/IdentifiedDentalClinic/", "url": null }, "geometry": { "type": "Point", "coordinates": [ 122.53053, 10.72367 ] } },
{ "type": "Feature", "properties": { "name": "Mandurriao Health Center", "category": "Health", "type": "Primary Care Facilities", "address": "PG8P+PGM, Mandurriao, Iloilo City, Iloilo", "contact_mobile": "9286205983", "contact_landline": null, "email": "mandurriaohealthcenter@gmail.com / jtanceno@yahoo.com", "barangay": "Oñate de Leon", "district": "Mandurriao", "municity": "Iloilo City", "province": "Iloilo", "logo": null, "facebook": null, "url": null }, "geometry": { "type": "Point", "coordinates": [ 122.536266, 10.716826 ] } },
{ "type": "Feature", "properties": { "name": "Maxicare Primary Care Clinic - Iloilo", "category": "Health", "type": "Primary Care Facilities", "address": "Retail 4, Three Techno Place Iloilo Business Park, Megaworld ILO, Mandurriao, Iloilo City, 5000", "contact_mobile": "9178079018", "contact_landline": null, "email": "customercare@maxicare.com.ph", "barangay": "Buhang Taft North", "district": "Mandurriao", "municity": "Iloilo City", "province": "Iloilo", "logo": null, "facebook": null, "url": "https://www.mhsi.com.ph/" }, "geometry": { "type": "Point", "coordinates": [ 122.545906, 10.713197 ] } },
{ "type": "Feature", "properties": { "name": "Medicus Medical Center (Hospital)", "category": "Health", "type": "Hospitals", "address": "Medicus Medical Center, R.V. Bernardo Ave. Brgy. San Rafael, Mandurriao, Iloilo City 5000 Iloilo Province, Western Visayas, Philippines", "contact_mobile": null, "contact_landline": "(033) 328 7777", "email": null, "barangay": "San Rafael", "district": "Mandurriao", "municity": "Iloilo City", "province": "Iloilo", "logo": "https://drive.google.com/uc?export=view&id=1NqvU04E54Qf5v0yq1S7sA-tGw_AuEQK8", "facebook": "https://www.facebook.com/medicusmedicalcenter.iloilo", "url": "http://www.medicusmedicalcenter.com/" }, "geometry": { "type": "Point", "coordinates": [ 122.552246, 10.702738 ] } },
{ "type": "Feature", "properties": { "name": "Mercury Drug San Rafael Branch", "category": "Health", "type": "Pharmacy", "address": "PG4X+M83, The Shops at Atria, Donato Pison Avenue, San Rafael, Mandurriao, Iloilo City, 5000 Iloilo", "contact_mobile": null, "contact_landline": "(033)5015072", "email": null, "barangay": "San Rafael", "district": "Mandurriao", "municity": "Iloilo City", "province": "Iloilo", "logo": "https://drive.google.com/uc?export=view&id=1-3ZIoKxrSzJNiR__AhNjEIaL8XWYaw_C", "facebook": null, "url": "https://www.mercurydrug.com/" }, "geometry": { "type": "Point", "coordinates": [ 122.54832, 10.706652 ] } },
{ "type": "Feature", "properties": { "name": "Overseas Filipino Workers-OFW Medical Clinic & Hospital", "category": "Health", "type": "Hospitals", "address": "Partners Clinics Building, R.V. Bernardo Ave, San Rafael, Mandurriao, Iloilo City, 5000 Iloilo", "contact_mobile": null, "contact_landline": "(033)5086365", "email": null, "barangay": "San Rafael", "district": "Mandurriao", "municity": "Iloilo City", "province": "Iloilo", "logo": null, "facebook": null, "url": null }, "geometry": { "type": "Point", "coordinates": [ 122.55146, 10.706406 ] } },
{ "type": "Feature", "properties": { "name": "Rose Pharmacy", "category": "Health", "type": "Pharmacy", "address": "Benigno Aquino Ave., Diversion Road, Mandurriao, Iloilo City, Iloilo, 5000", "contact_mobile": null, "contact_landline": null, "email": null, "barangay": "Buhang Taft North", "district": "Mandurriao", "municity": "Iloilo City", "province": "Iloilo", "logo": "https://drive.google.com/uc?export=view&id=14JIJ98mtjSpKY0CqPhcFQnA-uvnzQwLh", "facebook": null, "url": "http://www.rosepharmacy.com/" }, "geometry": { "type": "Point", "coordinates": [ 122.551405, 10.711695 ] } },
{ "type": "Feature", "properties": { "name": "San Rafael Health Center", "category": "Health", "type": "Primary Care Facilities", "address": "PG5W+FGQ, Donato Pison Ave, Barangay San Rafael, Mandurriao, Iloilo City, 5000 Iloilo", "contact_mobile": null, "contact_landline": null, "email": null, "barangay": "San Rafael", "district": "Mandurriao", "municity": "Iloilo City", "province": "Iloilo", "logo": null, "facebook": null, "url": null }, "geometry": { "type": "Point", "coordinates": [ 122.54637, 10.708733 ] } },
{ "type": "Feature", "properties": { "name": "Singapore Diagnostics- Plazuela", "category": "Health", "type": "Diagnostic Centers", "address": "UNIT 31-32, PLAZUELA DE ILOILO, Benigno Aquino Ave, Mandurriao, Iloilo City, 5000 Iloilo", "contact_mobile": "9177168715", "contact_landline": null, "email": null, "barangay": "Buhang Taft North", "district": "Mandurriao", "municity": "Iloilo City", "province": "Iloilo", "logo": "https://drive.google.com/uc?export=view&id=1ZLJgGIHSLzphcIsORB5kZKSCSwKbwEXs", "facebook": "https://www.facebook.com/SGDPlazuela", "url": null }, "geometry": { "type": "Point", "coordinates": [ 122.551468, 10.712658 ] } },
{ "type": "Feature", "properties": { "name": "Brgy. Nabitasan Health Center", "category": "Health", "type": "Primary Care Facilities", "address": "PH47+25F, Hechanova St, La Paz, Iloilo City, 5000 Iloilo", "contact_mobile": null, "contact_landline": null, "email": null, "barangay": "Nabitasan", "district": "La Paz", "municity": "Iloilo City", "province": "Iloilo", "logo": null, "facebook": null, "url": null }, "geometry": { "type": "Point", "coordinates": [ 122.562935, 10.705072 ] } },
{ "type": "Feature", "properties": { "name": "Iloilo Medical Society", "category": "Health", "type": "Primary Care Facilities", "address": "IMS Bldg., Luna St, La Paz, Iloilo City, 5000 Iloilo", "contact_mobile": null, "contact_landline": "(033) 329 2407", "email": null, "barangay": "Bantud", "district": "La Paz", "municity": "Iloilo City", "province": "Iloilo", "logo": null, "facebook": null, "url": null }, "geometry": { "type": "Point", "coordinates": [ 122.56534, 10.711112 ] } },
{ "type": "Feature", "properties": { "name": "Mercury Drug Lapaz Branch", "category": "Health", "type": "Pharmacy", "address": "22 Luna St, La Paz, Iloilo City, Iloilo", "contact_mobile": null, "contact_landline": "(033)3147123", "email": null, "barangay": "Railway", "district": "La Paz", "municity": "Iloilo City", "province": "Iloilo", "logo": "https://drive.google.com/uc?export=view&id=1-3ZIoKxrSzJNiR__AhNjEIaL8XWYaw_C", "facebook": null, "url": "https://www.mercurydrug.com/" }, "geometry": { "type": "Point", "coordinates": [ 122.56679, 10.70937 ] } }
]
}
