{
"type": "FeatureCollection",
"name": "HEALTH_SAN_MIGUEL_Health_Facilities_Insights",
"crs": { "type": "name", "properties": { "name": "urn:ogc:def:crs:OGC:1.3:CRS84" } },
"features": [
{ "type": "Feature", "properties": { "name": "Dr. Jona Marie Fortuno- Sabando (Dental)", "category": "Health", "type": "Specialty Outpatient Centers", "address": "San Roque St, San Miguel, Iloilo", "contact_mobile": null, "contact_landline": null, "email": null, "barangay": "Barangay 8", "district": null, "municity": "San Miguel", "province": "Iloilo", "logo": null, "facebook": null, "url": null }, "geometry": { "type": "Point", "coordinates": [ 122.466838, 10.78079 ] } },
{ "type": "Feature", "properties": { "name": "Frassy Dental Clinic", "category": "Health", "type": "Specialty Outpatient Centers", "address": "QFJ8+8PH, San Roque St, San Miguel, Iloilo", "contact_mobile": "9814818018", "contact_landline": null, "email": "frassydental@gmail.com", "barangay": "Barangay 8", "district": null, "municity": "San Miguel", "province": "Iloilo", "logo": null, "facebook": "https://www.facebook.com/profile.php?id=100084948992067", "url": null }, "geometry": { "type": "Point", "coordinates": [ 122.46684, 10.780792 ] } },
{ "type": "Feature", "properties": { "name": "Gillet Pharmacy , San Miguel Branch", "category": "Health", "type": "Pharmacy", "address": "Brgy 8 San Roque St, San Miguel, Iloilo City, 5025 Iloilo", "contact_mobile": null, "contact_landline": null, "email": null, "barangay": "Barangay 8", "district": null, "municity": "San Miguel", "province": "Iloilo", "logo": null, "facebook": null, "url": null }, "geometry": { "type": "Point", "coordinates": [ 122.467191, 10.781098 ] } },
{ "type": "Feature", "properties": { "name": "Guelos Pharmacy", "category": "Health", "type": "Pharmacy", "address": "Roxas Street, Brgy. 1, San Miguel, 5025 Iloilo", "contact_mobile": null, "contact_landline": null, "email": "guelospharmacy@gmail.com", "barangay": "Barangay 1", "district": null, "municity": "San Miguel", "province": "Iloilo", "logo": "https://drive.google.com/uc?export=view&id=1JkqyF63ugOhtP9Fd8j0dXbcPz8FV-QtK", "facebook": "https://www.facebook.com/profile.php?id=100078511971293", "url": null }, "geometry": { "type": "Point", "coordinates": [ 122.466141, 10.780311 ] } },
{ "type": "Feature", "properties": { "name": "Ivonie Dental Center", "category": "Health", "type": "Specialty Outpatient Centers", "address": "Roxas Street, Barangay 1, San Miguel, 5025 Iloilo", "contact_mobile": null, "contact_landline": null, "email": null, "barangay": "Barangay 1", "district": null, "municity": "San Miguel", "province": "Iloilo", "logo": "https://drive.google.com/uc?export=view&id=1xMj87HgC19gDQ-hAphnj1rps-FWVktkK", "facebook": "https://www.facebook.com/profile.php?id=61557940611415", "url": null }, "geometry": { "type": "Point", "coordinates": [ 122.468751, 10.779059 ] } },
{ "type": "Feature", "properties": { "name": "Jelan Pharmacy & Medical Laboratory", "category": "Health", "type": "Pharmacy", "address": "QFJ8+8QR, San Roque St, San Miguel, Iloilo", "contact_mobile": null, "contact_landline": null, "email": "jelanmedlab@gmail.com", "barangay": "Barangay 8", "district": null, "municity": "San Miguel", "province": "Iloilo", "logo": "https://drive.google.com/uc?export=view&id=1Qph8lky1pSIwWJ4QNk9MVi9Shj9J8pfV", "facebook": "https://www.facebook.com/JelanMedicalLaboratory", "url": null }, "geometry": { "type": "Point", "coordinates": [ 122.466891, 10.780872 ] } },
{ "type": "Feature", "properties": { "name": "Jelan Pharmacy & Medical Laboratory", "category": "Health", "type": "Diagnostic Centers", "address": "QFJ8+8QR, San Roque St, San Miguel, Iloilo", "contact_mobile": null, "contact_landline": null, "email": "jelanmedlab@gmail.com", "barangay": "Barangay 8", "district": null, "municity": "San Miguel", "province": "Iloilo", "logo": "https://drive.google.com/uc?export=view&id=1Qph8lky1pSIwWJ4QNk9MVi9Shj9J8pfV", "facebook": "https://www.facebook.com/JelanMedicalLaboratory", "url": null }, "geometry": { "type": "Point", "coordinates": [ 122.466891, 10.780872 ] } },
{ "type": "Feature", "properties": { "name": "Municipal Health Office San Miguel Iloilo", "category": "Health", "type": "Primary Care Facilities", "address": "QFJ7+HVV, San Miguel, Iloilo", "contact_mobile": null, "contact_landline": null, "email": null, "barangay": "Barangay 1", "district": null, "municity": "San Miguel", "province": "Iloilo", "logo": null, "facebook": null, "url": null }, "geometry": { "type": "Point", "coordinates": [ 122.464631, 10.781518 ] } },
{ "type": "Feature", "properties": { "name": "Onemig Pharmacy", "category": "Health", "type": "Pharmacy", "address": "Brgy 2 Salvilla St, San Miguel, 5025 Iloilo", "contact_mobile": "9389727730", "contact_landline": null, "email": null, "barangay": "Barangay 2", "district": null, "municity": "San Miguel", "province": "Iloilo", "logo": null, "facebook": null, "url": null }, "geometry": { "type": "Point", "coordinates": [ 122.467933, 10.780375 ] } },
{ "type": "Feature", "properties": { "name": "Rural Health Unit - Municipality of San Miguel", "category": "Health", "type": "Primary Care Facilities", "address": "San Miguel Municipal Hall, Sales St, San Miguel, 5025 Iloilo", "contact_mobile": null, "contact_landline": "(033)3310768", "email": null, "barangay": "Barangay 1", "district": null, "municity": "San Miguel", "province": "Iloilo", "logo": null, "facebook": null, "url": null }, "geometry": { "type": "Point", "coordinates": [ 122.464623, 10.781508 ] } },
{ "type": "Feature", "properties": { "name": "Sales Pharmacy", "category": "Health", "type": "Pharmacy", "address": "QFJ8+4JG, San Roque St, San Miguel, Iloilo", "contact_mobile": null, "contact_landline": null, "email": null, "barangay": "Barangay 1", "district": null, "municity": "San Miguel", "province": "Iloilo", "logo": null, "facebook": null, "url": null }, "geometry": { "type": "Point", "coordinates": [ 122.466578, 10.780324 ] } },
{ "type": "Feature", "properties": { "name": "San Miguel Diagnostics Inc.", "category": "Health", "type": "Diagnostic Centers", "address": "QFJ8+584, San Miguel, Iloilo", "contact_mobile": "9473417981", "contact_landline": null, "email": "sanmigdiagnostics@yahoo.com.ph", "barangay": "Barangay 1", "district": null, "municity": "San Miguel", "province": "Iloilo", "logo": "https://drive.google.com/uc?export=view&id=1tTqGsvFBtkAJgM4b6iGZEYoqIIOaPqYb", "facebook": "https://www.facebook.com/share/itrAx49RWMBqSWTv/?mibextid=LQQJ4d", "url": null }, "geometry": { "type": "Point", "coordinates": [ 122.465829, 10.780396 ] } },
{ "type": "Feature", "properties": { "name": "Soliva Drugstore", "category": "Health", "type": "Pharmacy", "address": "QFH8+XMP, San Miguel, Iloilo", "contact_mobile": null, "contact_landline": null, "email": null, "barangay": "Barangay 1", "district": null, "municity": "San Miguel", "province": "Iloilo", "logo": null, "facebook": null, "url": null }, "geometry": { "type": "Point", "coordinates": [ 122.466726, 10.779976 ] } },
{ "type": "Feature", "properties": { "name": "The Specialist Medical Clinic - San Miguel, Iloilo", "category": "Health", "type": "Primary Care Facilities", "address": "Stall no. 6, Salmo Building, Brgy. 1 Roxas St, San Miguel, 5025 Iloilo", "contact_mobile": null, "contact_landline": null, "email": null, "barangay": "Barangay 1", "district": null, "municity": "San Miguel", "province": "Iloilo", "logo": "https://drive.google.com/uc?export=view&id=1WCOl47aZVTYAkBsv9xz7nipO3fhqwy62", "facebook": "https://www.facebook.com/thespecialistclinic", "url": null }, "geometry": { "type": "Point", "coordinates": [ 122.468823, 10.77914 ] } },
{ "type": "Feature", "properties": { "name": "Five C Clinic And Pharmacy", "category": "Health", "type": "Primary Care Facilities", "address": "QFH6+3FM, San Miguel - Cabatuan Rd, San Miguel, Iloilo", "contact_mobile": null, "contact_landline": null, "email": null, "barangay": "Barangay 15", "district": null, "municity": "San Miguel", "province": "Iloilo", "logo": null, "facebook": null, "url": null }, "geometry": { "type": "Point", "coordinates": [ 122.461169, 10.777723 ] } },
{ "type": "Feature", "properties": { "name": "Five C Clinic And Pharmacy", "category": "Health", "type": "Pharmacy", "address": "QFH6+3FM, San Miguel - Cabatuan Rd, San Miguel, Iloilo", "contact_mobile": null, "contact_landline": null, "email": null, "barangay": "Barangay 15", "district": null, "municity": "San Miguel", "province": "Iloilo", "logo": null, "facebook": null, "url": null }, "geometry": { "type": "Point", "coordinates": [ 122.461169, 10.777723 ] } },
{ "type": "Feature", "properties": { "name": "TGP The Generics Pharmacy", "category": "Health", "type": "Pharmacy", "address": "BRGY. STO. NIÑO, SAN MIGUEL, ILOILO, San Miguel,, Iloilo City, 5025 Iloilo", "contact_mobile": null, "contact_landline": "(033)3212752", "email": null, "barangay": "Barangay 9", "district": null, "municity": "San Miguel", "province": "Iloilo", "logo": "https://drive.google.com/uc?export=view&id=1WISI5p2HKjPDV5_QPphHn91Wv_HJhoxf", "facebook": "http://www.tgp.com.ph/", "url": null }, "geometry": { "type": "Point", "coordinates": [ 122.463946, 10.782472 ] } },
{ "type": "Feature", "properties": { "name": "Salapantan Dental Clinic", "category": "Health", "type": "Specialty Outpatient Centers", "address": "Santiago St, San Miguel, 5025 Iloilo", "contact_mobile": "9283415752", "contact_landline": null, "email": null, "barangay": "Barangay 2", "district": null, "municity": "San Miguel", "province": "Iloilo", "logo": null, "facebook": null, "url": null }, "geometry": { "type": "Point", "coordinates": [ 122.469895, 10.783058 ] } },
{ "type": "Feature", "properties": { "name": "Centeno Pharmacy", "category": "Health", "type": "Pharmacy", "address": "QF8V+HW San Miguel, Iloilo", "contact_mobile": null, "contact_landline": null, "email": "centenopharmacy@gmail.com", "barangay": "San Jose", "district": null, "municity": "San Miguel", "province": "Iloilo", "logo": "https://drive.google.com/uc?export=view&id=1uGc8Kacvl-1F3qMa4zWMg53w7smOVYrr", "facebook": "https://www.facebook.com/centenopharmacy", "url": null }, "geometry": { "type": "Point", "coordinates": [ 122.50062, 10.758484 ] } },
{ "type": "Feature", "properties": { "name": "Galvan Pharmacy", "category": "Health", "type": "Pharmacy", "address": "QF7V+FQ San Miguel, Iloilo", "contact_mobile": null, "contact_landline": null, "email": "galvan.pharmacy@yahoo.com", "barangay": "San Jose", "district": null, "municity": "San Miguel", "province": "Iloilo", "logo": "https://drive.google.com/uc?export=view&id=1hwxhbvhBi_0FHUnvC2245yaOcGx8i5N3", "facebook": "https://www.facebook.com/galvanpharmacy", "url": null }, "geometry": { "type": "Point", "coordinates": [ 122.494412, 10.763726 ] } },
{ "type": "Feature", "properties": { "name": "San Jose Barangay Health Center", "category": "Health", "type": "Primary Care Facilities", "address": "5025 Oton - San Jose-Santa Barbara Rd, San Miguel, Iloilo", "contact_mobile": null, "contact_landline": null, "email": null, "barangay": "San Jose", "district": null, "municity": "San Miguel", "province": "Iloilo", "logo": null, "facebook": null, "url": null }, "geometry": { "type": "Point", "coordinates": [ 122.496829, 10.761399 ] } },
{ "type": "Feature", "properties": { "name": "Yana's Dental Clinic", "category": "Health", "type": "Specialty Outpatient Centers", "address": "JRV Complex, Zone 6 Brgy San Jose, San Miguel, 5025 Iloilo", "contact_mobile": "9608344981", "contact_landline": null, "email": "pagibigfenix@yahoo.com", "barangay": "San Jose", "district": null, "municity": "San Miguel", "province": "Iloilo", "logo": null, "facebook": "https://www.facebook.com/YanasDentalClinic?mibextid=AEUHqQ", "url": null }, "geometry": { "type": "Point", "coordinates": [ 122.49945, 10.759347 ] } }
]
}
