{
"type": "FeatureCollection",
"name": "HEALTH_GUIMARAS_Health_Facilities_Insights",
"crs": { "type": "name", "properties": { "name": "urn:ogc:def:crs:OGC:1.3:CRS84" } },
"features": [
{ "type": "Feature", "properties": { "name": "A21 Pharmacy", "category": "Health", "type": "Pharmacy", "address": "Beside RD Pawnshop, Buenavista, 5044 Guimaras", "contact_mobile": null, "contact_landline": null, "email": "a21pharmacy.ph@gmail.com", "barangay": "New Poblacion", "district": null, "municity": "Buenavista", "province": "Guimaras", "logo": "https://drive.google.com/uc?export=view&id=1uBqIWMw4Ku38TEqAVXC5rdzFnBx5yaH3", "facebook": "https://www.facebook.com/A21pharmacy.ph/", "url": null }, "geometry": { "type": "Point", "coordinates": [ 122.648572, 10.696755 ] } },
{ "type": "Feature", "properties": { "name": "Alaguisoc Health Center", "category": "Health", "type": "Primary Care Facilities", "address": "JH9X+Q5R, Jordan, Guimaras", "contact_mobile": null, "contact_landline": null, "email": null, "barangay": "Alaguisoc", "district": null, "municity": "Jordan", "province": "Guimaras", "logo": null, "facebook": null, "url": null }, "geometry": { "type": "Point", "coordinates": [ 122.597877, 10.619522 ] } },
{ "type": "Feature", "properties": { "name": "Athena Drugstore", "category": "Health", "type": "Pharmacy", "address": "HPP2+XJ5, Guimaras Circumferential Rd, San Lorenzo, Guimaras", "contact_mobile": "0948 790 5628", "contact_landline": null, "email": "athenadrugstore18@gmail.com", "barangay": "San Miguel", "district": null, "municity": "Jordan", "province": "Guimaras", "logo": "https://drive.google.com/uc?export=view&id=1ryz8tXDOf12lay6ZuVDADqia6PY5CQIl", "facebook": "https://www.facebook.com/profile.php?id=100066586662940", "url": null }, "geometry": { "type": "Point", "coordinates": [ 122.58793, 10.602358 ] } },
{ "type": "Feature", "properties": { "name": "Banban Health Center By Ederlina", "category": "Health", "type": "Primary Care Facilities", "address": "Banban Health Center by Ederlina, Banban Guimaras Circumferential Rd, Buenavista, 5044 Lalawigan ng Guimaras", "contact_mobile": null, "contact_landline": null, "email": null, "barangay": "Banban", "district": null, "municity": "Buenavista", "province": "Guimaras", "logo": null, "facebook": null, "url": null }, "geometry": { "type": "Point", "coordinates": [ 122.686392, 10.710161 ] } },
{ "type": "Feature", "properties": { "name": "Botika Ng Barangay", "category": "Health", "type": "Pharmacy", "address": "MH5H+7RM, Jordan, Guimaras", "contact_mobile": null, "contact_landline": null, "email": null, "barangay": "Hoskyn", "district": null, "municity": "Jordan", "province": "Guimaras", "logo": null, "facebook": null, "url": null }, "geometry": { "type": "Point", "coordinates": [ 122.579561, 10.658182 ] } },
{ "type": "Feature", "properties": { "name": "Buena Clinic Pharmacy & Laboratory", "category": "Health", "type": "Pharmacy", "address": "MJWW+JWM, Guimaras Circumferential Rd, Buenavista, Guimaras", "contact_mobile": null, "contact_landline": null, "email": null, "barangay": "New Poblacion", "district": null, "municity": "Buenavista", "province": "Guimaras", "logo": "https://drive.google.com/uc?export=view&id=1OBgjXBzjylSDB4YCs76KpumDPUwwFWVD", "facebook": "https://www.facebook.com/profile.php?id=61567813444928", "url": null }, "geometry": { "type": "Point", "coordinates": [ 122.647288, 10.696601 ] } },
{ "type": "Feature", "properties": { "name": "Buena Clinic Pharmacy & Laboratory", "category": "Health", "type": "Diagnostic Centers", "address": "MJWW+JWM, Guimaras Circumferential Rd, Buenavista, Guimaras", "contact_mobile": null, "contact_landline": null, "email": null, "barangay": "New Poblacion", "district": null, "municity": "Buenavista", "province": "Guimaras", "logo": "https://drive.google.com/uc?export=view&id=1OBgjXBzjylSDB4YCs76KpumDPUwwFWVD", "facebook": "https://www.facebook.com/profile.php?id=61567813444928", "url": null }, "geometry": { "type": "Point", "coordinates": [ 122.647288, 10.696601 ] } },
{ "type": "Feature", "properties": { "name": "Buenavista Emergency Hospital", "category": "Health", "type": "Hospitals", "address": "MMW6+JCV, Buenavista, Guimaras", "contact_mobile": "335800309", "contact_landline": null, "email": "buenapcf@yahoo.com", "barangay": "McLain", "district": null, "municity": "Buenavista", "province": "Guimaras", "logo": null, "facebook": null, "url": "http://buenavistaguimaras.gov.ph/contact-us/" }, "geometry": { "type": "Point", "coordinates": [ 122.661045, 10.696614 ] } },
{ "type": "Feature", "properties": { "name": "Bugnay Health Station", "category": "Health", "type": "Primary Care Facilities", "address": "HJVC+FF9, Jordan, Guimaras", "contact_mobile": null, "contact_landline": null, "email": null, "barangay": "Bugnay", "district": null, "municity": "Jordan", "province": "Guimaras", "logo": null, "facebook": null, "url": null }, "geometry": { "type": "Point", "coordinates": [ 122.621229, 10.593642 ] } },
{ "type": "Feature", "properties": { "name": "Centri Clinical Laboratory", "category": "Health", "type": "Diagnostic Centers", "address": "Brgy. Poblacion, Nueva Valencia, Guimaras", "contact_mobile": null, "contact_landline": null, "email": null, "barangay": "San Miguel", "district": null, "municity": "Jordan", "province": "Guimaras", "logo": "https://drive.google.com/uc?export=view&id=1cdL7OpMymvDRJdIKHfS_ls65Eu8kE33K", "facebook": "https://www.facebook.com/centrinv/", "url": null }, "geometry": { "type": "Point", "coordinates": [ 122.588135, 10.601619 ] } },
{ "type": "Feature", "properties": { "name": "Centrihealth Pharmacy", "category": "Health", "type": "Pharmacy", "address": "MJVP+XPC, Guimaras Circumferential Rd, Buenavista, Guimaras", "contact_mobile": "0960 424 9868", "contact_landline": null, "email": "centrihealthco@gmail.com", "barangay": "Salvacion", "district": null, "municity": "Buenavista", "province": "Guimaras", "logo": "https://drive.google.com/uc?export=view&id=11k6X7PA4oGRYHrQ3Iof_8OzBZDkOsURN", "facebook": "https://www.facebook.com/profile.php?id=61557288600713", "url": null }, "geometry": { "type": "Point", "coordinates": [ 122.637039, 10.69503 ] } },
{ "type": "Feature", "properties": { "name": "D&F Pharmacy", "category": "Health", "type": "Pharmacy", "address": "MJWQ+3R2, Buenavista, Guimaras", "contact_mobile": "9173042560", "contact_landline": null, "email": null, "barangay": "Salvacion", "district": null, "municity": "Buenavista", "province": "Guimaras", "logo": null, "facebook": null, "url": null }, "geometry": { "type": "Point", "coordinates": [ 122.639525, 10.695129 ] } },
{ "type": "Feature", "properties": { "name": "Dominique Drugmart + Clinic ", "category": "Health", "type": "Pharmacy", "address": "M. Chavez, San Lorenzo, Guimaras, Iloilo City, Philippines", "contact_mobile": "0965 664 6975", "contact_landline": null, "email": "dompharma20@gmail.com", "barangay": "M. Chavez", "district": null, "municity": "San Lorenzo", "province": "Guimaras", "logo": "https://drive.google.com/uc?export=view&id=1kFBRm3xkvvpPj0YoOeb-wetUzeEZPWz8", "facebook": "https://www.facebook.com/botikanidominic/", "url": null }, "geometry": { "type": "Point", "coordinates": [ 122.704978, 10.596805 ] } },
{ "type": "Feature", "properties": { "name": "Dr. Catalino Gallego Nava Provincial Hospital", "category": "Health", "type": "Hospitals", "address": "HHXQ+2QJ, Guimaras Circumferential Rd, Jordan, 5045 Guimaras", "contact_mobile": null, "contact_landline": "(033) 327-1066 ", "email": "dcgnphphic@gmail.com", "barangay": "San Miguel", "district": null, "municity": "Jordan", "province": "Guimaras", "logo": null, "facebook": null, "url": null }, "geometry": { "type": "Point", "coordinates": [ 122.589376, 10.597579 ] } },
{ "type": "Feature", "properties": { "name": "Drugmart", "category": "Health", "type": "Pharmacy", "address": "JH3Q+35R, Jordan, Guimaras", "contact_mobile": null, "contact_landline": null, "email": null, "barangay": "San Miguel", "district": null, "municity": "Jordan", "province": "Guimaras", "logo": null, "facebook": null, "url": null }, "geometry": { "type": "Point", "coordinates": [ 122.58789, 10.60274 ] } },
{ "type": "Feature", "properties": { "name": "E.G. Drugstore", "category": "Health", "type": "Pharmacy", "address": "JHVM+4R8, Jordan, Guimaras", "contact_mobile": null, "contact_landline": null, "email": null, "barangay": "Poblacion", "district": null, "municity": "Jordan", "province": "Guimaras", "logo": null, "facebook": null, "url": null }, "geometry": { "type": "Point", "coordinates": [ 122.584573, 10.642787 ] } },
{ "type": "Feature", "properties": { "name": "Espinosa Health Center", "category": "Health", "type": "Primary Care Facilities", "address": "JG4W+52M, Jordan, Guimaras", "contact_mobile": null, "contact_landline": null, "email": null, "barangay": "Espinosa", "district": null, "municity": "Jordan", "province": "Guimaras", "logo": null, "facebook": null, "url": null }, "geometry": { "type": "Point", "coordinates": [ 122.545078, 10.605468 ] } },
{ "type": "Feature", "properties": { "name": "Familymed Pharma", "category": "Health", "type": "Pharmacy", "address": "Brgy. Sto. Rosario, Buenavista, Guimaras", "contact_mobile": "9267456055", "contact_landline": null, "email": null, "barangay": "Santo Rosario", "district": null, "municity": "Buenavista", "province": "Guimaras", "logo": null, "facebook": null, "url": null }, "geometry": { "type": "Point", "coordinates": [ 122.617472, 10.687836 ] } },
{ "type": "Feature", "properties": { "name": "G&G Drugmart Clinic", "category": "Health", "type": "Pharmacy", "address": "Poblacion, Nueva Valencia, Western Visayas, Philippines 5046 Nueva Valencia, Philippines", "contact_mobile": "0917 175 8336", "contact_landline": null, "email": "gngdrugmartclinic@gmail.com", "barangay": "Poblacion", "district": null, "municity": "Nueva Valencia", "province": "Guimaras", "logo": "https://drive.google.com/uc?export=view&id=1-teLVZibkWndDbpngBVVoOPcl0t2vlTJ", "facebook": "https://www.facebook.com/philiphopescottgallego/", "url": null }, "geometry": { "type": "Point", "coordinates": [ 122.538646, 10.525026 ] } },
{ "type": "Feature", "properties": { "name": "G&G Drugmart Clinic", "category": "Health", "type": "Primary Care Facilities", "address": "Poblacion, Nueva Valencia, Western Visayas, Philippines 5046 Nueva Valencia, Philippines", "contact_mobile": "0917 175 8336", "contact_landline": null, "email": "gngdrugmartclinic@gmail.com", "barangay": "Poblacion", "district": null, "municity": "Nueva Valencia", "province": "Guimaras", "logo": "https://drive.google.com/uc?export=view&id=1-teLVZibkWndDbpngBVVoOPcl0t2vlTJ", "facebook": "https://www.facebook.com/philiphopescottgallego/", "url": null }, "geometry": { "type": "Point", "coordinates": [ 122.538646, 10.525026 ] } },
{ "type": "Feature", "properties": { "name": "Galanza Obstetrics And Gynecology Clinic", "category": "Health", "type": "Specialty Outpatient Centers", "address": "Brgy Magamay, Nueva Valencia, Philippines", "contact_mobile": "9519577792", "contact_landline": null, "email": null, "barangay": "Magamay", "district": null, "municity": "Nueva Valencia", "province": "Guimaras", "logo": null, "facebook": "https://www.facebook.com/p/Galanza-Obstetrics-Gynecology-Clinic-61550562624314/", "url": "seriousmd.com/doc/robie-galanza" }, "geometry": { "type": "Point", "coordinates": [ 122.514877, 10.501984 ] } },
{ "type": "Feature", "properties": { "name": "Galtz Medical Clinic And Pharmacy", "category": "Health", "type": "Primary Care Facilities", "address": "New Site, San Miguel, Jordan Guimaras, Iloilo City, Philippines", "contact_mobile": "0907 742 8573", "contact_landline": null, "email": null, "barangay": "San Miguel", "district": null, "municity": "Jordan", "province": "Guimaras", "logo": "https://drive.google.com/uc?export=view&id=1QfN45ZGfXgsLkIxqVd6JNTh-zaxMYmGa", "facebook": "https://www.facebook.com/galtzpharmguimaras/", "url": null }, "geometry": { "type": "Point", "coordinates": [ 122.587891, 10.602755 ] } },
{ "type": "Feature", "properties": { "name": "Galtz Medical Clinic And Pharmacy", "category": "Health", "type": "Pharmacy", "address": "New Site, San Miguel, Jordan Guimaras, Iloilo City, Philippines", "contact_mobile": "0907 742 8573", "contact_landline": null, "email": null, "barangay": "San Miguel", "district": null, "municity": "Jordan", "province": "Guimaras", "logo": "https://drive.google.com/uc?export=view&id=1QfN45ZGfXgsLkIxqVd6JNTh-zaxMYmGa", "facebook": "https://www.facebook.com/galtzpharmguimaras/", "url": null }, "geometry": { "type": "Point", "coordinates": [ 122.587891, 10.602755 ] } },
{ "type": "Feature", "properties": { "name": "Gaurana Pharmacy", "category": "Health", "type": "Pharmacy", "address": "GHC3+2M5, Guimaras Circumferential Rd, Nueva Valencia, Guimaras", "contact_mobile": null, "contact_landline": null, "email": null, "barangay": "Concordia Sur", "district": null, "municity": "Nueva Valencia", "province": "Guimaras", "logo": null, "facebook": null, "url": null }, "geometry": { "type": "Point", "coordinates": [ 122.554236, 10.520013 ] } },
{ "type": "Feature", "properties": { "name": "GDC Pharmacy", "category": "Health", "type": "Pharmacy", "address": "MMW2+W5J, Guimaras Circumferential Rd, Buenavista, Guimaras", "contact_mobile": null, "contact_landline": null, "email": null, "barangay": "McLain", "district": null, "municity": "Buenavista", "province": "Guimaras", "logo": "https://drive.google.com/uc?export=view&id=1H9NpZwk6Wtg3jqojqE3-rlT96HDHdllU", "facebook": "https://www.facebook.com/profile.php?id=61555022004448", "url": null }, "geometry": { "type": "Point", "coordinates": [ 122.650389, 10.697328 ] } },
{ "type": "Feature", "properties": { "name": "Geonanga Yarra Dental Clinic", "category": "Health", "type": "Specialty Outpatient Centers", "address": "2n floor, Lucky tree building, Poblacion, Nueva Valencia, Guimaras", "contact_mobile": "9995587850", "contact_landline": null, "email": null, "barangay": "Poblacion", "district": null, "municity": "Nueva Valencia", "province": "Guimaras", "logo": "https://drive.google.com/uc?export=view&id=1Y-bVsOTtSsENQq_2NBrf8aS1F9slCKwe", "facebook": "https://www.facebook.com/profile.php?id=100064009726148", "url": null }, "geometry": { "type": "Point", "coordinates": [ 122.538319, 10.527123 ] } },
{ "type": "Feature", "properties": { "name": "Giganto Medical Clinic", "category": "Health", "type": "Primary Care Facilities", "address": "Salvacion, Buenavista, 5044 Guimaras", "contact_mobile": "9338107774", "contact_landline": null, "email": null, "barangay": "Salvacion", "district": null, "municity": "Buenavista", "province": "Guimaras", "logo": "https://drive.google.com/uc?export=view&id=1mmdA1uLpwE2eXaYFkQsRzwpGeOL5jj6P", "facebook": "https://www.facebook.com/GigantoMD", "url": "giganto-medical-clinic.mailchimpsites.com/book-online" }, "geometry": { "type": "Point", "coordinates": [ 122.640919, 10.694456 ] } },
{ "type": "Feature", "properties": { "name": "Golden Pharma And Medical Supplies Trading", "category": "Health", "type": "Pharmacy", "address": "Jordan, 5045 Guimaras", "contact_mobile": "9618077451", "contact_landline": null, "email": null, "barangay": "San Miguel", "district": null, "municity": "Jordan", "province": "Guimaras", "logo": null, "facebook": null, "url": null }, "geometry": { "type": "Point", "coordinates": [ 122.587874, 10.595825 ] } },
{ "type": "Feature", "properties": { "name": "Gonzaga Dental Clinic - Extension Branch", "category": "Health", "type": "Specialty Outpatient Centers", "address": "HHQM+PQQ, Jordan, Guimaras", "contact_mobile": "0938 094 9272", "contact_landline": null, "email": "gonzagadental@gmail.com", "barangay": "San Miguel", "district": null, "municity": "Jordan", "province": "Guimaras", "logo": "https://drive.google.com/uc?export=view&id=1Z5FSicCd5-NLrZutC4f6Q7ixGjtOxmzk", "facebook": "https://www.facebook.com/profile.php?id=100064048510131", "url": null }, "geometry": { "type": "Point", "coordinates": [ 122.584368, 10.589515 ] } },
{ "type": "Feature", "properties": { "name": "Guimaras Specialist Medical Center, Inc.", "category": "Health", "type": "Hospitals", "address": "Sitio Udyong, Jordan, Guimaras", "contact_mobile": "9209464217", "contact_landline": null, "email": "gsmciguimaras@gmail.com", "barangay": "San Miguel", "district": null, "municity": "Jordan", "province": "Guimaras", "logo": "https://drive.google.com/uc?export=view&id=1rSbPf9hPLnXPxA6EDgLrtfamTQ4wDSOl", "facebook": "https://www.facebook.com/gsmciguimaras", "url": null }, "geometry": { "type": "Point", "coordinates": [ 122.601001, 10.593169 ] } },
{ "type": "Feature", "properties": { "name": "Guimcare Pharmacy", "category": "Health", "type": "Pharmacy", "address": "Cabalagnan nueva valencia guimaras Guumaras, 5046 Guimaras", "contact_mobile": "9998011917", "contact_landline": null, "email": null, "barangay": "Cabalagnan", "district": null, "municity": "Nueva Valencia", "province": "Guimaras", "logo": null, "facebook": null, "url": null }, "geometry": { "type": "Point", "coordinates": [ 122.550216, 10.417518 ] } },
{ "type": "Feature", "properties": { "name": "Guiwanon Health Center", "category": "Health", "type": "Primary Care Facilities", "address": "9JV4+56V, Nueva Valencia, Guimaras", "contact_mobile": null, "contact_landline": null, "email": null, "barangay": "Guiwanon", "district": null, "municity": "Nueva Valencia", "province": "Guimaras", "logo": null, "facebook": null, "url": null }, "geometry": { "type": "Point", "coordinates": [ 122.605547, 10.392988 ] } },
{ "type": "Feature", "properties": { "name": "Health Center Buenavista", "category": "Health", "type": "Primary Care Facilities", "address": "PMCX+592, Buenavista, Guimaras", "contact_mobile": null, "contact_landline": null, "email": null, "barangay": "Tanag", "district": null, "municity": "Buenavista", "province": "Guimaras", "logo": null, "facebook": null, "url": null }, "geometry": { "type": "Point", "coordinates": [ 122.698398, 10.720389 ] } },
{ "type": "Feature", "properties": { "name": "Hoskyn Barangay Health Station", "category": "Health", "type": "Primary Care Facilities", "address": "MH5H+723, Jordan, Guimaras", "contact_mobile": null, "contact_landline": null, "email": null, "barangay": "Hoskyn", "district": null, "municity": "Jordan", "province": "Guimaras", "logo": null, "facebook": null, "url": null }, "geometry": { "type": "Point", "coordinates": [ 122.57755, 10.658135 ] } },
{ "type": "Feature", "properties": { "name": "Island Health Diagnostic Center and IHDC Pharmacy", "category": "Health", "type": "Diagnostic Centers", "address": "HHQM+RP6, Jordan, Guimaras", "contact_mobile": "0929 550 7312", "contact_landline": null, "email": "islandhealthdiagnostic@gmail.com", "barangay": "San Miguel", "district": null, "municity": "Jordan", "province": "Guimaras", "logo": "https://drive.google.com/uc?export=view&id=1gtt-IzYGPLGgmRI-NXZnTp-Q_bRsRQBB", "facebook": "https://www.facebook.com/profile.php?id=100063661553176", "url": null }, "geometry": { "type": "Point", "coordinates": [ 122.584268, 10.589533 ] } },
{ "type": "Feature", "properties": { "name": "Island Health Diagnostic Center and IHDC Pharmacy", "category": "Health", "type": "Pharmacy", "address": "HHQM+RP6, Jordan, Guimaras", "contact_mobile": "0929 550 7312", "contact_landline": null, "email": "islandhealthdiagnostic@gmail.com", "barangay": "San Miguel", "district": null, "municity": "Jordan", "province": "Guimaras", "logo": "https://drive.google.com/uc?export=view&id=1gtt-IzYGPLGgmRI-NXZnTp-Q_bRsRQBB", "facebook": "https://www.facebook.com/profile.php?id=100063661553176", "url": null }, "geometry": { "type": "Point", "coordinates": [ 122.584268, 10.589533 ] } },
{ "type": "Feature", "properties": { "name": "Jhaiso Pharmacy", "category": "Health", "type": "Pharmacy", "address": "GGGR+C4W, Guimaras Circumferential Rd, Nueva Valencia, Guimaras", "contact_mobile": null, "contact_landline": null, "email": null, "barangay": "Poblacion", "district": null, "municity": "Nueva Valencia", "province": "Guimaras", "logo": null, "facebook": null, "url": null }, "geometry": { "type": "Point", "coordinates": [ 122.540309, 10.526101 ] } },
{ "type": "Feature", "properties": { "name": "JMB Polyclinic & Pharmacy", "category": "Health", "type": "Primary Care Facilities", "address": "HHXQ+M42, Guimaras Circumferential Rd, Jordan, Guimaras", "contact_mobile": null, "contact_landline": null, "email": null, "barangay": "San Miguel", "district": null, "municity": "Jordan", "province": "Guimaras", "logo": null, "facebook": null, "url": null }, "geometry": { "type": "Point", "coordinates": [ 122.587751, 10.599137 ] } },
{ "type": "Feature", "properties": { "name": "JMB Polyclinic & Pharmacy", "category": "Health", "type": "Diagnostic Centers", "address": "HHXQ+M42, Guimaras Circumferential Rd, Jordan, Guimaras", "contact_mobile": null, "contact_landline": null, "email": null, "barangay": "San Miguel", "district": null, "municity": "Jordan", "province": "Guimaras", "logo": null, "facebook": null, "url": null }, "geometry": { "type": "Point", "coordinates": [ 122.587751, 10.599137 ] } },
{ "type": "Feature", "properties": { "name": "JMB Polyclinic & Pharmacy", "category": "Health", "type": "Pharmacy", "address": "HHXQ+M42, Guimaras Circumferential Rd, Jordan, Guimaras", "contact_mobile": null, "contact_landline": null, "email": null, "barangay": "San Miguel", "district": null, "municity": "Jordan", "province": "Guimaras", "logo": null, "facebook": null, "url": null }, "geometry": { "type": "Point", "coordinates": [ 122.587751, 10.599137 ] } },
{ "type": "Feature", "properties": { "name": "Jordan Rural Health Unit", "category": "Health", "type": "Primary Care Facilities", "address": "MH6R+MC5, Jordan-Hoskyn Rd, Poblacion, Jordan, Jordan, 5045 Guimaras", "contact_mobile": null, "contact_landline": "033-322-5498", "email": "jordanrhu20@gmail.com", "barangay": "Poblacion", "district": null, "municity": "Jordan", "province": "Guimaras", "logo": null, "facebook": null, "url": null }, "geometry": { "type": "Point", "coordinates": [ 122.59111, 10.661645 ] } },
{ "type": "Feature", "properties": { "name": "Josiah's Pharmacy", "category": "Health", "type": "Pharmacy", "address": "PM5Q+5QG, Guimaras Circumferential Rd, Buenavista, Guimaras", "contact_mobile": "0906 560 3203", "contact_landline": null, "email": null, "barangay": "San Nicolas", "district": null, "municity": "Buenavista", "province": "Guimaras", "logo": "https://drive.google.com/uc?export=view&id=1LC07bMffVImDrGMN5txLIbvoX5GJrPlQ", "facebook": "https://www.facebook.com/profile.php?id=100091582337598", "url": null }, "geometry": { "type": "Point", "coordinates": [ 122.689445, 10.707945 ] } },
{ "type": "Feature", "properties": { "name": "Lawi Health Center", "category": "Health", "type": "Primary Care Facilities", "address": "HG4P+M5V, Barangay Lawi, Jordan, Lalawigan ng Guimaras", "contact_mobile": null, "contact_landline": null, "email": null, "barangay": "Lawi", "district": null, "municity": "Jordan", "province": "Guimaras", "logo": null, "facebook": null, "url": null }, "geometry": { "type": "Point", "coordinates": [ 122.53543, 10.55675 ] } },
{ "type": "Feature", "properties": { "name": "Limen Pharmacy", "category": "Health", "type": "Pharmacy", "address": "HHWQ+W6C, Guimaras Circumferential Rd, Jordan, Guimaras", "contact_mobile": null, "contact_landline": null, "email": null, "barangay": "San Miguel", "district": null, "municity": "Jordan", "province": "Guimaras", "logo": null, "facebook": null, "url": null }, "geometry": { "type": "Point", "coordinates": [ 122.588002, 10.59732 ] } },
{ "type": "Feature", "properties": { "name": "Lucmayan Barangay Health Center", "category": "Health", "type": "Primary Care Facilities", "address": "FGF9+694, Nueva Valencia, Guimaras", "contact_mobile": null, "contact_landline": null, "email": null, "barangay": "Lucmayan", "district": null, "municity": "Nueva Valencia", "province": "Guimaras", "logo": null, "facebook": null, "url": null }, "geometry": { "type": "Point", "coordinates": [ 122.518436, 10.472988 ] } },
{ "type": "Feature", "properties": { "name": "Maabay Health Center", "category": "Health", "type": "Primary Care Facilities", "address": "GJFJ+39J, Sibunag, Guimaras", "contact_mobile": null, "contact_landline": null, "email": null, "barangay": "Maabay", "district": null, "municity": "Sibunag", "province": "Guimaras", "logo": null, "facebook": null, "url": null }, "geometry": { "type": "Point", "coordinates": [ 122.630899, 10.522721 ] } },
{ "type": "Feature", "properties": { "name": "Medicus Diagnostic Center - Guimaras", "category": "Health", "type": "Diagnostic Centers", "address": "CDC Bldg, Old Site, Jordan, 5045 Guimaras", "contact_mobile": "9957453330", "contact_landline": "ordanguimaras@medicus.ph", "email": null, "barangay": "San Miguel", "district": null, "municity": "Jordan", "province": "Guimaras", "logo": "https://drive.google.com/uc?export=view&id=1bzVUgnB3qZ6KVKmoZrWBnf6UwBITZSxg", "facebook": "https://www.facebook.com/medicusjordan.ph", "url": "https://l.facebook.com/l.php?u=http%3A%2F%2Fwww.medicus.com.ph%2F%3Ffbclid%3DIwZXh0bgNhZW0CMTAAAR0gfE8uY-Hac_4_CWzL-kdlNS2G0d95xCAhG1sJj8OSCdl_0sas_rD08-Q_aem_ICgOs-ZSAwvunMvygke62w&h=AT0xf6so6jLS9ClSWdRcm0QzRRenzVymDIB1WR04mqjYpqXC_yq3O9To-nU3nVT22ZPIAnIqRCrrBVCmoAJgucL852B3A0rXWpbahzMP9QvsET-5jPqfkpbKE6NXY5MCaXYFiu_hDry8LbtH7VJRVQ" }, "geometry": { "type": "Point", "coordinates": [ 122.586629, 10.596154 ] } },
{ "type": "Feature", "properties": { "name": "Medserve Pharmacy", "category": "Health", "type": "Pharmacy", "address": "2F, Ferrer building, Buenavista, 5044 Guimaras", "contact_mobile": null, "contact_landline": null, "email": null, "barangay": "New Poblacion", "district": null, "municity": "Buenavista", "province": "Guimaras", "logo": "#VALUE!", "facebook": null, "url": null }, "geometry": { "type": "Point", "coordinates": [ 122.649019, 10.696789 ] } },
{ "type": "Feature", "properties": { "name": "Mercury Drug Jordan Branch", "category": "Health", "type": "Pharmacy", "address": "JH2Q+V7H, Guimaras Circumferential Rd, Jordan, Guimaras", "contact_mobile": null, "contact_landline": null, "email": null, "barangay": "San Miguel", "district": null, "municity": "Jordan", "province": "Guimaras", "logo": "https://drive.google.com/uc?export=view&id=1-3ZIoKxrSzJNiR__AhNjEIaL8XWYaw_C", "facebook": null, "url": null }, "geometry": { "type": "Point", "coordinates": [ 122.588231, 10.602195 ] } },
{ "type": "Feature", "properties": { "name": "Millan Health Center", "category": "Health", "type": "Primary Care Facilities", "address": "HJ67+64F, Sibunag, Guimaras", "contact_mobile": null, "contact_landline": null, "email": null, "barangay": "Millan", "district": null, "municity": "Sibunag", "province": "Guimaras", "logo": null, "facebook": null, "url": null }, "geometry": { "type": "Point", "coordinates": [ 122.6128, 10.560571 ] } },
{ "type": "Feature", "properties": { "name": "Myrn's Pharmacy", "category": "Health", "type": "Pharmacy", "address": "Jordan, Guimaras", "contact_mobile": null, "contact_landline": "335812164", "email": null, "barangay": "San Miguel", "district": null, "municity": "Jordan", "province": "Guimaras", "logo": null, "facebook": null, "url": null }, "geometry": { "type": "Point", "coordinates": [ 122.58793, 10.603518 ] } },
{ "type": "Feature", "properties": { "name": "Nueva Valencia District Hospital", "category": "Health", "type": "Hospitals", "address": "FGCR+JQW, Ubog, Nueva Valencia, Guimaras", "contact_mobile": null, "contact_landline": null, "email": null, "barangay": "Lanipe", "district": null, "municity": "Nueva Valencia", "province": "Guimaras", "logo": null, "facebook": null, "url": null }, "geometry": { "type": "Point", "coordinates": [ 122.541962, 10.471615 ] } },
{ "type": "Feature", "properties": { "name": "Pauchano Medical Clinic", "category": "Health", "type": "Primary Care Facilities", "address": "MMW2+M4Q, Buenavista, Guimaras", "contact_mobile": null, "contact_landline": null, "email": null, "barangay": "McLain", "district": null, "municity": "Buenavista", "province": "Guimaras", "logo": null, "facebook": null, "url": null }, "geometry": { "type": "Point", "coordinates": [ 122.650351, 10.696716 ] } },
{ "type": "Feature", "properties": { "name": "Pharmabess Drugmart", "category": "Health", "type": "Pharmacy", "address": "GMHM+227, San Lorenzo, Guimaras", "contact_mobile": null, "contact_landline": null, "email": null, "barangay": "Sebario", "district": null, "municity": "San Lorenzo", "province": "Guimaras", "logo": null, "facebook": null, "url": null }, "geometry": { "type": "Point", "coordinates": [ 122.682531, 10.527532 ] } },
{ "type": "Feature", "properties": { "name": "Reyes Pharmacy", "category": "Health", "type": "Pharmacy", "address": "HHVP+9P2, Guimaras Circumferential Rd, Jordan, Guimaras", "contact_mobile": null, "contact_landline": null, "email": null, "barangay": "San Miguel", "district": null, "municity": "Jordan", "province": "Guimaras", "logo": null, "facebook": null, "url": null }, "geometry": { "type": "Point", "coordinates": [ 122.586798, 10.59338 ] } },
{ "type": "Feature", "properties": { "name": "Rs Drug Pharmacy", "category": "Health", "type": "Pharmacy", "address": "HHWQ+G2V, Guimaras Circumferential Rd, Jordan, Guimaras", "contact_mobile": "9179340837", "contact_landline": null, "email": null, "barangay": "San Miguel", "district": null, "municity": "Jordan", "province": "Guimaras", "logo": null, "facebook": null, "url": null }, "geometry": { "type": "Point", "coordinates": [ 122.587641, 10.596348 ] } },
{ "type": "Feature", "properties": { "name": "Rsa Medical Clinic", "category": "Health", "type": "Primary Care Facilities", "address": "MJWR+8XV, Guimaras Circumferential Rd, Buenavista, Guimaras", "contact_mobile": null, "contact_landline": null, "email": null, "barangay": "Salvacion", "district": null, "municity": "Buenavista", "province": "Guimaras", "logo": "https://drive.google.com/uc?export=view&id=15No2momWMI_jF03FmREgeEJE0IY5DUGT", "facebook": "https://www.facebook.com/profile.php?id=100077881617780", "url": null }, "geometry": { "type": "Point", "coordinates": [ 122.642428, 10.69589 ] } },
{ "type": "Feature", "properties": { "name": "Salvacion Health Center", "category": "Health", "type": "Primary Care Facilities", "address": "CGVM+CQ3, Nueva Valencia, Guimaras", "contact_mobile": null, "contact_landline": null, "email": null, "barangay": "Salvacion", "district": null, "municity": "Nueva Valencia", "province": "Guimaras", "logo": null, "facebook": null, "url": null }, "geometry": { "type": "Point", "coordinates": [ 122.534425, 10.443486 ] } },
{ "type": "Feature", "properties": { "name": "San Miguel Health Unit", "category": "Health", "type": "Primary Care Facilities", "address": "HHRM+955, Guimaras Circumferential Rd, Jordan, Guimaras", "contact_mobile": null, "contact_landline": null, "email": null, "barangay": "San Miguel", "district": null, "municity": "Jordan", "province": "Guimaras", "logo": null, "facebook": null, "url": null }, "geometry": { "type": "Point", "coordinates": [ 122.582973, 10.590893 ] } },
{ "type": "Feature", "properties": { "name": "San Roque Health Center", "category": "Health", "type": "Primary Care Facilities", "address": "CGP7+FM5, Nueva Valencia, Guimaras", "contact_mobile": null, "contact_landline": null, "email": null, "barangay": "San Roque", "district": null, "municity": "Nueva Valencia", "province": "Guimaras", "logo": null, "facebook": null, "url": null }, "geometry": { "type": "Point", "coordinates": [ 122.51424, 10.436141 ] } },
{ "type": "Feature", "properties": { "name": "Sibunag Rural Health Unit", "category": "Health", "type": "Primary Care Facilities", "address": "GJ3J+RFJ, Sibunag, Guimaras", "contact_mobile": "9776869751", "contact_landline": null, "email": "sibunagrhu@gmail.com", "barangay": "Dasal", "district": null, "municity": "Sibunag", "province": "Guimaras", "logo": null, "facebook": null, "url": null }, "geometry": { "type": "Point", "coordinates": [ 122.631119, 10.504244 ] } },
{ "type": "Feature", "properties": { "name": "Sinapsapan Health Center", "category": "Health", "type": "Primary Care Facilities", "address": "HGH9+7X3, Jordan, Guimaras", "contact_mobile": null, "contact_landline": null, "email": null, "barangay": "Sinapsapan", "district": null, "municity": "Jordan", "province": "Guimaras", "logo": null, "facebook": null, "url": null }, "geometry": { "type": "Point", "coordinates": [ 122.519922, 10.578142 ] } },
{ "type": "Feature", "properties": { "name": "Sireenity Dental Clinic", "category": "Health", "type": "Specialty Outpatient Centers", "address": "Guimaras Circumferential Rd, Nueva Valencia, 5046 Guimaras", "contact_mobile": null, "contact_landline": null, "email": null, "barangay": "San Miguel", "district": null, "municity": "Jordan", "province": "Guimaras", "logo": "https://drive.google.com/uc?export=view&id=1zICaDB-oeojxt0Lof-t4rIwrmhXb9Utf", "facebook": "https://www.facebook.com/profile.php?id=100092170883846", "url": null }, "geometry": { "type": "Point", "coordinates": [ 122.587881916052922, 10.602763982333595 ] } },
{ "type": "Feature", "properties": { "name": "Umali Drugstore", "category": "Health", "type": "Pharmacy", "address": "MJQ8+3VR, Sto. Rosario Buenavista, Guimaras, Iloilo City, 5044 Iloilo", "contact_mobile": null, "contact_landline": "335807977", "email": null, "barangay": "Santo Rosario", "district": null, "municity": "Buenavista", "province": "Guimaras", "logo": null, "facebook": null, "url": null }, "geometry": { "type": "Point", "coordinates": [ 122.617124, 10.687712 ] } },
{ "type": "Feature", "properties": { "name": "Unifront Pharmacy And Medical Supplies Trading", "category": "Health", "type": "Pharmacy", "address": "MMX2+6FM, Guimaras Circumferential Rd, Buenavista, Guimaras", "contact_mobile": null, "contact_landline": null, "email": null, "barangay": "McLain", "district": null, "municity": "Buenavista", "province": "Guimaras", "logo": null, "facebook": null, "url": null }, "geometry": { "type": "Point", "coordinates": [ 122.651259, 10.698138 ] } },
{ "type": "Feature", "properties": { "name": "Villareal Medical Clinic", "category": "Health", "type": "Primary Care Facilities", "address": "JH3Q+244, Jordan, Guimaras", "contact_mobile": null, "contact_landline": null, "email": null, "barangay": "San Miguel", "district": null, "municity": "Jordan", "province": "Guimaras", "logo": null, "facebook": null, "url": null }, "geometry": { "type": "Point", "coordinates": [ 122.587843, 10.602524 ] } },
{ "type": "Feature", "properties": { "name": "Watsons Jordan", "category": "Health", "type": "Pharmacy", "address": "Guimaras Circumferential Rd, Jordan, Guimaras", "contact_mobile": null, "contact_landline": null, "email": null, "barangay": "San Miguel", "district": null, "municity": "Jordan", "province": "Guimaras", "logo": "https://drive.google.com/uc?export=view&id=1kwmgcp2ELwTUKyKUHXddmwYTq4EuT1FP", "facebook": null, "url": null }, "geometry": { "type": "Point", "coordinates": [ 122.587932, 10.60275 ] } }
]
}
