{
"type": "FeatureCollection",
"name": "HEALTH_LEGANES_Health_Facilities_Insights",
"crs": { "type": "name", "properties": { "name": "urn:ogc:def:crs:OGC:1.3:CRS84" } },
"features": [
{ "type": "Feature", "properties": { "name": "Sabala Dental Clinic", "category": "Health", "type": "Specialty Outpatient Centers", "address": "QHVF+23M, Santa Barbara - Leganes Rd, Leganes, Iloilo", "contact_mobile": "9568420929", "contact_landline": null, "email": null, "barangay": "Lapayon", "district": null, "municity": "Leganes", "province": "Iloilo", "logo": null, "facebook": null, "url": null }, "geometry": { "type": "Point", "coordinates": [ 122.5727, 10.79262 ] } },
{ "type": "Feature", "properties": { "name": "Curewell Pharmacy", "category": "Health", "type": "Pharmacy", "address": "QHMR+HH9, Calle Progreso, Leganes, Iloilo", "contact_mobile": null, "contact_landline": null, "email": null, "barangay": "Poblacion", "district": null, "municity": "Leganes", "province": "Iloilo", "logo": null, "facebook": null, "url": null }, "geometry": { "type": "Point", "coordinates": [ 122.591484, 10.783914 ] } },
{ "type": "Feature", "properties": { "name": "Doctor Jack Pharmacy And Clinic", "category": "Health", "type": "Pharmacy", "address": "QHMQ+X5W, Leganes, Iloilo", "contact_mobile": "0963 668 3403", "contact_landline": null, "email": "info@doctorjackpharmacyandclinic.com", "barangay": "Poblacion", "district": null, "municity": "Leganes", "province": "Iloilo", "logo": "https://drive.google.com/uc?export=view&id=1Be76M3hhhcVChJGoRzweaeJCa8Xyb5IM", "facebook": "https://www.facebook.com/doctorjackleganes", "url": null }, "geometry": { "type": "Point", "coordinates": [ 122.587964, 10.784969 ] } },
{ "type": "Feature", "properties": { "name": "Doctor Jack Pharmacy And Clinic", "category": "Health", "type": "Primary Care Facilities", "address": "QHMQ+X5W, Leganes, Iloilo", "contact_mobile": "0963 668 3403", "contact_landline": null, "email": "info@doctorjackpharmacyandclinic.com", "barangay": "Poblacion", "district": null, "municity": "Leganes", "province": "Iloilo", "logo": "https://drive.google.com/uc?export=view&id=1Be76M3hhhcVChJGoRzweaeJCa8Xyb5IM", "facebook": "https://www.facebook.com/doctorjackleganes", "url": null }, "geometry": { "type": "Point", "coordinates": [ 122.587964, 10.784969 ] } },
{ "type": "Feature", "properties": { "name": "Eyedentity Optometric Clinic And Supplies", "category": "Health", "type": "Specialty Outpatient Centers", "address": "QHPQ+465, Leganes, Iloilo", "contact_mobile": "9985682689", "contact_landline": null, "email": null, "barangay": "Poblacion", "district": null, "municity": "Leganes", "province": "Iloilo", "logo": null, "facebook": null, "url": null }, "geometry": { "type": "Point", "coordinates": [ 122.588101, 10.785262 ] } },
{ "type": "Feature", "properties": { "name": "Guintivano Drug Store", "category": "Health", "type": "Pharmacy", "address": "QHPQ+PQW, Gustillo St., Poblacion, Leganes, Iloilo City, 5003 Iloilo", "contact_mobile": "9463867373", "contact_landline": null, "email": null, "barangay": "Poblacion", "district": null, "municity": "Leganes", "province": "Iloilo", "logo": null, "facebook": null, "url": null }, "geometry": { "type": "Point", "coordinates": [ 122.589469, 10.786851 ] } },
{ "type": "Feature", "properties": { "name": "KNBK Pharmacy", "category": "Health", "type": "Pharmacy", "address": "Hilado St, Leganes, 5003 Iloilo", "contact_mobile": "9952061410", "contact_landline": null, "email": null, "barangay": "Poblacion", "district": null, "municity": "Leganes", "province": "Iloilo", "logo": null, "facebook": null, "url": null }, "geometry": { "type": "Point", "coordinates": [ 122.589391, 10.786584 ] } },
{ "type": "Feature", "properties": { "name": "Leganes Primary Care Facility", "category": "Health", "type": "Primary Care Facilities", "address": "QHMQ+WQX, Rizal St, Leganes, Iloilo", "contact_mobile": "9285001724", "contact_landline": null, "email": "leganesrhuiloilo@gmail.com", "barangay": "Poblacion", "district": null, "municity": "Leganes", "province": "Iloilo", "logo": null, "facebook": null, "url": null }, "geometry": { "type": "Point", "coordinates": [ 122.589633, 10.784784 ] } },
{ "type": "Feature", "properties": { "name": "Leganes Rural Health Center Unit", "category": "Health", "type": "Primary Care Facilities", "address": "QHMQ+WQX, Rizal St, Leganes, Iloilo", "contact_mobile": "9285001724", "contact_landline": null, "email": null, "barangay": "Poblacion", "district": null, "municity": "Leganes", "province": "Iloilo", "logo": null, "facebook": null, "url": null }, "geometry": { "type": "Point", "coordinates": [ 122.58951, 10.784873 ] } },
{ "type": "Feature", "properties": { "name": "Resuelo Dental Clinic-Leganes Branch", "category": "Health", "type": "Specialty Outpatient Centers", "address": "QHPQ+XW3, Poblacion, Leganes, Iloilo", "contact_mobile": null, "contact_landline": null, "email": null, "barangay": "Poblacion", "district": null, "municity": "Leganes", "province": "Iloilo", "logo": "https://drive.google.com/uc?export=view&id=16OpTuUbBXsYERumtIBru5EjqavlaBom9", "facebook": "https://www.facebook.com/profile.php?id=61558857248721", "url": null }, "geometry": { "type": "Point", "coordinates": [ 122.589794, 10.78739 ] } },
{ "type": "Feature", "properties": { "name": "St. Gianna Maternity Clinic", "category": "Health", "type": "Birthing Facilities", "address": "Calle Progreso, Leganes, 5003 Iloilo", "contact_mobile": "9671628929", "contact_landline": "(033)336-19-85", "email": "stgianna.leganesfo@gmail.com", "barangay": "Guinobatan", "district": null, "municity": "Leganes", "province": "Iloilo", "logo": "https://drive.google.com/uc?export=view&id=1DsbWZoKSXhNMPth-Sw_dAaQn_1X2c5JK", "facebook": "https://www.facebook.com/profile.php?id=61563844273656", "url": null }, "geometry": { "type": "Point", "coordinates": [ 122.592921, 10.782762 ] } },
{ "type": "Feature", "properties": { "name": "TGP The Generics Pharmacy", "category": "Health", "type": "Pharmacy", "address": "STALL #3, LIVELIHOOD CENTER, POBLACION, Leganes, 5003 Iloilo", "contact_mobile": "9165792731", "contact_landline": null, "email": null, "barangay": "Poblacion", "district": null, "municity": "Leganes", "province": "Iloilo", "logo": "https://drive.google.com/uc?export=view&id=1WISI5p2HKjPDV5_QPphHn91Wv_HJhoxf", "facebook": null, "url": "http://www.tgp.com.ph/" }, "geometry": { "type": "Point", "coordinates": [ 122.589288, 10.786646 ] } },
{ "type": "Feature", "properties": { "name": "WVCS Pharmacy", "category": "Health", "type": "Pharmacy", "address": "QHPQ+QR Leganes, Iloilo", "contact_mobile": "9098018546", "contact_landline": null, "email": null, "barangay": "Poblacion", "district": null, "municity": "Leganes", "province": "Iloilo", "logo": null, "facebook": null, "url": null }, "geometry": { "type": "Point", "coordinates": [ 122.589552, 10.786985 ] } },
{ "type": "Feature", "properties": { "name": "Betita Penaso Dental Clinic", "category": "Health", "type": "Specialty Outpatient Centers", "address": "QHVR+2XM, Leganes, Iloilo", "contact_mobile": null, "contact_landline": null, "email": null, "barangay": "Cagamutan Sur", "district": null, "municity": "Leganes", "province": "Iloilo", "logo": null, "facebook": null, "url": null }, "geometry": { "type": "Point", "coordinates": [ 122.592452, 10.79265 ] } },
{ "type": "Feature", "properties": { "name": "Health Center Brgy. Guinobatan", "category": "Health", "type": "Primary Care Facilities", "address": "QHMX+QRH Brgy, Brgy. Guinobatan, Leganes, Iloilo City, 5003 Iloilo", "contact_mobile": null, "contact_landline": null, "email": null, "barangay": "Guinobatan", "district": null, "municity": "Leganes", "province": "Iloilo", "logo": null, "facebook": null, "url": null }, "geometry": { "type": "Point", "coordinates": [ 122.599596, 10.784406 ] } },
{ "type": "Feature", "properties": { "name": "Happy Tooth Dental Clinic", "category": "Health", "type": "Specialty Outpatient Centers", "address": "RH4X+MP Leganes, Iloilo", "contact_mobile": "9778377360", "contact_landline": null, "email": null, "barangay": "Cagamutan Norte", "district": null, "municity": "Leganes", "province": "Iloilo", "logo": null, "facebook": null, "url": null }, "geometry": { "type": "Point", "coordinates": [ 122.599288, 10.806648 ] } },
{ "type": "Feature", "properties": { "name": "Guay-diaz Dental Clinic", "category": "Health", "type": "Specialty Outpatient Centers", "address": "QHFJ+8XR, Jaro, Leganes, Iloilo", "contact_mobile": "9171829421", "contact_landline": null, "email": null, "barangay": "Buntatala", "district": null, "municity": "Leganes", "province": "Iloilo", "logo": null, "facebook": null, "url": null }, "geometry": { "type": "Point", "coordinates": [ 122.582362, 10.773408 ] } }
]
}
