{
"type": "FeatureCollection",
"name": "HEALTH_CABATUAN_Health_Facilities_Insights",
"crs": { "type": "name", "properties": { "name": "urn:ogc:def:crs:OGC:1.3:CRS84" } },
"features": [
{ "type": "Feature", "properties": { "name": "Anuang Barangay Health Station", "category": "Health", "type": "Primary Care Facilities", "address": "VGW6+WR3, Cabatuan, Iloilo", "contact_mobile": null, "contact_landline": null, "email": null, "barangay": "Anuang", "district": null, "municity": "Cabatuan", "province": "Iloilo", "logo": null, "facebook": null, "url": null }, "geometry": { "type": "Point", "coordinates": [ 122.512029, 10.897259 ] } },
{ "type": "Feature", "properties": { "name": "Generika Drugstore", "category": "Health", "type": "Pharmacy", "address": "WG57+MVC, Rizal Ilawod ST., Cabatuan, Iloilo, Cabatuan, 5031", "contact_mobile": "9491472215", "contact_landline": null, "email": null, "barangay": "Inaladan", "district": null, "municity": "Cabatuan", "province": "Iloilo", "logo": "https://drive.google.com/uc?export=view&id=1sxnvp-wmIJIKXxe2Hp-UxaJe4n11Ag6a", "facebook": "https://www.facebook.com/generika.cabatuan.9/", "url": "http://www.generika.com.ph/" }, "geometry": { "type": "Point", "coordinates": [ 122.514644, 10.909187 ] } },
{ "type": "Feature", "properties": { "name": "Ramon Tabiana Memorial District Hospital", "category": "Health", "type": "Hospitals", "address": "VF9W+VFH, Barangay Pungtod, Cabatuan, Iloilo, Cabatuan", "contact_mobile": null, "contact_landline": "(033) 522 8549", "email": "hospital.cabatuan.iloilo@gmail.com", "barangay": "Pungtod", "district": null, "municity": "Cabatuan", "province": "Iloilo", "logo": null, "facebook": "https://www.facebook.com/p/Ramon-Tabiana-Memorial-District-Hospital-100088491620087/", "url": null }, "geometry": { "type": "Point", "coordinates": [ 122.496244, 10.869694 ] } },
{ "type": "Feature", "properties": { "name": "Fastlane Drugstore & Medical Clinic", "category": "Health", "type": "Pharmacy", "address": "VF6X+QCP, Old Iloilo - Capiz Rd, Cabatuan, Iloilo", "contact_mobile": null, "contact_landline": null, "email": null, "barangay": "Tabucan", "district": null, "municity": "Cabatuan", "province": "Iloilo", "logo": null, "facebook": null, "url": null }, "geometry": { "type": "Point", "coordinates": [ 122.498573, 10.861958 ] } },
{ "type": "Feature", "properties": { "name": "Fastlane Drugstore & Medical Clinic", "category": "Health", "type": "Primary Care Facilities", "address": "VF6X+QCP, Old Iloilo - Capiz Rd, Cabatuan, Iloilo", "contact_mobile": null, "contact_landline": null, "email": null, "barangay": "Tabucan", "district": null, "municity": "Cabatuan", "province": "Iloilo", "logo": null, "facebook": null, "url": null }, "geometry": { "type": "Point", "coordinates": [ 122.498573, 10.861958 ] } },
{ "type": "Feature", "properties": { "name": "San Antonio Medical Clinic", "category": "Health", "type": "Primary Care Facilities", "address": "Old Iloilo - Capiz Rd, Cabatuan, Iloilo", "contact_mobile": "9391003040", "contact_landline": null, "email": null, "barangay": "Banguit", "district": null, "municity": "Cabatuan", "province": "Iloilo", "logo": null, "facebook": null, "url": null }, "geometry": { "type": "Point", "coordinates": [ 122.493171, 10.870193 ] } },
{ "type": "Feature", "properties": { "name": "Alag-Clementir Dental Clinic", "category": "Health", "type": "Specialty Outpatient Centers", "address": "Gallar Bldg, Zone 1 Rizal Ilawod St, Cabatuan, Iloilo", "contact_mobile": "9662141895", "contact_landline": "(033) 351 5262", "email": "nfclementir@yahoo.com", "barangay": "Poblacion", "district": null, "municity": "Cabatuan", "province": "Iloilo", "logo": "https://drive.google.com/uc?export=view&id=1tQwgPXwtDm7K7KDF1mW40dcp0KlWP1DM", "facebook": "https://www.facebook.com/p/Alag-Clementir-Dental-Clinic-100063562464662/", "url": null }, "geometry": { "type": "Point", "coordinates": [ 122.483076, 10.878171 ] } },
{ "type": "Feature", "properties": { "name": "Albacete Eye Clinic", "category": "Health", "type": "Specialty Outpatient Centers", "address": "Unit 1 Gallar leasing Building, Rizal Ilawod st. Cabatuan. Iloilo", "contact_mobile": "0963 862 9414", "contact_landline": null, "email": "thomasalbacete@gmail.com", "barangay": "Poblacion", "district": null, "municity": "Cabatuan", "province": "Iloilo", "logo": "https://drive.google.com/uc?export=view&id=1Utxk10IdEMD7JCQ9jlDXoe3MfLMmJkxr", "facebook": "https://www.facebook.com/AlbaceteEyeClinic", "url": null }, "geometry": { "type": "Point", "coordinates": [ 122.483151, 10.878112 ] } },
{ "type": "Feature", "properties": { "name": "Andarza Dental Clinic", "category": "Health", "type": "Specialty Outpatient Centers", "address": "VFJM+JVG, Old Iloilo - Capiz Rd, Cabatuan, 5031 Iloilo", "contact_mobile": null, "contact_landline": "(033)5227006", "email": null, "barangay": "Poblacion", "district": null, "municity": "Cabatuan", "province": "Iloilo", "logo": null, "facebook": null, "url": null }, "geometry": { "type": "Point", "coordinates": [ 122.484716, 10.881564 ] } },
{ "type": "Feature", "properties": { "name": "Botika Amor", "category": "Health", "type": "Pharmacy", "address": "Bermejo st Brgy. Zone 3 Poblacion Cabatuan Iloilo City, 5031 Iloilo", "contact_mobile": "9056685539", "contact_landline": null, "email": "botikaamor@gmail.com", "barangay": "Poblacion", "district": null, "municity": "Cabatuan", "province": "Iloilo", "logo": "https://drive.google.com/uc?export=view&id=1yJm9hCDMDX9rYa86l5GqhZRkHJ69YLh8", "facebook": "https://www.facebook.com/botikaamor", "url": null }, "geometry": { "type": "Point", "coordinates": [ 122.485344, 10.881318 ] } },
{ "type": "Feature", "properties": { "name": "Caspe Carmelo Dental Clinic", "category": "Health", "type": "Specialty Outpatient Centers", "address": "Room 60, 2nd Floor, Cabatuan Public Market, Rizal Street, Cabatuan, Iloilo 5031 Cabatuan, Philippines", "contact_mobile": "0963 039 2326", "contact_landline": null, "email": "caspecarmelodental@gmail.com", "barangay": "Poblacion", "district": null, "municity": "Cabatuan", "province": "Iloilo", "logo": "https://drive.google.com/uc?export=view&id=1okhW96hXs1oRmD8XvqZLaumLxljtJYtw", "facebook": "https://www.facebook.com/CaspeCarmeloDentalClinic/", "url": null }, "geometry": { "type": "Point", "coordinates": [ 122.482349, 10.878754 ] } },
{ "type": "Feature", "properties": { "name": "Dots Center Cabautan", "category": "Health", "type": "Specialty Outpatient Centers", "address": "VFJJ+695, Cabatuan, Iloilo", "contact_mobile": null, "contact_landline": null, "email": null, "barangay": "Poblacion", "district": null, "municity": "Cabatuan", "province": "Iloilo", "logo": null, "facebook": null, "url": null }, "geometry": { "type": "Point", "coordinates": [ 122.48097, 10.880517 ] } },
{ "type": "Feature", "properties": { "name": "Healthlink (Iloilo), Inc.- Cabatuan Branch", "category": "Health", "type": "Diagnostic Centers", "address": "VFJJ+4WV, Confesor Dr, Cabatuan, Iloilo", "contact_mobile": "9501588216", "contact_landline": "332-3499", "email": "ihealthlinkinc@yahoo.com", "barangay": "Poblacion", "district": null, "municity": "Cabatuan", "province": "Iloilo", "logo": "https://drive.google.com/uc?export=view&id=1nkik8ZLS2Jicv7LNxbXlZP5dlcFO1DJu", "facebook": "https://www.facebook.com/healthlinkIloiloInc.Official/", "url": "https://www.healthlinkiloilo.com/blog-grid.html" }, "geometry": { "type": "Point", "coordinates": [ 122.482321, 10.880387 ] } },
{ "type": "Feature", "properties": { "name": "Healthlink (Iloilo), Inc.- Cabatuan Branch", "category": "Health", "type": "Primary Care Facilities", "address": "VFJJ+4WV, Confesor Dr, Cabatuan, Iloilo", "contact_mobile": "9501588216", "contact_landline": "332-3499", "email": "ihealthlinkinc@yahoo.com", "barangay": "Poblacion", "district": null, "municity": "Cabatuan", "province": "Iloilo", "logo": "https://drive.google.com/uc?export=view&id=1nkik8ZLS2Jicv7LNxbXlZP5dlcFO1DJu", "facebook": "https://www.facebook.com/healthlinkIloiloInc.Official/", "url": "https://www.healthlinkiloilo.com/blog-grid.html" }, "geometry": { "type": "Point", "coordinates": [ 122.482321, 10.880387 ] } },
{ "type": "Feature", "properties": { "name": "Hualde Health Clinic", "category": "Health", "type": "Primary Care Facilities", "address": "Rizal Ilawod, Cabatuan Iloilo 5031 Iloilo City, Philippines", "contact_mobile": "0912 325 3871", "contact_landline": null, "email": null, "barangay": "Poblacion", "district": null, "municity": "Cabatuan", "province": "Iloilo", "logo": "https://drive.google.com/uc?export=view&id=1AFG3KKL45lyNPlAMsfUw6nnxikKPOgHL", "facebook": "https://www.facebook.com/p/Hualde-Health-Clinic-100063897375996/", "url": null }, "geometry": { "type": "Point", "coordinates": [ 122.484637, 10.876923 ] } },
{ "type": "Feature", "properties": { "name": "Hualde Pharmacy", "category": "Health", "type": "Pharmacy", "address": "Rizal Ilawod, Cabatuan Iloilo 5031 Iloilo City, Philippines", "contact_mobile": "0918 528 8878", "contact_landline": null, "email": null, "barangay": "Poblacion", "district": null, "municity": "Cabatuan", "province": "Iloilo", "logo": "https://drive.google.com/uc?export=view&id=1Vy6leewVCUVkEggNb45hNo_4PmaEPc5I", "facebook": "https://www.facebook.com/p/Hualde-Pharmacy-and-Convenience-Store-100063745973171/", "url": null }, "geometry": { "type": "Point", "coordinates": [ 122.484639, 10.876922 ] } },
{ "type": "Feature", "properties": { "name": "I.G. Eye Care Clinic Cabatuan", "category": "Health", "type": "Specialty Outpatient Centers", "address": "Moneva Building Rizal Ilawod Zone 1 Poblacion Cabatuan Iloilo", "contact_mobile": "9949845875", "contact_landline": null, "email": null, "barangay": "Poblacion", "district": null, "municity": "Cabatuan", "province": "Iloilo", "logo": "https://drive.google.com/uc?export=view&id=149NKfw-F4MN46KmM3X-ZlZsHdr3mx50A", "facebook": "https://www.facebook.com/profile.php?id=100068884861372", "url": null }, "geometry": { "type": "Point", "coordinates": [ 122.482557, 10.878897 ] } },
{ "type": "Feature", "properties": { "name": "Mandario Pharmacy", "category": "Health", "type": "Pharmacy", "address": "VFHJ+FWX, Old Iloilo - Capiz Rd, Cabatuan, Iloilo", "contact_mobile": null, "contact_landline": null, "email": null, "barangay": "Poblacion", "district": null, "municity": "Cabatuan", "province": "Iloilo", "logo": null, "facebook": null, "url": null }, "geometry": { "type": "Point", "coordinates": [ 122.482368, 10.87874 ] } },
{ "type": "Feature", "properties": { "name": "Niervo Pharmacy & Convenience Store", "category": "Health", "type": "Pharmacy", "address": "VFHM+67X, Old Iloilo - Capiz Rd, Cabatuan, Iloilo", "contact_mobile": null, "contact_landline": null, "email": "niervo.pharmacy@gmail.com", "barangay": "Poblacion", "district": null, "municity": "Cabatuan", "province": "Iloilo", "logo": "https://drive.google.com/uc?export=view&id=1jehVTKlfAHpIWaZBLL8_HzLjJi87-kf8", "facebook": "https://www.facebook.com/photo/?fbid=437177208452295&set=a.437177188452297", "url": null }, "geometry": { "type": "Point", "coordinates": [ 122.483203, 10.878072 ] } },
{ "type": "Feature", "properties": { "name": "Pueyo Medical Clinic", "category": "Health", "type": "Primary Care Facilities", "address": "VFJH+VX2, Confesor Dr, Cabatuan, Iloilo", "contact_mobile": null, "contact_landline": null, "email": null, "barangay": "Poblacion", "district": null, "municity": "Cabatuan", "province": "Iloilo", "logo": null, "facebook": null, "url": null }, "geometry": { "type": "Point", "coordinates": [ 122.479898, 10.882149 ] } },
{ "type": "Feature", "properties": { "name": "Rochelle M. Soresca Pharmacy", "category": "Health", "type": "Pharmacy", "address": "VFJM+769, Old Iloilo - Capiz Rd, Cabatuan, 5031 Iloilo", "contact_mobile": null, "contact_landline": null, "email": null, "barangay": "Poblacion", "district": null, "municity": "Cabatuan", "province": "Iloilo", "logo": null, "facebook": null, "url": null }, "geometry": { "type": "Point", "coordinates": [ 122.483107, 10.880669 ] } },
{ "type": "Feature", "properties": { "name": "Rose Pharmacy - Cabatuan Prince Hypermart", "category": "Health", "type": "Pharmacy", "address": "Prince Hypermart Cabatuan, Confessor Drive, Brgy V, Cabatuan, Iloilo City", "contact_mobile": null, "contact_landline": "(032) 234 0660", "email": "info@rosepharmacy.com.ph", "barangay": "Poblacion", "district": null, "municity": "Cabatuan", "province": "Iloilo", "logo": "https://drive.google.com/uc?export=view&id=1_hNBDXj5nGytDOLXDb0DWCkyyKlzBAfX", "facebook": "https://www.facebook.com/RosePharmacyInc", "url": null }, "geometry": { "type": "Point", "coordinates": [ 122.481578, 10.880967 ] } },
{ "type": "Feature", "properties": { "name": "Rose Pharmacy Bermejo", "category": "Health", "type": "Pharmacy", "address": "RNMA Building Bermejo St. Zone 3 Cabatuan Iloilo", "contact_mobile": null, "contact_landline": "(032) 234 0660", "email": "info@rosepharmacy.com.ph", "barangay": "Poblacion", "district": null, "municity": "Cabatuan", "province": "Iloilo", "logo": "https://drive.google.com/uc?export=view&id=1_hNBDXj5nGytDOLXDb0DWCkyyKlzBAfX", "facebook": "https://www.facebook.com/RosePharmacyInc", "url": null }, "geometry": { "type": "Point", "coordinates": [ 122.48241, 10.879265 ] } },
{ "type": "Feature", "properties": { "name": "Ssg Pharmacy", "category": "Health", "type": "Pharmacy", "address": "15 Rizal Ilawod St, Cabatuan, Iloilo", "contact_mobile": "0930 647 7775", "contact_landline": null, "email": "sasolania@yahoo.com", "barangay": "Poblacion", "district": null, "municity": "Cabatuan", "province": "Iloilo", "logo": "https://drive.google.com/uc?export=view&id=1Dz5wBIrPVwJs7szqzrALpDK8gmswwQFE", "facebook": "https://www.facebook.com/ssghomephar/", "url": null }, "geometry": { "type": "Point", "coordinates": [ 122.481947, 10.878796 ] } },
{ "type": "Feature", "properties": { "name": "TGP The Generics Pharmacy", "category": "Health", "type": "Pharmacy", "address": "Bermejo, Cabatuan, 5031 Iloilo", "contact_mobile": "0919 754 4414", "contact_landline": null, "email": "cabatuan@bbbrothers.org", "barangay": "Poblacion", "district": null, "municity": "Cabatuan", "province": "Iloilo", "logo": "https://drive.google.com/uc?export=view&id=1WISI5p2HKjPDV5_QPphHn91Wv_HJhoxf", "facebook": "https://www.facebook.com/p/TGP-Cabatuan-Iloilo-Branch-100066746096659/", "url": null }, "geometry": { "type": "Point", "coordinates": [ 122.482401, 10.879379 ] } },
{ "type": "Feature", "properties": { "name": "Grana-Aguana Dental Clinic", "category": "Health", "type": "Specialty Outpatient Centers", "address": "Brgy. Amerang, Cabatuan, Iloilo, Cabatuan, Philippines", "contact_mobile": "9173121391", "contact_landline": null, "email": "agdental2022@gmail.com", "barangay": "Amerang", "district": null, "municity": "Cabatuan", "province": "Iloilo", "logo": "https://drive.google.com/uc?export=view&id=165glkwbLb3Ngea-g_BuUZrJhmVmXnIyi", "facebook": "https://www.facebook.com/AguanaGranaDentalClinic/", "url": null }, "geometry": { "type": "Point", "coordinates": [ 122.474298, 10.883538 ] } },
{ "type": "Feature", "properties": { "name": "Dr. Halili Clinic", "category": "Health", "type": "Primary Care Facilities", "address": "VFGP+5MF, Old Iloilo - Capiz Rd, Cabatuan, Iloilo", "contact_mobile": null, "contact_landline": null, "email": null, "barangay": "Poblacion", "district": null, "municity": "Cabatuan", "province": "Iloilo", "logo": null, "facebook": null, "url": null }, "geometry": { "type": "Point", "coordinates": [ 122.486671, 10.875434 ] } },
{ "type": "Feature", "properties": { "name": "Dr. Meryl Nacanaynay Dental Clinic", "category": "Health", "type": "Pharmacy", "address": "VFJM+CMX, Bermejo, Cabatuan, 5031 Iloilo", "contact_mobile": null, "contact_landline": "(032)5227706", "email": null, "barangay": "Poblacion", "district": null, "municity": "Cabatuan", "province": "Iloilo", "logo": null, "facebook": null, "url": null }, "geometry": { "type": "Point", "coordinates": [ 122.485994, 10.876192 ] } },
{ "type": "Feature", "properties": { "name": "Eljo Pharmacy", "category": "Health", "type": "Pharmacy", "address": "RIZAL ILAWOD ST ZONE 1, CABATUAN, ILOILO", "contact_mobile": null, "contact_landline": null, "email": null, "barangay": "Banguit", "district": null, "municity": "Cabatuan", "province": "Iloilo", "logo": null, "facebook": null, "url": null }, "geometry": { "type": "Point", "coordinates": [ 122.488432, 10.874555 ] } }
]
}
