{
"type": "FeatureCollection",
"name": "HEALTH_PAVIA_Health_Facilities_Insights",
"crs": { "type": "name", "properties": { "name": "urn:ogc:def:crs:OGC:1.3:CRS84" } },
"features": [
{ "type": "Feature", "properties": { "name": "Denila - Rojo Dental Clinic", "category": "Health", "type": "Specialty Outpatient Centers", "address": "Brgy, Pavia, 5001 Iloilo", "contact_mobile": "9691010767", "contact_landline": null, "email": "denilarojodc@gmail.com", "barangay": "Pandac", "district": null, "municity": "Pavia", "province": "Iloilo", "logo": "https://drive.google.com/uc?export=view&id=1-ZzeU3e1qpoKXnF0GH4Ygzmbx3RYvcE2", "facebook": "https://www.facebook.com/DenilaRojoDentalClinic", "url": null }, "geometry": { "type": "Point", "coordinates": [ 122.521491, 10.751804 ] } },
{ "type": "Feature", "properties": { "name": "Dr. Cyril's Family Clinic- Dr. Cyril Lauron Sapanza", "category": "Health", "type": "Primary Care Facilities", "address": "Deca Homes, Subd, Pavia, Iloilo", "contact_mobile": "9691398767", "contact_landline": null, "email": null, "barangay": "Pandac", "district": null, "municity": "Pavia", "province": "Iloilo", "logo": null, "facebook": null, "url": null }, "geometry": { "type": "Point", "coordinates": [ 122.526682, 10.753787 ] } },
{ "type": "Feature", "properties": { "name": "Healthforce Clinical Laboratory And Medical Clinics Company", "category": "Health", "type": "Primary Care Facilities", "address": "Brgy Benelio II Building, Felix Gorriceta Jr. Avenue, pavia, Iloilo City, 5000 Iloilo", "contact_mobile": "9633603959", "contact_landline": null, "email": "healthforce2020@gmail.com", "barangay": "Pandac", "district": null, "municity": "Pavia", "province": "Iloilo", "logo": "https://drive.google.com/uc?export=view&id=1PFgYLm5dzJJgDuwUY-OHQmC1uaZna4qC", "facebook": "https://www.facebook.com/healthforce2020", "url": null }, "geometry": { "type": "Point", "coordinates": [ 122.522559, 10.753298 ] } },
{ "type": "Feature", "properties": { "name": "Healthforce Clinical Laboratory And Medical Clinics Company", "category": "Health", "type": "Diagnostic Centers", "address": "Brgy Benelio II Building, Felix Gorriceta Jr. Avenue, pavia, Iloilo City, 5000 Iloilo", "contact_mobile": "9633603959", "contact_landline": null, "email": "healthforce2020@gmail.com", "barangay": "Pandac", "district": null, "municity": "Pavia", "province": "Iloilo", "logo": "https://drive.google.com/uc?export=view&id=1PFgYLm5dzJJgDuwUY-OHQmC1uaZna4qC", "facebook": "https://www.facebook.com/healthforce2020", "url": null }, "geometry": { "type": "Point", "coordinates": [ 122.522559, 10.753298 ] } },
{ "type": "Feature", "properties": { "name": "J And S Drugstore", "category": "Health", "type": "Pharmacy", "address": "PGX9+QRH Westville Subdivision, Felix Gorriceta Jr. Avenue, Pavia, 5001 Iloilo", "contact_mobile": null, "contact_landline": null, "email": null, "barangay": "Pandac", "district": null, "municity": "Pavia", "province": "Iloilo", "logo": null, "facebook": "https://www.facebook.com/profile.php?id=100064050907062", "url": null }, "geometry": { "type": "Point", "coordinates": [ 122.519622, 10.749429 ] } },
{ "type": "Feature", "properties": { "name": "Road Dragon Medical Clinic", "category": "Health", "type": "Primary Care Facilities", "address": "Pavia, 5001 Iloilo", "contact_mobile": "9452343692", "contact_landline": null, "email": null, "barangay": "Ungka II", "district": null, "municity": "Pavia", "province": "Iloilo", "logo": null, "facebook": null, "url": null }, "geometry": { "type": "Point", "coordinates": [ 122.535876, 10.753063 ] } },
{ "type": "Feature", "properties": { "name": "Statlab Gt Town Center Pavia Branch", "category": "Health", "type": "Primary Care Facilities", "address": "Pavia, Iloilo", "contact_mobile": null, "contact_landline": "(033)3281351", "email": null, "barangay": "Ungka II", "district": null, "municity": "Pavia", "province": "Iloilo", "logo": null, "facebook": null, "url": null }, "geometry": { "type": "Point", "coordinates": [ 122.538108, 10.754375 ] } },
{ "type": "Feature", "properties": { "name": "Statlab Gt Town Center Pavia Branch", "category": "Health", "type": "Diagnostic Centers", "address": "Pavia, Iloilo", "contact_mobile": null, "contact_landline": "(033)3281351", "email": null, "barangay": "Ungka II", "district": null, "municity": "Pavia", "province": "Iloilo", "logo": null, "facebook": null, "url": null }, "geometry": { "type": "Point", "coordinates": [ 122.538108, 10.754375 ] } },
{ "type": "Feature", "properties": { "name": "Watsons", "category": "Health", "type": "Pharmacy", "address": "Savemore Market GT Mall PaviaZone 02, Pavia, Iloilo", "contact_mobile": "9178281545", "contact_landline": null, "email": null, "barangay": "Ungka II", "district": null, "municity": "Pavia", "province": "Iloilo", "logo": "https://drive.google.com/uc?export=view&id=1kwmgcp2ELwTUKyKUHXddmwYTq4EuT1FP", "facebook": null, "url": "http://www.watsons.com.ph/" }, "geometry": { "type": "Point", "coordinates": [ 122.538177, 10.753471 ] } },
{ "type": "Feature", "properties": { "name": "Watsons Robinsons Place Pavia ", "category": "Health", "type": "Pharmacy", "address": "Unit L2 - 12, 2 Ungka I Barangay Rd, Pavia, Iloilo", "contact_mobile": null, "contact_landline": "(033)5246987", "email": null, "barangay": "Ungka II", "district": null, "municity": "Pavia", "province": "Iloilo", "logo": "https://drive.google.com/uc?export=view&id=1kwmgcp2ELwTUKyKUHXddmwYTq4EuT1FP", "facebook": null, "url": "http://www.watsons.com.ph/" }, "geometry": { "type": "Point", "coordinates": [ 122.53975, 10.753171 ] } },
{ "type": "Feature", "properties": { "name": "Family Care Multispecialty Clinic Pavia", "category": "Health", "type": "Primary Care Facilities", "address": "Unit 6, Second Floor, SVMM Building, Don Julio Subd, Rd 5, Pavia, 5001 Iloilo", "contact_mobile": "9270761439", "contact_landline": null, "email": null, "barangay": "Aganan", "district": null, "municity": "Pavia", "province": "Iloilo", "logo": null, "facebook": null, "url": null }, "geometry": { "type": "Point", "coordinates": [ 122.534629, 10.76786 ] } },
{ "type": "Feature", "properties": { "name": "Madrich Pharmacy", "category": "Health", "type": "Pharmacy", "address": "QG9P+JCJ, Felix Gorriceta Jr. Avenue, Pavia, Iloilo", "contact_mobile": null, "contact_landline": null, "email": null, "barangay": "Aganan", "district": null, "municity": "Pavia", "province": "Iloilo", "logo": null, "facebook": null, "url": null }, "geometry": { "type": "Point", "coordinates": [ 122.536017, 10.76909 ] } },
{ "type": "Feature", "properties": { "name": "Mercury Drug Store - Aganan", "category": "Health", "type": "Pharmacy", "address": "QG9P+3JC, Pavia, Iloilo", "contact_mobile": null, "contact_landline": "(033)3205797", "email": null, "barangay": "Aganan", "district": null, "municity": "Pavia", "province": "Iloilo", "logo": "https://drive.google.com/uc?export=view&id=1-3ZIoKxrSzJNiR__AhNjEIaL8XWYaw_C", "facebook": null, "url": "https://www.mercurydrug.com/" }, "geometry": { "type": "Point", "coordinates": [ 122.536495, 10.767695 ] } },
{ "type": "Feature", "properties": { "name": "MWM Pharmacy", "category": "Health", "type": "Pharmacy", "address": "43 Felix Gorriceta Jr. Avenue Pavia, Iloilo City, Iloilo", "contact_mobile": null, "contact_landline": null, "email": null, "barangay": "Aganan", "district": null, "municity": "Pavia", "province": "Iloilo", "logo": null, "facebook": null, "url": null }, "geometry": { "type": "Point", "coordinates": [ 122.535323, 10.768113 ] } },
{ "type": "Feature", "properties": { "name": "NAZ Pharma", "category": "Health", "type": "Pharmacy", "address": "Felix Gorriceta Jr. Avenue, Pavia, 5001 Iloilo", "contact_mobile": null, "contact_landline": "3252685", "email": null, "barangay": "Aganan", "district": null, "municity": "Pavia", "province": "Iloilo", "logo": null, "facebook": null, "url": null }, "geometry": { "type": "Point", "coordinates": [ 122.536138, 10.769015 ] } },
{ "type": "Feature", "properties": { "name": "RX Queen Pharmacy", "category": "Health", "type": "Pharmacy", "address": "Brgy, Pavia, 5000 Iloilo", "contact_mobile": "9209585867", "contact_landline": null, "email": null, "barangay": "Aganan", "district": null, "municity": "Pavia", "province": "Iloilo", "logo": null, "facebook": null, "url": null }, "geometry": { "type": "Point", "coordinates": [ 122.536745, 10.768633 ] } },
{ "type": "Feature", "properties": { "name": "Suprema Medicina Drugstore", "category": "Health", "type": "Pharmacy", "address": "Zone 3, Felix Gorriceta Jr. Avenue, Pavia, 5001 Iloilo", "contact_mobile": null, "contact_landline": null, "email": null, "barangay": "Aganan", "district": null, "municity": "Pavia", "province": "Iloilo", "logo": null, "facebook": null, "url": null }, "geometry": { "type": "Point", "coordinates": [ 122.536294, 10.76911 ] } },
{ "type": "Feature", "properties": { "name": "TGP The Generics Pharmacy", "category": "Health", "type": "Pharmacy", "address": "LOT NO. 332-B BRGY. AGANAN, Pavia,, Iloilo City, 5001 Iloilo", "contact_mobile": null, "contact_landline": "(033)3364990", "email": null, "barangay": "Aganan", "district": null, "municity": "Pavia", "province": "Iloilo", "logo": "https://drive.google.com/uc?export=view&id=1WISI5p2HKjPDV5_QPphHn91Wv_HJhoxf", "facebook": null, "url": "http://www.tgp.com.ph/" }, "geometry": { "type": "Point", "coordinates": [ 122.535856, 10.768717 ] } },
{ "type": "Feature", "properties": { "name": "Gerochi Dental Clinic", "category": "Health", "type": "Specialty Outpatient Centers", "address": "QG9P+XGR, Pavia, Iloilo", "contact_mobile": null, "contact_landline": null, "email": null, "barangay": "Aganan", "district": null, "municity": "Pavia", "province": "Iloilo", "logo": null, "facebook": null, "url": null }, "geometry": { "type": "Point", "coordinates": [ 122.536263, 10.769979 ] } },
{ "type": "Feature", "properties": { "name": "Holy Mary General Hospital", "category": "Health", "type": "Hospitals", "address": "Felix Gorriceta Ave., Barangay Balabag Pavia, Iloilo, Pavia, Philippines", "contact_mobile": null, "contact_landline": "(033) 337 5250", "email": "hmwch2@yahoo.com", "barangay": "Balabag", "district": null, "municity": "Pavia", "province": "Iloilo", "logo": "https://drive.google.com/uc?export=view&id=1te_e_HDDm52PmtM2Glr0T2VbIKygJ06X", "facebook": "https://www.facebook.com/people/Holy-Mary-General-Hospital/100077278105252/", "url": null }, "geometry": { "type": "Point", "coordinates": [ 122.528301, 10.761917 ] } },
{ "type": "Feature", "properties": { "name": "Holy Mary General Hospital", "category": "Health", "type": "Hospitals", "address": "QG6H+Q87, Felix Gorriceta Jr. Avenue, Pavia, 5001 Iloilo", "contact_mobile": null, "contact_landline": "(033) 337 5250", "email": "hmghosp@gmail.com", "barangay": "Balabag", "district": null, "municity": "Pavia", "province": "Iloilo", "logo": null, "facebook": "https://www.facebook.com/profile.php?id=61567002772613", "url": null }, "geometry": { "type": "Point", "coordinates": [ 122.528301, 10.761917 ] } },
{ "type": "Feature", "properties": { "name": "Rosel's Pharmacy", "category": "Health", "type": "Pharmacy", "address": "QG6H+F79, Felix Gorriceta Jr. Avenue, Pavia, Iloilo", "contact_mobile": null, "contact_landline": null, "email": null, "barangay": "Balabag", "district": null, "municity": "Pavia", "province": "Iloilo", "logo": null, "facebook": null, "url": null }, "geometry": { "type": "Point", "coordinates": [ 122.528224, 10.761158 ] } },
{ "type": "Feature", "properties": { "name": "Eusala Drug Store", "category": "Health", "type": "Pharmacy", "address": "Beside Monticello, Sitio Proper, Balabag Pavia, Iloilo City, 5000 Iloilo", "contact_mobile": "9291534071", "contact_landline": null, "email": null, "barangay": "Balabag", "district": null, "municity": "Pavia", "province": "Iloilo", "logo": null, "facebook": null, "url": null }, "geometry": { "type": "Point", "coordinates": [ 122.516924, 10.768616 ] } },
{ "type": "Feature", "properties": { "name": "J. Alipio Dental Care", "category": "Health", "type": "Specialty Outpatient Centers", "address": "Felix Gorriceta Jr. Avenue, Pavia, 5001 Iloilo", "contact_mobile": null, "contact_landline": null, "email": "j.alipiodentalcare@gmail.com", "barangay": "Balabag", "district": null, "municity": "Pavia", "province": "Iloilo", "logo": "https://drive.google.com/uc?export=view&id=132cX089c_xR-DL3_ytWtuTRg_pWLgCvS", "facebook": "https://www.facebook.com/j.alipio.dentalcare", "url": null }, "geometry": { "type": "Point", "coordinates": [ 122.526846, 10.759316 ] } },
{ "type": "Feature", "properties": { "name": "Lord's Drugstore", "category": "Health", "type": "Pharmacy", "address": "QG99+4JW, Angela Avenue, Pavia, Iloilo", "contact_mobile": null, "contact_landline": null, "email": null, "barangay": "Balabag", "district": null, "municity": "Pavia", "province": "Iloilo", "logo": null, "facebook": null, "url": null }, "geometry": { "type": "Point", "coordinates": [ 122.519063, 10.767854 ] } },
{ "type": "Feature", "properties": { "name": "Megacare Diagnostic Center Co.", "category": "Health", "type": "Diagnostic Centers", "address": "Felix Gorriceta Jr. Avenue, Pavia, Iloilo", "contact_mobile": "9488856467", "contact_landline": null, "email": null, "barangay": "Balabag", "district": null, "municity": "Pavia", "province": "Iloilo", "logo": null, "facebook": null, "url": null }, "geometry": { "type": "Point", "coordinates": [ 122.526668, 10.75869 ] } },
{ "type": "Feature", "properties": { "name": "Pharmacy Omnicare", "category": "Health", "type": "Pharmacy", "address": "Pavia, Iloilo", "contact_mobile": "9087275807", "contact_landline": null, "email": null, "barangay": "Balabag", "district": null, "municity": "Pavia", "province": "Iloilo", "logo": null, "facebook": null, "url": null }, "geometry": { "type": "Point", "coordinates": [ 122.523934, 10.76544 ] } },
{ "type": "Feature", "properties": { "name": "Botika ni Rolly", "category": "Health", "type": "Pharmacy", "address": "Amparo, Pavia, 5001 Iloilo", "contact_mobile": null, "contact_landline": null, "email": "jamoyotfamilybusiness@gmail.com", "barangay": "Amparo", "district": null, "municity": "Pavia", "province": "Iloilo", "logo": "https://drive.google.com/uc?export=view&id=1sGf78Kx_UpvC4d6wzEfIw_alhIbafVv-", "facebook": "https://www.facebook.com/profile.php?id=61562370973580", "url": null }, "geometry": { "type": "Point", "coordinates": [ 122.51971, 10.773278 ] } },
{ "type": "Feature", "properties": { "name": "Gallinero Dental Center", "category": "Health", "type": "Specialty Outpatient Centers", "address": "PGV7+CW9, Iloilo City - Aleosan Rd, Pavia, Iloilo", "contact_mobile": "9063364854", "contact_landline": null, "email": null, "barangay": "Jibao-an", "district": null, "municity": "Pavia", "province": "Iloilo", "logo": null, "facebook": null, "url": null }, "geometry": { "type": "Point", "coordinates": [ 122.514911, 10.743445 ] } },
{ "type": "Feature", "properties": { "name": "Generika Drugstore", "category": "Health", "type": "Pharmacy", "address": "Bangga Singko, Zone 4 Brgy, Pavia, 5001 Iloilo", "contact_mobile": "9399029060", "contact_landline": null, "email": null, "barangay": "Jibao-an", "district": null, "municity": "Pavia", "province": "Iloilo", "logo": "https://drive.google.com/uc?export=view&id=1sxnvp-wmIJIKXxe2Hp-UxaJe4n11Ag6a", "facebook": null, "url": "http://www.generika.com.ph/" }, "geometry": { "type": "Point", "coordinates": [ 122.515404, 10.742757 ] } },
{ "type": "Feature", "properties": { "name": "M&B Pharmacy", "category": "Health", "type": "Pharmacy", "address": "QG8F+F74, Angela Avenue, Pavia, Iloilo", "contact_mobile": null, "contact_landline": null, "email": null, "barangay": "Jibao-an", "district": null, "municity": "Pavia", "province": "Iloilo", "logo": null, "facebook": "https://www.facebook.com/profile.php?id=100091942381793", "url": null }, "geometry": { "type": "Point", "coordinates": [ 122.507334, 10.75284 ] } },
{ "type": "Feature", "properties": { "name": "Antonita Pharmacy", "category": "Health", "type": "Pharmacy", "address": "QGFR+MWV, Lopez Jaena St, Pavia, Iloilo", "contact_mobile": null, "contact_landline": null, "email": "antonitapharmacy@gmail.com", "barangay": "Purok III (Pob.)", "district": null, "municity": "Pavia", "province": "Iloilo", "logo": "https://drive.google.com/uc?export=view&id=1tXjUh55uvnv_Zc06DxL04Pn6XDfjOk15", "facebook": "https://www.facebook.com/profile.php?id=61561502795164", "url": null }, "geometry": { "type": "Point", "coordinates": [ 122.542308, 10.774229 ] } },
{ "type": "Feature", "properties": { "name": "K-M Pharmacy", "category": "Health", "type": "Pharmacy", "address": "QGGR+2X4, Hedriana St, Pavia, 5001 Iloilo", "contact_mobile": null, "contact_landline": "(033)3206534", "email": null, "barangay": "Purok III (Pob.)", "district": null, "municity": "Pavia", "province": "Iloilo", "logo": null, "facebook": null, "url": null }, "geometry": { "type": "Point", "coordinates": [ 122.542466, 10.775015 ] } },
{ "type": "Feature", "properties": { "name": "Dental Clinic Dr. Ma. Luzviminda Superio Belgira", "category": "Health", "type": "Specialty Outpatient Centers", "address": "QGFR+HPP, Evangelista St, Purok II, Pavia, Iloilo City, 5001 Iloilo", "contact_mobile": "9502230178", "contact_landline": null, "email": null, "barangay": "Purok III (Pob.)", "district": null, "municity": "Pavia", "province": "Iloilo", "logo": null, "facebook": null, "url": null }, "geometry": { "type": "Point", "coordinates": [ 122.541826, 10.773952 ] } },
{ "type": "Feature", "properties": { "name": "Dental Clinic", "category": "Health", "type": "Specialty Outpatient Centers", "address": "Gonzaga St, Pavia, Iloilo City, 5001 Iloilo", "contact_mobile": "9219393336", "contact_landline": null, "email": null, "barangay": "Purok IV (Pob.)", "district": null, "municity": "Pavia", "province": "Iloilo", "logo": null, "facebook": null, "url": null }, "geometry": { "type": "Point", "coordinates": [ 122.539391, 10.771829 ] } },
{ "type": "Feature", "properties": { "name": "Health Aid Pharmacy", "category": "Health", "type": "Pharmacy", "address": "QGFR+46W, Pavia, Iloilo", "contact_mobile": "9103310423", "contact_landline": null, "email": null, "barangay": "Purok IV (Pob.)", "district": null, "municity": "Pavia", "province": "Iloilo", "logo": null, "facebook": null, "url": null }, "geometry": { "type": "Point", "coordinates": [ 122.540569, 10.772857 ] } },
{ "type": "Feature", "properties": { "name": "Jm Pharmacy", "category": "Health", "type": "Pharmacy", "address": "QGFR+H56, Maquiling St, Pavia, Iloilo", "contact_mobile": null, "contact_landline": null, "email": null, "barangay": "Purok IV (Pob.)", "district": null, "municity": "Pavia", "province": "Iloilo", "logo": null, "facebook": null, "url": null }, "geometry": { "type": "Point", "coordinates": [ 122.540332, 10.773877 ] } },
{ "type": "Feature", "properties": { "name": "Pavia Health Center", "category": "Health", "type": "Primary Care Facilities", "address": "QGFR+J8V, Sumakwel St, Pavia, 5001 Iloilo", "contact_mobile": null, "contact_landline": "(033) 501-1279 ", "email": "paviarhu@yahoo.com", "barangay": "Purok IV (Pob.)", "district": null, "municity": "Pavia", "province": "Iloilo", "logo": null, "facebook": null, "url": null }, "geometry": { "type": "Point", "coordinates": [ 122.540792, 10.774118 ] } },
{ "type": "Feature", "properties": { "name": "Gorriceta Dental Clinic (Dr. Allyn Rose Gorriceta)", "category": "Health", "type": "Specialty Outpatient Centers", "address": "51 Gumban St, Pavia, 5001 Iloilo", "contact_mobile": null, "contact_landline": null, "email": null, "barangay": "Purok I (Pob.)", "district": null, "municity": "Pavia", "province": "Iloilo", "logo": null, "facebook": null, "url": null }, "geometry": { "type": "Point", "coordinates": [ 122.542099, 10.77649 ] } },
{ "type": "Feature", "properties": { "name": "Aguilar Pharmacy", "category": "Health", "type": "Pharmacy", "address": "QGFR+P6X, Sumakwel St, Pavia, Iloilo City, 5001 Iloilo", "contact_mobile": "9985902432", "contact_landline": null, "email": null, "barangay": "Purok II (Pob.)", "district": null, "municity": "Pavia", "province": "Iloilo", "logo": null, "facebook": null, "url": null }, "geometry": { "type": "Point", "coordinates": [ 122.54061, 10.774365 ] } },
{ "type": "Feature", "properties": { "name": "Farmacia Doronila", "category": "Health", "type": "Pharmacy", "address": "Pavia Public Market, Pavia, Iloilo City, Iloilo", "contact_mobile": null, "contact_landline": null, "email": null, "barangay": "Purok II (Pob.)", "district": null, "municity": "Pavia", "province": "Iloilo", "logo": null, "facebook": null, "url": null }, "geometry": { "type": "Point", "coordinates": [ 122.540872, 10.774617 ] } },
{ "type": "Feature", "properties": { "name": "Gregori Pharmacy", "category": "Health", "type": "Pharmacy", "address": "Purok 11 Maquiling St, Pavia, 5001 Iloilo", "contact_mobile": "0915 628 7678", "contact_landline": null, "email": "gregoripharmacy2021@gmail.com", "barangay": "Purok II (Pob.)", "district": null, "municity": "Pavia", "province": "Iloilo", "logo": "https://drive.google.com/uc?export=view&id=1wv_x7EmYY9726IXSy-ue6ZDhtQ0S6Jqp", "facebook": "https://www.facebook.com/gregoripharmacy2021", "url": null }, "geometry": { "type": "Point", "coordinates": [ 122.540152, 10.774129 ] } },
{ "type": "Feature", "properties": { "name": "HP Medical Clinic", "category": "Health", "type": "Primary Care Facilities", "address": "QGGQ+RQ4, Evangelista St, Pavia, Iloilo", "contact_mobile": null, "contact_landline": null, "email": null, "barangay": "Purok II (Pob.)", "district": null, "municity": "Pavia", "province": "Iloilo", "logo": null, "facebook": null, "url": null }, "geometry": { "type": "Point", "coordinates": [ 122.539437, 10.776997 ] } }
]
}
