{
"type": "FeatureCollection",
"name": "HEALTH_SANTA_BARBARA_Health_Facilities_Insights",
"crs": { "type": "name", "properties": { "name": "urn:ogc:def:crs:OGC:1.3:CRS84" } },
"features": [
{ "type": "Feature", "properties": { "name": "The Generics Pharmacy", "category": "Health", "type": "Pharmacy", "address": "CORNER MONTINO-ARROYO ST., SANTA BARBARA, ILOILO, Sta. Barbara, Iloilo, Iloilo City, 5002 Iloilo", "contact_mobile": "9455041490", "contact_landline": null, "email": null, "barangay": "Lupa", "district": null, "municity": "Santa Barbara", "province": "Iloilo", "logo": "https://drive.google.com/uc?export=view&id=1WISI5p2HKjPDV5_QPphHn91Wv_HJhoxf", "facebook": null, "url": "http://www.tgp.com.ph/" }, "geometry": { "type": "Point", "coordinates": [ 122.544467, 10.807204 ] } },
{ "type": "Feature", "properties": { "name": "Umed Pharmacy", "category": "Health", "type": "Pharmacy", "address": "RG2V+823, Iloilo-Sta Barbara Rd, Santa Barbara, 5000 Iloilo", "contact_mobile": null, "contact_landline": null, "email": null, "barangay": "Cabugao Norte", "district": null, "municity": "Santa Barbara", "province": "Iloilo", "logo": null, "facebook": null, "url": null }, "geometry": { "type": "Point", "coordinates": [ 122.542545, 10.800754 ] } },
{ "type": "Feature", "properties": { "name": "Western Visayas Sanitarium And General Hospital", "category": "Health", "type": "Hospitals", "address": "Brgy. Inangayan, Santa Barbara, Philippines", "contact_mobile": null, "contact_landline": "(033) 523-9515", "email": "wvsanitarium1927@gmail.com", "barangay": "Inangayan", "district": null, "municity": "Santa Barbara", "province": "Iloilo", "logo": "https://drive.google.com/uc?export=view&id=1n4drgniujUCiXiBSXt50-kaEUKxki7dN", "facebook": "https://www.facebook.com/p/Western-Visayas-Sanitarium-100068940618668/", "url": "https://wvs.doh.gov.ph/" }, "geometry": { "type": "Point", "coordinates": [ 122.526972, 10.813539 ] } },
{ "type": "Feature", "properties": { "name": "BDM Imaging Center, Inc", "category": "Health", "type": "Diagnostic Centers", "address": "TYDYCO COMMERCIAL COMPLEX, Old Iloilo - Capiz Rd, Santa Barbara, 5002 Iloilo", "contact_mobile": "9194289329", "contact_landline": null, "email": null, "barangay": "San Sebastian", "district": null, "municity": "Santa Barbara", "province": "Iloilo", "logo": null, "facebook": null, "url": null }, "geometry": { "type": "Point", "coordinates": [ 122.527089, 10.827063 ] } },
{ "type": "Feature", "properties": { "name": "Life Extension (Santa Barbara) Medical Clinic & Pharmacy", "category": "Health", "type": "Primary Care Facilities", "address": "Santos Arcade Brgy, Santa Barbara, Iloilo", "contact_mobile": "9178800174", "contact_landline": null, "email": null, "barangay": "San Sebastian", "district": null, "municity": "Santa Barbara", "province": "Iloilo", "logo": null, "facebook": null, "url": "http://www.lifeextensionphilippines.ph/" }, "geometry": { "type": "Point", "coordinates": [ 122.529353, 10.822381 ] } },
{ "type": "Feature", "properties": { "name": "Life Extension (Santa Barbara) Medical Clinic & Pharmacy", "category": "Health", "type": "Pharmacy", "address": "Santos Arcade Brgy, Santa Barbara, Iloilo", "contact_mobile": "9178800174", "contact_landline": null, "email": null, "barangay": "San Sebastian", "district": null, "municity": "Santa Barbara", "province": "Iloilo", "logo": null, "facebook": null, "url": "http://www.lifeextensionphilippines.ph/" }, "geometry": { "type": "Point", "coordinates": [ 122.529353, 10.822381 ] } },
{ "type": "Feature", "properties": { "name": "Mercury Drug Santa Barbara Branch", "category": "Health", "type": "Pharmacy", "address": "RGCH+XMQ, Iloilo R-3 Rd, Santa Barbara, Iloilo", "contact_mobile": null, "contact_landline": null, "email": null, "barangay": "San Sebastian", "district": null, "municity": "Santa Barbara", "province": "Iloilo", "logo": "https://drive.google.com/uc?export=view&id=1-3ZIoKxrSzJNiR__AhNjEIaL8XWYaw_C", "facebook": null, "url": "http://www.mercurydrug.com/" }, "geometry": { "type": "Point", "coordinates": [ 122.529254, 10.822481 ] } },
{ "type": "Feature", "properties": { "name": "Super K Drug", "category": "Health", "type": "Pharmacy", "address": "RGCH+XP3, Jaro, Santa Barbara, Iloilo", "contact_mobile": null, "contact_landline": null, "email": null, "barangay": "San Sebastian", "district": null, "municity": "Santa Barbara", "province": "Iloilo", "logo": null, "facebook": null, "url": null }, "geometry": { "type": "Point", "coordinates": [ 122.529338, 10.82237 ] } },
{ "type": "Feature", "properties": { "name": "Elan Pharmacy And Medical Clinic", "category": "Health", "type": "Pharmacy", "address": "QGG4+46G, Angela Avenue, San Miguel, Iloilo", "contact_mobile": null, "contact_landline": null, "email": null, "barangay": "Balabag", "district": null, "municity": "Santa Barbara", "province": "Iloilo", "logo": "https://drive.google.com/uc?export=view&id=1TNgpRY9LI8lVaACUNudWtg6OeEJaajlY", "facebook": "https://www.facebook.com/profile.php?id=100086495262020", "url": null }, "geometry": { "type": "Point", "coordinates": [ 122.505578, 10.775346 ] } },
{ "type": "Feature", "properties": { "name": "Elan Pharmacy And Medical Clinic", "category": "Health", "type": "Primary Care Facilities", "address": "QGG4+46G, Angela Avenue, San Miguel, Iloilo", "contact_mobile": null, "contact_landline": null, "email": null, "barangay": "Balabag", "district": null, "municity": "Santa Barbara", "province": "Iloilo", "logo": "https://drive.google.com/uc?export=view&id=1TNgpRY9LI8lVaACUNudWtg6OeEJaajlY", "facebook": "https://www.facebook.com/profile.php?id=100086495262020", "url": null }, "geometry": { "type": "Point", "coordinates": [ 122.505578, 10.775346 ] } },
{ "type": "Feature", "properties": { "name": "Pedregosa Drugmart", "category": "Health", "type": "Pharmacy", "address": "QGG3+6W8, Angela Avenue, San Miguel, Iloilo", "contact_mobile": null, "contact_landline": null, "email": null, "barangay": "Balabag", "district": null, "municity": "Santa Barbara", "province": "Iloilo", "logo": null, "facebook": null, "url": null }, "geometry": { "type": "Point", "coordinates": [ 122.50482, 10.775531 ] } },
{ "type": "Feature", "properties": { "name": "Department Of Health Regional Office VI", "category": "Health", "type": "Primary Care Facilities", "address": "RG7J+46G, Jaro, Santa Barbara, Iloilo", "contact_mobile": null, "contact_landline": null, "email": null, "barangay": "Bolong Oeste", "district": null, "municity": "Santa Barbara", "province": "Iloilo", "logo": "https://drive.google.com/uc?export=view&id=1px6-YA_xUNg-g5od4UOUmPZa-PpdWG1F", "facebook": null, "url": "https://ro6.doh.gov.ph/" }, "geometry": { "type": "Point", "coordinates": [ 122.530593, 10.812807 ] } },
{ "type": "Feature", "properties": { "name": "Antay's Pharmacy", "category": "Health", "type": "Pharmacy", "address": "RGCM+QXC, Arroyo Street, Santa Barbara, 5002 Iloilo", "contact_mobile": null, "contact_landline": null, "email": null, "barangay": "Poblacion", "district": null, "municity": "Santa Barbara", "province": "Iloilo", "logo": null, "facebook": null, "url": null }, "geometry": { "type": "Point", "coordinates": [ 122.534879, 10.821927 ] } },
{ "type": "Feature", "properties": { "name": "Botica Amiga", "category": "Health", "type": "Pharmacy", "address": "RGFM+2JP, Arroyo Street, Sta. Barbara, Iloilo City, 5002 Iloilo", "contact_mobile": null, "contact_landline": null, "email": null, "barangay": "Poblacion", "district": null, "municity": "Santa Barbara", "province": "Iloilo", "logo": null, "facebook": null, "url": null }, "geometry": { "type": "Point", "coordinates": [ 122.534086, 10.822602 ] } },
{ "type": "Feature", "properties": { "name": "Marz Pharmacy", "category": "Health", "type": "Pharmacy", "address": "Zone V, 0123 Arroyo Street, Santa Barbara, 5002 Iloilo", "contact_mobile": null, "contact_landline": "(033)5022115", "email": null, "barangay": "Poblacion", "district": null, "municity": "Santa Barbara", "province": "Iloilo", "logo": null, "facebook": null, "url": null }, "geometry": { "type": "Point", "coordinates": [ 122.534298, 10.822641 ] } },
{ "type": "Feature", "properties": { "name": "Mediserv Pharmacy", "category": "Health", "type": "Pharmacy", "address": "RGCP+J55, Arroyo Street, Santa Barbara, 5002 Iloilo", "contact_mobile": null, "contact_landline": null, "email": "mediservpharmacy24@yahoo.com", "barangay": "Poblacion", "district": null, "municity": "Santa Barbara", "province": "Iloilo", "logo": null, "facebook": "https://www.facebook.com/profile.php?id=100090815176737", "url": null }, "geometry": { "type": "Point", "coordinates": [ 122.535479, 10.8215 ] } },
{ "type": "Feature", "properties": { "name": "Shams Pharmacy", "category": "Health", "type": "Pharmacy", "address": "RGCM+QXC, Arroyo Street, Santa Barbara, Iloilo", "contact_mobile": null, "contact_landline": null, "email": null, "barangay": "Poblacion", "district": null, "municity": "Santa Barbara", "province": "Iloilo", "logo": null, "facebook": null, "url": null }, "geometry": { "type": "Point", "coordinates": [ 122.534891, 10.821917 ] } },
{ "type": "Feature", "properties": { "name": "The Generics Pharmacy", "category": "Health", "type": "Pharmacy", "address": "RGCP+R2V, Arroyo Street, Cor. Montinola St, Santa Barbara, Iloilo City, 5002 Iloilo", "contact_mobile": null, "contact_landline": "(033)5234605", "email": null, "barangay": "Poblacion", "district": null, "municity": "Santa Barbara", "province": "Iloilo", "logo": "https://drive.google.com/uc?export=view&id=1WISI5p2HKjPDV5_QPphHn91Wv_HJhoxf", "facebook": null, "url": "http://tgp.com.ph/" }, "geometry": { "type": "Point", "coordinates": [ 122.535048, 10.822101 ] } },
{ "type": "Feature", "properties": { "name": "Kaite's Drugmart Sta. Barbara", "category": "Health", "type": "Pharmacy", "address": "RGGJ+2FV, Arroyo Street, Santa Barbara, Iloilo", "contact_mobile": null, "contact_landline": null, "email": null, "barangay": "Poblacion", "district": null, "municity": "Santa Barbara", "province": "Iloilo", "logo": null, "facebook": null, "url": null }, "geometry": { "type": "Point", "coordinates": [ 122.531191, 10.825115 ] } },
{ "type": "Feature", "properties": { "name": "Municipal Health Center", "category": "Health", "type": "Primary Care Facilities", "address": "RGGM+852, Delgado Street, Santa Barbara, Iloilo", "contact_mobile": null, "contact_landline": "033 503 9042", "email": "mhcsb2018@gmail.com", "barangay": "Poblacion", "district": null, "municity": "Santa Barbara", "province": "Iloilo", "logo": null, "facebook": null, "url": null }, "geometry": { "type": "Point", "coordinates": [ 122.532867, 10.825712 ] } },
{ "type": "Feature", "properties": { "name": "Municipal Health Office", "category": "Health", "type": "Primary Care Facilities", "address": "RGHJ+2F8, Santa Barbara Municipal Hall, Rizal Street, Santa Barbara, Iloilo City, 5002", "contact_mobile": null, "contact_landline": "(033)5239098", "email": null, "barangay": "Poblacion", "district": null, "municity": "Santa Barbara", "province": "Iloilo", "logo": null, "facebook": null, "url": null }, "geometry": { "type": "Point", "coordinates": [ 122.531327, 10.827435 ] } },
{ "type": "Feature", "properties": { "name": "Poly May Pharmacy And Medical Clinic", "category": "Health", "type": "Pharmacy", "address": "RGFM+5HF, Arroyo Street, Santa Barbara, Iloilo", "contact_mobile": null, "contact_landline": null, "email": null, "barangay": "Poblacion", "district": null, "municity": "Santa Barbara", "province": "Iloilo", "logo": null, "facebook": null, "url": null }, "geometry": { "type": "Point", "coordinates": [ 122.533922, 10.822939 ] } },
{ "type": "Feature", "properties": { "name": "Poly May Pharmacy And Medical Clinic", "category": "Health", "type": "Primary Care Facilities", "address": "RGFM+5HF, Arroyo Street, Santa Barbara, Iloilo", "contact_mobile": null, "contact_landline": null, "email": null, "barangay": "Poblacion", "district": null, "municity": "Santa Barbara", "province": "Iloilo", "logo": null, "facebook": null, "url": null }, "geometry": { "type": "Point", "coordinates": [ 122.533922, 10.822939 ] } },
{ "type": "Feature", "properties": { "name": "Rose Pharmacy", "category": "Health", "type": "Pharmacy", "address": "RGFJ+GC7, Roosevelt Street, Santa Barbara, Iloilo", "contact_mobile": null, "contact_landline": null, "email": null, "barangay": "Poblacion", "district": null, "municity": "Santa Barbara", "province": "Iloilo", "logo": "https://drive.google.com/uc?export=view&id=14JIJ98mtjSpKY0CqPhcFQnA-uvnzQwLh", "facebook": null, "url": "http://www.rosepharmacy.com/" }, "geometry": { "type": "Point", "coordinates": [ 122.531058, 10.823796 ] } },
{ "type": "Feature", "properties": { "name": "SDP Drugstore", "category": "Health", "type": "Pharmacy", "address": "Zone 2, Hard Bldg., Merlo Street, Brgy. Sta. Barbara, Iloilo City, 5003 Iloilo", "contact_mobile": "9186307763", "contact_landline": null, "email": null, "barangay": "Poblacion", "district": null, "municity": "Santa Barbara", "province": "Iloilo", "logo": null, "facebook": null, "url": null }, "geometry": { "type": "Point", "coordinates": [ 122.533724, 10.826588 ] } },
{ "type": "Feature", "properties": { "name": "Silao Ultrasound Clinic", "category": "Health", "type": "Specialty Outpatient Centers", "address": "RGGJ+GHH, SECOND FLOOR TERESITA BUILDING,CORNER DELGADO, Magalona St, Santa Barbara", "contact_mobile": null, "contact_landline": null, "email": null, "barangay": "Poblacion", "district": null, "municity": "Santa Barbara", "province": "Iloilo", "logo": null, "facebook": null, "url": null }, "geometry": { "type": "Point", "coordinates": [ 122.531422, 10.826349 ] } },
{ "type": "Feature", "properties": { "name": "St. Therese Pharmacy - Iloilo", "category": "Health", "type": "Pharmacy", "address": "Brgy, Taft Street, Santa Barbara, 5002 Iloilo", "contact_mobile": "9288748221", "contact_landline": null, "email": "sttheresepharmacyiloilo@gmail.com", "barangay": "Poblacion", "district": null, "municity": "Santa Barbara", "province": "Iloilo", "logo": "https://drive.google.com/uc?export=view&id=1hKCBRZF8qJdMe0uI_7dEr4v0jEZdcLvo", "facebook": "https://www.facebook.com/sttheresepharmacyiloilo", "url": null }, "geometry": { "type": "Point", "coordinates": [ 122.533957, 10.825792 ] } },
{ "type": "Feature", "properties": { "name": "Suelo Pharmacy", "category": "Health", "type": "Pharmacy", "address": "RGGJ+4Q6, Roosevelt Street, Santa Barbara, Iloilo City, 5002 Iloilo", "contact_mobile": null, "contact_landline": null, "email": null, "barangay": "Poblacion", "district": null, "municity": "Santa Barbara", "province": "Iloilo", "logo": null, "facebook": null, "url": null }, "geometry": { "type": "Point", "coordinates": [ 122.531838, 10.825313 ] } },
{ "type": "Feature", "properties": { "name": "The Generics Pharmacy", "category": "Health", "type": "Pharmacy", "address": "RGFJ+VGC, Roosevelt Street, Santa Barbara, Iloilo", "contact_mobile": null, "contact_landline": null, "email": null, "barangay": "Poblacion", "district": null, "municity": "Santa Barbara", "province": "Iloilo", "logo": "https://drive.google.com/uc?export=view&id=1WISI5p2HKjPDV5_QPphHn91Wv_HJhoxf", "facebook": null, "url": "http://tgp.com.ph/" }, "geometry": { "type": "Point", "coordinates": [ 122.531279, 10.824693 ] } },
{ "type": "Feature", "properties": { "name": "Watsons Savemore Santa Barbara", "category": "Health", "type": "Pharmacy", "address": "Savemore Sta. Barbara, Arroyo St. Barangay Zone III (Pob.),, Santa Barbara Iloilo, Sta Barbara, 5002 Iloilo", "contact_mobile": "9178241842", "contact_landline": null, "email": null, "barangay": "Poblacion", "district": null, "municity": "Santa Barbara", "province": "Iloilo", "logo": "https://drive.google.com/uc?export=view&id=1kwmgcp2ELwTUKyKUHXddmwYTq4EuT1FP", "facebook": null, "url": "http://www.watsons.com.ph/" }, "geometry": { "type": "Point", "coordinates": [ 122.531632, 10.824069 ] } }
]
}
